<?xml version="1.0" encoding="UTF-8"?>
<kml xmlns="http://www.opengis.net/kml/2.2" xmlns:gx="http://www.google.com/kml/ext/2.2" xmlns:kml="http://www.opengis.net/kml/2.2" xmlns:atom="http://www.w3.org/2005/Atom">
<Folder>
  <name>MNDNR LakeFinder</name>


  <Folder>
    <Style id="lakeStyle">
      <LineStyle>
        <color>F7FF3333</color>
        <width>4</width>
      </LineStyle>
    </Style>
    <name>Minnesota Lake Basins</name>
  <Placemark>
      <styleUrl>#lakeStyle</styleUrl>
      <MultiGeometry>
        <LineString><coordinates>-93.437601,45.582789,0 -93.437368,45.582789,0 -93.436732,45.582779,0 -93.436180,45.582692,0 -93.435814,45.582557,0 -93.435576,45.582438,0 -93.435286,45.582267,0 -93.435274,45.582259,0 -93.435107,45.582148,0 -93.434920,45.582024,0 -93.434648,45.581954,0 -93.434392,45.581788,0 -93.434213,45.581658,0 -93.434197,45.581639,0 -93.434042,45.581456,0 -93.433896,45.581296,0 -93.433880,45.581278,0 -93.433649,45.581106,0 -93.433564,45.581077,0 -93.433564,45.581017,0 -93.433563,45.580922,0 -93.433511,45.580797,0 -93.433451,45.580660,0 -93.433340,45.580524,0 -93.433289,45.580476,0 -93.433287,45.580286,0 -93.433295,45.580161,0 -93.433304,45.580146,0 -93.433345,45.580083,0 -93.433412,45.580006,0 -93.433395,45.579952,0 -93.433284,45.579845,0 -93.433258,45.579768,0 -93.433383,45.579565,0 -93.433408,45.579416,0 -93.433338,45.579190,0 -93.433313,45.579149,0 -93.433201,45.578970,0 -93.433173,45.578703,0 -93.433137,45.578459,0 -93.433144,45.578214,0 -93.433107,45.577869,0 -93.433130,45.577470,0 -93.433122,45.577373,0 -93.433111,45.577220,0 -93.433057,45.577096,0 -93.432973,45.576899,0 -93.432869,45.576691,0 -93.432759,45.576686,0 -93.432488,45.576723,0 -93.432378,45.576705,0 -93.432082,45.576802,0 -93.431861,45.576737,0 -93.431411,45.576619,0 -93.431164,45.576543,0 -93.431028,45.576496,0 -93.430901,45.576490,0 -93.430706,45.576509,0 -93.430410,45.576546,0 -93.430240,45.576558,0 -93.430079,45.576529,0 -93.429765,45.576536,0 -93.429520,45.576561,0 -93.429274,45.576562,0 -93.429010,45.576498,0 -93.428705,45.576427,0 -93.428433,45.576327,0 -93.428042,45.576198,0 -93.427660,45.576116,0 -93.427558,45.576098,0 -93.427498,45.576057,0 -93.427430,45.576027,0 -93.427349,45.575989,0 -93.427328,45.575980,0 -93.427270,45.575944,0 -93.427158,45.575873,0 -93.427094,45.575816,0 -93.427038,45.575767,0 -93.426919,45.575708,0 -93.426749,45.575655,0 -93.426426,45.575549,0 -93.426154,45.575478,0 -93.425890,45.575342,0 -93.425516,45.575207,0 -93.425167,45.575041,0 -93.425014,45.574893,0 -93.424817,45.574715,0 -93.424697,45.574507,0 -93.424619,45.574269,0 -93.424593,45.574174,0 -93.424541,45.574079,0 -93.424532,45.574014,0 -93.424473,45.573972,0 -93.424379,45.573943,0 -93.424345,45.573919,0 -93.424319,45.573824,0 -93.424215,45.573479,0 -93.424161,45.573062,0 -93.424148,45.572515,0 -93.424205,45.572139,0 -93.424245,45.571883,0 -93.424311,45.571597,0 -93.424392,45.571156,0 -93.424491,45.570811,0 -93.424591,45.570560,0 -93.424691,45.570298,0 -93.424824,45.569940,0 -93.425008,45.569606,0 -93.425163,45.569348,0 -93.425184,45.569314,0 -93.425284,45.569123,0 -93.425452,45.568944,0 -93.425527,45.568705,0 -93.425618,45.568484,0 -93.425620,45.568478,0 -93.425684,45.568276,0 -93.425790,45.568104,0 -93.425919,45.567894,0 -93.426045,45.567721,0 -93.426128,45.567524,0 -93.426179,45.567468,0 -93.426296,45.567339,0 -93.426448,45.567249,0 -93.426592,45.567213,0 -93.426656,45.567191,0 -93.426829,45.567134,0 -93.426862,45.567099,0 -93.426929,45.566985,0 -93.427039,45.566907,0 -93.427072,45.566824,0 -93.427046,45.566770,0 -93.427028,45.566663,0 -93.427062,45.566592,0 -93.427066,45.566582,0 -93.427087,45.566532,0 -93.427139,45.566503,0 -93.427205,45.566466,0 -93.427306,45.566424,0 -93.427408,45.566453,0 -93.427460,45.566490,0 -93.427528,45.566536,0 -93.427621,45.566572,0 -93.427900,45.566493,0 -93.428078,45.566427,0 -93.428230,45.566361,0 -93.428348,45.566289,0 -93.428660,45.566044,0 -93.428913,45.565852,0 -93.429174,45.565679,0 -93.429740,45.565403,0 -93.429957,45.565278,0 -93.429959,45.565277,0 -93.430061,45.565259,0 -93.430099,45.565263,0 -93.430315,45.565288,0 -93.430603,45.565215,0 -93.430852,45.565194,0 -93.431043,45.565178,0 -93.431331,45.565111,0 -93.431627,45.565038,0 -93.431925,45.565032,0 -93.432246,45.565024,0 -93.432779,45.564933,0 -93.433321,45.564901,0 -93.433660,45.564870,0 -93.433781,45.564840,0 -93.433855,45.564822,0 -93.433982,45.564815,0 -93.434109,45.564809,0 -93.434296,45.564826,0 -93.434431,45.564778,0 -93.434592,45.564795,0 -93.434694,45.564812,0 -93.434812,45.564735,0 -93.435007,45.564734,0 -93.435125,45.564668,0 -93.435134,45.564666,0 -93.435430,45.564601,0 -93.435887,45.564564,0 -93.436505,45.564472,0 -93.436869,45.564453,0 -93.437117,45.564498,0 -93.437158,45.564505,0 -93.437230,45.564481,0 -93.437336,45.564445,0 -93.437878,45.564431,0 -93.438480,45.564482,0 -93.438812,45.564582,0 -93.439363,45.564664,0 -93.439796,45.564733,0 -93.439890,45.564805,0 -93.439925,45.564929,0 -93.440016,45.564970,0 -93.440018,45.564971,0 -93.440019,45.564971,0 -93.440120,45.564958,0 -93.440221,45.564922,0 -93.440331,45.564922,0 -93.440705,45.565022,0 -93.440931,45.565152,0 -93.441003,45.565193,0 -93.441129,45.565244,0 -93.441309,45.565317,0 -93.441471,45.565453,0 -93.441600,45.565649,0 -93.441694,45.565756,0 -93.441763,45.565934,0 -93.441825,45.566232,0 -93.441844,45.566452,0 -93.441972,45.566642,0 -93.442136,45.566838,0 -93.442255,45.566980,0 -93.442399,45.567131,0 -93.442595,45.567296,0 -93.442681,45.567445,0 -93.442903,45.567635,0 -93.443039,45.567706,0 -93.443095,45.567715,0 -93.443183,45.567729,0 -93.443302,45.567752,0 -93.443472,45.567817,0 -93.443558,45.567942,0 -93.443660,45.567989,0 -93.443898,45.568065,0 -93.444195,45.568148,0 -93.444392,45.568175,0 -93.444441,45.568182,0 -93.444696,45.568217,0 -93.444968,45.568288,0 -93.445578,45.568297,0 -93.446062,45.568367,0 -93.446478,45.568413,0 -93.446529,45.568410,0 -93.446757,45.568400,0 -93.446969,45.568440,0 -93.447399,45.568514,0 -93.447886,45.568598,0 -93.448727,45.568803,0 -93.449067,45.568950,0 -93.449433,45.569092,0 -93.449688,45.569204,0 -93.449807,45.569243,0 -93.450096,45.569339,0 -93.450385,45.569409,0 -93.450537,45.569409,0 -93.450808,45.569384,0 -93.450809,45.569384,0 -93.450902,45.569425,0 -93.450982,45.569425,0 -93.450995,45.569425,0 -93.451063,45.569395,0 -93.451164,45.569381,0 -93.451198,45.569376,0 -93.451266,45.569400,0 -93.451326,45.569465,0 -93.451354,45.569497,0 -93.451395,45.569542,0 -93.451424,45.569547,0 -93.451547,45.569566,0 -93.451666,45.569589,0 -93.452194,45.569825,0 -93.452364,45.569961,0 -93.452466,45.570003,0 -93.452730,45.570091,0 -93.452892,45.570168,0 -93.453090,45.570329,0 -93.453139,45.570369,0 -93.453463,45.570546,0 -93.453803,45.570759,0 -93.454096,45.570882,0 -93.454169,45.570913,0 -93.454569,45.571060,0 -93.454808,45.571255,0 -93.455004,45.571409,0 -93.455337,45.571748,0 -93.455551,45.571991,0 -93.455705,45.572204,0 -93.455962,45.572513,0 -93.456161,45.572953,0 -93.456282,45.573310,0 -93.456378,45.573666,0 -93.456492,45.574130,0 -93.456529,45.574476,0 -93.456473,45.574893,0 -93.456366,45.575203,0 -93.456191,45.575656,0 -93.455864,45.576139,0 -93.455698,45.576479,0 -93.455304,45.577023,0 -93.454775,45.577733,0 -93.454472,45.577997,0 -93.454084,45.578254,0 -93.453595,45.578566,0 -93.453122,45.578859,0 -93.452818,45.578980,0 -93.452285,45.579130,0 -93.452176,45.579214,0 -93.452100,45.579286,0 -93.451719,45.579401,0 -93.451508,45.579473,0 -93.451322,45.579509,0 -93.451161,45.579558,0 -93.450865,45.579690,0 -93.450662,45.579697,0 -93.450484,45.579733,0 -93.450146,45.579800,0 -93.449807,45.579896,0 -93.449308,45.580006,0 -93.448766,45.580127,0 -93.448123,45.580248,0 -93.447742,45.580297,0 -93.447183,45.580377,0 -93.446895,45.580384,0 -93.446683,45.580421,0 -93.446387,45.580499,0 -93.445930,45.580644,0 -93.445490,45.580771,0 -93.444940,45.580898,0 -93.444492,45.581013,0 -93.444068,45.581104,0 -93.443730,45.581212,0 -93.443527,45.581302,0 -93.443409,45.581338,0 -93.443113,45.581399,0 -93.442969,45.581459,0 -93.442850,45.581478,0 -93.442706,45.581496,0 -93.442703,45.581498,0 -93.442656,45.581520,0 -93.442605,45.581544,0 -93.442503,45.581532,0 -93.442418,45.581533,0 -93.442326,45.581605,0 -93.442265,45.581669,0 -93.442132,45.581808,0 -93.441930,45.581922,0 -93.441676,45.582012,0 -93.441338,45.582138,0 -93.440957,45.582247,0 -93.440619,45.582326,0 -93.440458,45.582344,0 -93.440323,45.582410,0 -93.439815,45.582501,0 -93.439467,45.582556,0 -93.439213,45.582581,0 -93.439027,45.582677,0 -93.438867,45.582743,0 -93.438672,45.582762,0 -93.438491,45.582767,0 -93.438231,45.582775,0 -93.437748,45.582789,0 -93.437601,45.582789,0</coordinates></LineString>
      </MultiGeometry>
      <name>Green</name>
      <description>
        <![CDATA[
          <a href="http://www.dnr.state.mn.us/lakefind/lake.html?id=30013600">DNR LakeFinder</a>
        ]]>
      </description>
    </Placemark>
  
  </Folder>



  <Folder>
    <Style id="contourStyle">
      <LabelStyle> 
        <scale>1.1</scale>         
      </LabelStyle>
      <LineStyle>
        <color>50FFFFFF</color>
        <width>1</width>
        <gx:labelVisibility>1</gx:labelVisibility>
      </LineStyle>
    </Style>
    <name>Minnesota Lake Bathymetry</name>
  <Placemark>
      <styleUrl>#contourStyle</styleUrl>
      <LineString><coordinates>-93.429451,45.576276,0 -93.429128,45.576241,0 -93.428816,45.576162,0 -93.428568,45.576090,0 -93.428224,45.575983,0 -93.428066,45.575931,0 -93.427852,45.575841,0 -93.427648,45.575741,0 -93.427503,45.575676,0 -93.427370,45.575588,0 -93.427152,45.575406,0 -93.426959,45.575264,0 -93.426884,45.575164,0 -93.426788,45.575090,0 -93.426655,45.574986,0 -93.426629,45.574916,0 -93.426516,45.574706,0 -93.426456,45.574630,0 -93.426339,45.574455,0 -93.426174,45.574185,0 -93.426121,45.574082,0 -93.426079,45.573956,0 -93.426023,45.573629,0 -93.425984,45.573424,0 -93.425923,45.573188,0 -93.425896,45.572999,0 -93.425874,45.572754,0 -93.425879,45.572498,0 -93.425893,45.572405,0 -93.425925,45.572302,0 -93.425960,45.572086,0 -93.426003,45.571891,0 -93.426038,45.571796,0 -93.426071,45.571673,0 -93.426097,45.571602,0 -93.426147,45.571425,0 -93.426178,45.571315,0 -93.426218,45.571037,0 -93.426247,45.570931,0 -93.426273,45.570832,0 -93.426341,45.570656,0 -93.426376,45.570541,0 -93.426434,45.570358,0 -93.426477,45.570228,0 -93.426503,45.570137,0 -93.426593,45.569936,0 -93.426678,45.569680,0 -93.426754,45.569500,0 -93.426827,45.569265,0 -93.426947,45.568956,0 -93.427004,45.568843,0 -93.427101,45.568738,0 -93.427208,45.568542,0 -93.427364,45.568289,0 -93.427450,45.568172,0 -93.427668,45.567938,0 -93.427732,45.567870,0 -93.427806,45.567753,0 -93.427971,45.567615,0 -93.428035,45.567573,0 -93.428084,45.567525,0 -93.428182,45.567459,0 -93.428362,45.567336,0 -93.428484,45.567274,0 -93.428621,45.567217,0 -93.428719,45.567162,0 -93.428849,45.567113,0 -93.428942,45.567070,0 -93.429156,45.567004,0 -93.429495,45.566900,0 -93.429666,45.566847,0 -93.429867,45.566810,0 -93.430241,45.566723,0 -93.430498,45.566642,0 -93.430674,45.566563,0 -93.430853,45.566494,0 -93.431237,45.566366,0 -93.431698,45.566216,0 -93.431857,45.566151,0 -93.432140,45.566057,0 -93.432348,45.565992,0 -93.432549,45.565935,0 -93.432673,45.565915,0 -93.433013,45.565824,0 -93.433368,45.565710,0 -93.433808,45.565584,0 -93.434165,45.565524,0 -93.434441,45.565465,0 -93.434574,45.565407,0 -93.434839,45.565385,0 -93.435220,45.565413,0 -93.435522,45.565465,0 -93.435852,45.565535,0 -93.436088,45.565581,0 -93.436514,45.565641,0 -93.436882,45.565707,0 -93.437230,45.565790,0 -93.437509,45.565868,0 -93.437747,45.565944,0 -93.437845,45.565987,0 -93.438019,45.566043,0 -93.438180,45.566094,0 -93.438461,45.566258,0 -93.438739,45.566413,0 -93.439025,45.566624,0 -93.439302,45.566877,0 -93.439515,45.567046,0 -93.439653,45.567148,0 -93.440021,45.567388,0 -93.440306,45.567567,0 -93.440527,45.567657,0 -93.440621,45.567718,0 -93.440728,45.567805,0 -93.440887,45.567926,0 -93.441084,45.568030,0 -93.441232,45.568111,0 -93.441457,45.568222,0 -93.441636,45.568314,0 -93.441792,45.568396,0 -93.442064,45.568487,0 -93.442216,45.568535,0 -93.442421,45.568577,0 -93.442598,45.568604,0 -93.442959,45.568621,0 -93.443259,45.568615,0 -93.443550,45.568599,0 -93.444047,45.568600,0 -93.444523,45.568599,0 -93.444890,45.568598,0 -93.445129,45.568625,0 -93.445331,45.568660,0 -93.445586,45.568719,0 -93.445815,45.568791,0 -93.445910,45.568835,0 -93.446053,45.568889,0 -93.446254,45.568957,0 -93.446468,45.569027,0 -93.446748,45.569108,0 -93.446849,45.569148,0 -93.447039,45.569227,0 -93.447231,45.569283,0 -93.447374,45.569328,0 -93.447751,45.569455,0 -93.447882,45.569462,0 -93.448200,45.569519,0 -93.448568,45.569595,0 -93.448977,45.569702,0 -93.449388,45.569793,0 -93.449686,45.569868,0 -93.449791,45.569897,0 -93.450041,45.569934,0 -93.450175,45.569948,0 -93.450343,45.569949,0 -93.450556,45.569987,0 -93.450672,45.570015,0 -93.450817,45.570054,0 -93.450984,45.570130,0 -93.451056,45.570165,0 -93.451256,45.570221,0 -93.451468,45.570283,0 -93.451675,45.570366,0 -93.451861,45.570440,0 -93.452023,45.570509,0 -93.452210,45.570596,0 -93.452320,45.570672,0 -93.452461,45.570748,0 -93.452504,45.570777,0 -93.452628,45.570824,0 -93.452749,45.570887,0 -93.452955,45.571017,0 -93.453021,45.571066,0 -93.453142,45.571139,0 -93.453291,45.571240,0 -93.453488,45.571369,0 -93.453623,45.571470,0 -93.453783,45.571567,0 -93.453936,45.571666,0 -93.453988,45.571711,0 -93.454124,45.571803,0 -93.454351,45.571997,0 -93.454471,45.572106,0 -93.454631,45.572220,0 -93.454710,45.572307,0 -93.454911,45.572473,0 -93.454965,45.572533,0 -93.455129,45.572672,0 -93.455280,45.572823,0 -93.455355,45.572924,0 -93.455446,45.573060,0 -93.455527,45.573166,0 -93.455673,45.573319,0 -93.455763,45.573434,0 -93.455851,45.573532,0 -93.455962,45.573652,0 -93.456030,45.573734,0 -93.456126,45.573832,0 -93.456182,45.573922,0 -93.456264,45.574107,0 -93.456323,45.574196,0 -93.456398,45.574362,0 -93.456429,45.574425,0 -93.456438,45.574545,0 -93.456434,45.574707,0 -93.456399,45.574852,0 -93.456310,45.575072,0 -93.456232,45.575188,0 -93.456125,45.575362,0 -93.455998,45.575580,0 -93.455924,45.575680,0 -93.455805,45.575851,0 -93.455693,45.576025,0 -93.455618,45.576116,0 -93.455562,45.576153,0 -93.455456,45.576290,0 -93.455378,45.576373,0 -93.455174,45.576542,0 -93.455011,45.576705,0 -93.454908,45.576817,0 -93.454710,45.577046,0 -93.454578,45.577173,0 -93.454454,45.577273,0 -93.454341,45.577388,0 -93.454250,45.577464,0 -93.454139,45.577538,0 -93.454012,45.577642,0 -93.453892,45.577702,0 -93.453725,45.577794,0 -93.453572,45.577861,0 -93.453495,45.577888,0 -93.453370,45.577942,0 -93.453151,45.578026,0 -93.453020,45.578076,0 -93.452923,45.578150,0 -93.452693,45.578263,0 -93.452392,45.578367,0 -93.452048,45.578484,0 -93.451932,45.578522,0 -93.451744,45.578600,0 -93.451598,45.578653,0 -93.451461,45.578715,0 -93.451380,45.578741,0 -93.451192,45.578824,0 -93.451078,45.578861,0 -93.450861,45.578941,0 -93.450644,45.579026,0 -93.450462,45.579089,0 -93.450203,45.579151,0 -93.450056,45.579194,0 -93.449827,45.579270,0 -93.449636,45.579347,0 -93.449582,45.579364,0 -93.449387,45.579447,0 -93.449170,45.579516,0 -93.449075,45.579539,0 -93.448970,45.579555,0 -93.448925,45.579574,0 -93.448752,45.579602,0 -93.448560,45.579642,0 -93.448270,45.579722,0 -93.448088,45.579768,0 -93.447909,45.579803,0 -93.447764,45.579816,0 -93.447531,45.579864,0 -93.447395,45.579879,0 -93.447305,45.579889,0 -93.447141,45.579918,0 -93.446988,45.579960,0 -93.446875,45.579965,0 -93.446729,45.579992,0 -93.446530,45.580007,0 -93.446307,45.580030,0 -93.446160,45.580063,0 -93.445882,45.580116,0 -93.445530,45.580185,0 -93.445279,45.580241,0 -93.445194,45.580259,0 -93.444983,45.580288,0 -93.444788,45.580345,0 -93.444548,45.580392,0 -93.444342,45.580450,0 -93.444096,45.580542,0 -93.443900,45.580619,0 -93.443660,45.580696,0 -93.443411,45.580770,0 -93.443255,45.580839,0 -93.443058,45.580902,0 -93.442934,45.580956,0 -93.442780,45.581010,0 -93.442621,45.581058,0 -93.442513,45.581073,0 -93.442320,45.581148,0 -93.442126,45.581190,0 -93.441870,45.581279,0 -93.441628,45.581403,0 -93.441507,45.581435,0 -93.441322,45.581485,0 -93.441137,45.581546,0 -93.440851,45.581613,0 -93.440552,45.581677,0 -93.440306,45.581760,0 -93.440111,45.581816,0 -93.439897,45.581879,0 -93.439595,45.581985,0 -93.438845,45.582168,0 -93.438414,45.582229,0 -93.438258,45.582248,0 -93.437985,45.582305,0 -93.437764,45.582363,0 -93.437545,45.582387,0 -93.437096,45.582469,0 -93.436770,45.582505,0 -93.436597,45.582512,0 -93.436395,45.582503,0 -93.436305,45.582490,0 -93.436160,45.582427,0 -93.436058,45.582408,0 -93.435785,45.582319,0 -93.435610,45.582234,0 -93.435493,45.582156,0 -93.435367,45.582065,0 -93.435209,45.581944,0 -93.435032,45.581814,0 -93.434914,45.581711,0 -93.434824,45.581638,0 -93.434681,45.581512,0 -93.434546,45.581420,0 -93.434415,45.581316,0 -93.434364,45.581224,0 -93.434302,45.581141,0 -93.434217,45.580974,0 -93.434145,45.580824,0 -93.434112,45.580727,0 -93.434088,45.580664,0 -93.434053,45.580503,0 -93.434017,45.580394,0 -93.433964,45.580172,0 -93.433932,45.580070,0 -93.433900,45.579974,0 -93.433894,45.579792,0 -93.433849,45.579610,0 -93.433805,45.579446,0 -93.433756,45.579226,0 -93.433688,45.578942,0 -93.433655,45.578707,0 -93.433610,45.578475,0 -93.433599,45.578282,0 -93.433548,45.578147,0 -93.433522,45.577994,0 -93.433496,45.577863,0 -93.433495,45.577660,0 -93.433496,45.577452,0 -93.433446,45.577274,0 -93.433417,45.577143,0 -93.433398,45.576883,0 -93.433399,45.576779,0 -93.433403,45.576609,0 -93.433377,45.576512,0 -93.433323,45.576453,0 -93.433151,45.576430,0 -93.433000,45.576439,0 -93.432655,45.576498,0 -93.432368,45.576524,0 -93.432157,45.576518,0 -93.431880,45.576467,0 -93.431691,45.576415,0 -93.431434,45.576345,0 -93.431197,45.576304,0 -93.430925,45.576262,0 -93.430610,45.576256,0 -93.430264,45.576247,0 -93.429940,45.576267,0 -93.429798,45.576280,0 -93.429630,45.576286,0 -93.429451,45.576276,0</coordinates></LineString>
      <name>5 ft</name>
    </Placemark>
  <Placemark>
      <styleUrl>#contourStyle</styleUrl>
      <LineString><coordinates>-93.451948,45.578296,0 -93.451788,45.578350,0 -93.451608,45.578395,0 -93.451471,45.578430,0 -93.451230,45.578493,0 -93.451016,45.578536,0 -93.450815,45.578548,0 -93.450646,45.578546,0 -93.450408,45.578514,0 -93.450179,45.578503,0 -93.450015,45.578480,0 -93.449656,45.578449,0 -93.449279,45.578385,0 -93.448725,45.578312,0 -93.448211,45.578242,0 -93.447995,45.578207,0 -93.447884,45.578192,0 -93.447749,45.578157,0 -93.447646,45.578151,0 -93.447502,45.578126,0 -93.447179,45.578097,0 -93.446830,45.578061,0 -93.446602,45.578047,0 -93.446461,45.578043,0 -93.446174,45.578045,0 -93.445898,45.578048,0 -93.445773,45.578059,0 -93.445574,45.578086,0 -93.445423,45.578122,0 -93.445140,45.578186,0 -93.444939,45.578253,0 -93.444837,45.578279,0 -93.444557,45.578389,0 -93.444388,45.578456,0 -93.444347,45.578470,0 -93.444252,45.578489,0 -93.444186,45.578514,0 -93.444068,45.578541,0 -93.443979,45.578564,0 -93.443808,45.578613,0 -93.443697,45.578646,0 -93.443620,45.578670,0 -93.443393,45.578778,0 -93.443224,45.578852,0 -93.443025,45.578922,0 -93.442870,45.578991,0 -93.442799,45.579013,0 -93.442559,45.579130,0 -93.442371,45.579233,0 -93.442190,45.579341,0 -93.442101,45.579390,0 -93.441919,45.579508,0 -93.441789,45.579573,0 -93.441634,45.579648,0 -93.441479,45.579766,0 -93.441366,45.579830,0 -93.441283,45.579883,0 -93.441206,45.579938,0 -93.441109,45.579992,0 -93.440974,45.580092,0 -93.440808,45.580193,0 -93.440704,45.580246,0 -93.440612,45.580293,0 -93.440483,45.580338,0 -93.440348,45.580410,0 -93.440218,45.580475,0 -93.440039,45.580570,0 -93.439904,45.580637,0 -93.439739,45.580727,0 -93.439588,45.580812,0 -93.439384,45.580918,0 -93.439166,45.581029,0 -93.438911,45.581146,0 -93.438535,45.581292,0 -93.438285,45.581431,0 -93.438102,45.581492,0 -93.438023,45.581517,0 -93.437923,45.581562,0 -93.437779,45.581593,0 -93.437652,45.581657,0 -93.437528,45.581708,0 -93.437213,45.581813,0 -93.436948,45.581890,0 -93.436835,45.581913,0 -93.436590,45.581974,0 -93.436346,45.581983,0 -93.436187,45.581976,0 -93.436026,45.581928,0 -93.435853,45.581865,0 -93.435758,45.581819,0 -93.435669,45.581757,0 -93.435573,45.581652,0 -93.435483,45.581521,0 -93.435410,45.581383,0 -93.435362,45.581189,0 -93.435347,45.580953,0 -93.435357,45.580675,0 -93.435366,45.580500,0 -93.435350,45.580209,0 -93.435325,45.580088,0 -93.435319,45.579968,0 -93.435304,45.579809,0 -93.435333,45.579515,0 -93.435334,45.579359,0 -93.435314,45.579162,0 -93.435304,45.578943,0 -93.435263,45.578768,0 -93.435179,45.578549,0 -93.435121,45.578420,0 -93.435025,45.578287,0 -93.434930,45.578106,0 -93.434879,45.578041,0 -93.434790,45.577864,0 -93.434722,45.577734,0 -93.434605,45.577519,0 -93.434522,45.577290,0 -93.434486,45.577211,0 -93.434427,45.577113,0 -93.434325,45.576946,0 -93.434245,45.576768,0 -93.434201,45.576656,0 -93.434142,45.576489,0 -93.434104,45.576387,0 -93.434049,45.576276,0 -93.433984,45.576144,0 -93.433883,45.575871,0 -93.433823,45.575766,0 -93.433676,45.575571,0 -93.433614,45.575476,0 -93.433568,45.575405,0 -93.433453,45.575310,0 -93.433320,45.575172,0 -93.433218,45.575086,0 -93.433082,45.575000,0 -93.432935,45.574968,0 -93.432717,45.574934,0 -93.432488,45.574940,0 -93.432286,45.574974,0 -93.432124,45.574995,0 -93.431907,45.575055,0 -93.431615,45.575087,0 -93.431344,45.575125,0 -93.431194,45.575141,0 -93.431054,45.575166,0 -93.430961,45.575190,0 -93.430806,45.575222,0 -93.430542,45.575308,0 -93.430214,45.575419,0 -93.430009,45.575474,0 -93.429833,45.575510,0 -93.429545,45.575560,0 -93.429392,45.575569,0 -93.429189,45.575583,0 -93.429129,45.575579,0 -93.428900,45.575562,0 -93.428647,45.575521,0 -93.428454,45.575505,0 -93.428255,45.575463,0 -93.428033,45.575406,0 -93.427859,45.575293,0 -93.427690,45.575167,0 -93.427507,45.575011,0 -93.427361,45.574884,0 -93.427264,45.574800,0 -93.427142,45.574621,0 -93.427060,45.574475,0 -93.426997,45.574304,0 -93.426933,45.574152,0 -93.426911,45.574039,0 -93.426885,45.573825,0 -93.426863,45.573699,0 -93.426833,45.573463,0 -93.426810,45.573312,0 -93.426780,45.573156,0 -93.426770,45.572986,0 -93.426792,45.572684,0 -93.426799,45.572520,0 -93.426813,45.572442,0 -93.426826,45.572205,0 -93.426852,45.572062,0 -93.426909,45.571835,0 -93.426942,45.571715,0 -93.426956,45.571598,0 -93.427016,45.571426,0 -93.427048,45.571286,0 -93.427088,45.571183,0 -93.427137,45.570959,0 -93.427187,45.570782,0 -93.427240,45.570658,0 -93.427364,45.570490,0 -93.427457,45.570317,0 -93.427555,45.570168,0 -93.427642,45.570025,0 -93.427765,45.569865,0 -93.427915,45.569644,0 -93.428053,45.569455,0 -93.428154,45.569327,0 -93.428248,45.569214,0 -93.428347,45.569091,0 -93.428548,45.568920,0 -93.428675,45.568813,0 -93.428907,45.568696,0 -93.429048,45.568624,0 -93.429146,45.568562,0 -93.429346,45.568463,0 -93.429490,45.568398,0 -93.429612,45.568333,0 -93.429726,45.568282,0 -93.429958,45.568175,0 -93.430146,45.568090,0 -93.430283,45.568049,0 -93.430413,45.567989,0 -93.430517,45.567954,0 -93.430649,45.567888,0 -93.430750,45.567808,0 -93.430914,45.567709,0 -93.431028,45.567630,0 -93.431273,45.567486,0 -93.431493,45.567364,0 -93.432072,45.567025,0 -93.432244,45.566967,0 -93.432475,45.566856,0 -93.432597,45.566793,0 -93.432743,45.566741,0 -93.432785,45.566716,0 -93.432941,45.566659,0 -93.433058,45.566622,0 -93.433174,45.566583,0 -93.433308,45.566546,0 -93.433491,45.566481,0 -93.433650,45.566438,0 -93.433818,45.566367,0 -93.434013,45.566295,0 -93.434227,45.566221,0 -93.434407,45.566185,0 -93.434586,45.566168,0 -93.435006,45.566172,0 -93.435292,45.566195,0 -93.435497,45.566232,0 -93.435688,45.566280,0 -93.436077,45.566355,0 -93.436406,45.566421,0 -93.436519,45.566451,0 -93.436961,45.566549,0 -93.437250,45.566624,0 -93.437517,45.566716,0 -93.437809,45.566815,0 -93.437999,45.566898,0 -93.438326,45.567059,0 -93.438552,45.567179,0 -93.438769,45.567322,0 -93.438923,45.567450,0 -93.439015,45.567565,0 -93.439096,45.567738,0 -93.439143,45.567869,0 -93.439170,45.567967,0 -93.439277,45.568196,0 -93.439373,45.568348,0 -93.439442,45.568504,0 -93.439589,45.568705,0 -93.439684,45.568827,0 -93.439885,45.568968,0 -93.440062,45.569064,0 -93.440242,45.569139,0 -93.440419,45.569221,0 -93.440747,45.569371,0 -93.440998,45.569518,0 -93.441306,45.569670,0 -93.441515,45.569789,0 -93.441692,45.569859,0 -93.441878,45.569950,0 -93.442123,45.570050,0 -93.442412,45.570169,0 -93.442641,45.570262,0 -93.442874,45.570339,0 -93.443107,45.570400,0 -93.443401,45.570490,0 -93.443639,45.570557,0 -93.443957,45.570642,0 -93.444215,45.570721,0 -93.444429,45.570792,0 -93.444543,45.570828,0 -93.444798,45.570917,0 -93.445016,45.570978,0 -93.445245,45.571018,0 -93.445453,45.571024,0 -93.445723,45.570996,0 -93.445963,45.570963,0 -93.446163,45.570908,0 -93.446403,45.570834,0 -93.446653,45.570768,0 -93.446902,45.570686,0 -93.447222,45.570601,0 -93.447469,45.570586,0 -93.447700,45.570600,0 -93.448185,45.570656,0 -93.448528,45.570680,0 -93.448701,45.570724,0 -93.448956,45.570815,0 -93.449250,45.570916,0 -93.449403,45.570983,0 -93.449606,45.571057,0 -93.449778,45.571129,0 -93.449965,45.571213,0 -93.450192,45.571289,0 -93.450494,45.571422,0 -93.450695,45.571520,0 -93.451015,45.571689,0 -93.451241,45.571831,0 -93.451491,45.571951,0 -93.451626,45.572024,0 -93.451824,45.572164,0 -93.452090,45.572371,0 -93.452283,45.572523,0 -93.452526,45.572663,0 -93.452644,45.572749,0 -93.452753,45.572810,0 -93.453046,45.572934,0 -93.453214,45.573005,0 -93.453374,45.573049,0 -93.453700,45.573127,0 -93.453965,45.573200,0 -93.454218,45.573290,0 -93.454297,45.573313,0 -93.454376,45.573342,0 -93.454575,45.573401,0 -93.454759,45.573487,0 -93.454902,45.573547,0 -93.455132,45.573680,0 -93.455280,45.573759,0 -93.455455,45.573832,0 -93.455631,45.573948,0 -93.455835,45.574061,0 -93.455967,45.574150,0 -93.456076,45.574232,0 -93.456129,45.574310,0 -93.456246,45.574490,0 -93.456264,45.574619,0 -93.456253,45.574818,0 -93.456189,45.575023,0 -93.456065,45.575205,0 -93.455900,45.575388,0 -93.455766,45.575537,0 -93.455654,45.575729,0 -93.455533,45.575896,0 -93.455466,45.575986,0 -93.455331,45.576091,0 -93.455239,45.576195,0 -93.455110,45.576371,0 -93.454930,45.576554,0 -93.454739,45.576732,0 -93.454480,45.576952,0 -93.454244,45.577137,0 -93.454001,45.577285,0 -93.453802,45.577445,0 -93.453507,45.577614,0 -93.453143,45.577823,0 -93.452771,45.577970,0 -93.452531,45.578061,0 -93.452218,45.578201,0 -93.451948,45.578296,0</coordinates></LineString>
      <name>10 ft</name>
    </Placemark>
  <Placemark>
      <styleUrl>#contourStyle</styleUrl>
      <LineString><coordinates>-93.439130,45.580617,0 -93.438781,45.580798,0 -93.438151,45.581144,0 -93.438050,45.581180,0 -93.437900,45.581262,0 -93.437656,45.581351,0 -93.437388,45.581442,0 -93.437297,45.581488,0 -93.436997,45.581581,0 -93.436834,45.581606,0 -93.436586,45.581647,0 -93.436377,45.581655,0 -93.436051,45.581620,0 -93.435898,45.581542,0 -93.435778,45.581391,0 -93.435715,45.581149,0 -93.435684,45.580823,0 -93.435702,45.580453,0 -93.435696,45.580227,0 -93.435669,45.580097,0 -93.435622,45.579813,0 -93.435616,45.579563,0 -93.435585,45.579337,0 -93.435550,45.579175,0 -93.435525,45.578899,0 -93.435496,45.578616,0 -93.435433,45.578368,0 -93.435322,45.578167,0 -93.435153,45.577883,0 -93.435050,45.577718,0 -93.434929,45.577557,0 -93.434816,45.577406,0 -93.434703,45.577252,0 -93.434583,45.577093,0 -93.434521,45.576989,0 -93.434430,45.576765,0 -93.434393,45.576658,0 -93.434335,45.576537,0 -93.434279,45.576384,0 -93.434210,45.576242,0 -93.434188,45.576198,0 -93.434166,45.576069,0 -93.434069,45.575839,0 -93.433966,45.575658,0 -93.433875,45.575489,0 -93.433821,45.575403,0 -93.433760,45.575336,0 -93.433692,45.575275,0 -93.433543,45.575160,0 -93.433453,45.575092,0 -93.433320,45.575008,0 -93.433126,45.574923,0 -93.432973,45.574852,0 -93.432785,45.574821,0 -93.432547,45.574811,0 -93.431907,45.574859,0 -93.431642,45.574885,0 -93.431419,45.574922,0 -93.431045,45.574959,0 -93.430811,45.575003,0 -93.430503,45.575100,0 -93.430206,45.575154,0 -93.429792,45.575255,0 -93.429227,45.575353,0 -93.428849,45.575380,0 -93.428580,45.575374,0 -93.428344,45.575324,0 -93.428215,45.575271,0 -93.428115,45.575210,0 -93.428016,45.575123,0 -93.427877,45.574955,0 -93.427729,45.574764,0 -93.427574,45.574518,0 -93.427508,45.574401,0 -93.427466,45.574227,0 -93.427427,45.574158,0 -93.427324,45.573916,0 -93.427267,45.573642,0 -93.427256,45.573373,0 -93.427271,45.573084,0 -93.427315,45.572761,0 -93.427358,45.572560,0 -93.427379,45.572361,0 -93.427426,45.572108,0 -93.427493,45.571885,0 -93.427547,45.571767,0 -93.427601,45.571623,0 -93.427653,45.571470,0 -93.427745,45.571296,0 -93.427793,45.571140,0 -93.427844,45.570926,0 -93.427876,45.570843,0 -93.427918,45.570778,0 -93.427987,45.570687,0 -93.428178,45.570372,0 -93.428268,45.570231,0 -93.428350,45.570037,0 -93.428406,45.569865,0 -93.428510,45.569643,0 -93.428627,45.569473,0 -93.428707,45.569305,0 -93.428825,45.569106,0 -93.428942,45.568970,0 -93.429096,45.568855,0 -93.429294,45.568717,0 -93.429458,45.568616,0 -93.429742,45.568470,0 -93.429935,45.568389,0 -93.430119,45.568317,0 -93.430304,45.568270,0 -93.430566,45.568211,0 -93.430816,45.568167,0 -93.431112,45.568106,0 -93.431342,45.568082,0 -93.431685,45.568018,0 -93.431959,45.567930,0 -93.432438,45.567746,0 -93.432572,45.567715,0 -93.432845,45.567678,0 -93.433133,45.567632,0 -93.433407,45.567568,0 -93.433612,45.567515,0 -93.433911,45.567452,0 -93.434244,45.567384,0 -93.434675,45.567331,0 -93.435071,45.567292,0 -93.435415,45.567262,0 -93.435578,45.567256,0 -93.435966,45.567256,0 -93.436345,45.567267,0 -93.436823,45.567295,0 -93.437081,45.567310,0 -93.437490,45.567319,0 -93.437798,45.567317,0 -93.438058,45.567361,0 -93.438311,45.567374,0 -93.438508,45.567422,0 -93.438658,45.567524,0 -93.438742,45.567600,0 -93.438867,45.567758,0 -93.438966,45.567940,0 -93.439050,45.568030,0 -93.439137,45.568150,0 -93.439223,45.568259,0 -93.439250,45.568356,0 -93.439314,45.568465,0 -93.439345,45.568540,0 -93.439368,45.568565,0 -93.439448,45.568710,0 -93.439602,45.568904,0 -93.439770,45.569035,0 -93.439944,45.569145,0 -93.440056,45.569203,0 -93.440253,45.569353,0 -93.440578,45.569554,0 -93.440711,45.569628,0 -93.440817,45.569666,0 -93.440996,45.569751,0 -93.441157,45.569809,0 -93.441374,45.569916,0 -93.441584,45.569999,0 -93.441894,45.570108,0 -93.442074,45.570172,0 -93.442449,45.570323,0 -93.442656,45.570417,0 -93.443000,45.570530,0 -93.443206,45.570610,0 -93.443521,45.570716,0 -93.443776,45.570805,0 -93.444049,45.570893,0 -93.444290,45.570969,0 -93.444455,45.571014,0 -93.444673,45.571046,0 -93.444803,45.571063,0 -93.445253,45.571144,0 -93.445491,45.571171,0 -93.445601,45.571168,0 -93.445829,45.571137,0 -93.446069,45.571111,0 -93.446345,45.571015,0 -93.446594,45.570927,0 -93.446787,45.570841,0 -93.446976,45.570776,0 -93.447106,45.570745,0 -93.447262,45.570739,0 -93.447590,45.570743,0 -93.447913,45.570772,0 -93.448331,45.570832,0 -93.448504,45.570838,0 -93.448749,45.570887,0 -93.448920,45.570931,0 -93.449128,45.571004,0 -93.449285,45.571097,0 -93.449514,45.571184,0 -93.449685,45.571274,0 -93.449894,45.571397,0 -93.450029,45.571478,0 -93.450189,45.571596,0 -93.450389,45.571727,0 -93.450593,45.571849,0 -93.450910,45.572015,0 -93.451174,45.572161,0 -93.451403,45.572304,0 -93.451722,45.572506,0 -93.451889,45.572607,0 -93.452075,45.572712,0 -93.452220,45.572797,0 -93.452329,45.572847,0 -93.452360,45.572858,0 -93.452437,45.572897,0 -93.452472,45.572909,0 -93.452510,45.572932,0 -93.452680,45.573022,0 -93.452804,45.573071,0 -93.452898,45.573100,0 -93.453066,45.573138,0 -93.453209,45.573190,0 -93.453343,45.573237,0 -93.453549,45.573325,0 -93.453688,45.573381,0 -93.453979,45.573466,0 -93.454248,45.573557,0 -93.454412,45.573592,0 -93.454611,45.573674,0 -93.454703,45.573722,0 -93.454894,45.573783,0 -93.455103,45.573848,0 -93.455355,45.573950,0 -93.455556,45.574065,0 -93.455776,45.574227,0 -93.455931,45.574403,0 -93.456015,45.574535,0 -93.456064,45.574650,0 -93.456050,45.574814,0 -93.455957,45.575033,0 -93.455824,45.575202,0 -93.455784,45.575288,0 -93.455699,45.575414,0 -93.455613,45.575527,0 -93.455533,45.575698,0 -93.455473,45.575763,0 -93.455229,45.575987,0 -93.455052,45.576138,0 -93.454826,45.576310,0 -93.454729,45.576421,0 -93.454648,45.576494,0 -93.454574,45.576571,0 -93.454500,45.576703,0 -93.454364,45.576836,0 -93.454236,45.576933,0 -93.454113,45.577018,0 -93.453995,45.577108,0 -93.453681,45.577273,0 -93.453387,45.577458,0 -93.453151,45.577596,0 -93.452963,45.577692,0 -93.452642,45.577837,0 -93.452298,45.577967,0 -93.451961,45.578115,0 -93.451626,45.578226,0 -93.451466,45.578259,0 -93.451350,45.578269,0 -93.450898,45.578355,0 -93.450658,45.578383,0 -93.450336,45.578368,0 -93.449918,45.578304,0 -93.449558,45.578262,0 -93.449298,45.578218,0 -93.448772,45.578161,0 -93.448327,45.578092,0 -93.447971,45.578042,0 -93.447657,45.578006,0 -93.447073,45.577959,0 -93.446700,45.577932,0 -93.446489,45.577889,0 -93.446350,45.577883,0 -93.446121,45.577860,0 -93.445638,45.577875,0 -93.445418,45.577882,0 -93.445319,45.577879,0 -93.445089,45.577904,0 -93.444835,45.577923,0 -93.444538,45.577963,0 -93.444195,45.578039,0 -93.444058,45.578080,0 -93.443946,45.578102,0 -93.443543,45.578191,0 -93.443377,45.578239,0 -93.443166,45.578340,0 -93.442882,45.578491,0 -93.442744,45.578574,0 -93.442578,45.578648,0 -93.442388,45.578767,0 -93.442205,45.578875,0 -93.441844,45.579105,0 -93.441645,45.579221,0 -93.441488,45.579304,0 -93.441205,45.579479,0 -93.440901,45.579657,0 -93.440727,45.579746,0 -93.440572,45.579831,0 -93.440419,45.579895,0 -93.440146,45.580030,0 -93.439950,45.580123,0 -93.439688,45.580297,0 -93.439553,45.580372,0 -93.439305,45.580508,0 -93.439130,45.580617,0</coordinates></LineString>
      <name>15 ft</name>
    </Placemark>
  <Placemark>
      <styleUrl>#contourStyle</styleUrl>
      <LineString><coordinates>-93.438744,45.580416,0 -93.438660,45.580467,0 -93.438565,45.580522,0 -93.438297,45.580701,0 -93.437896,45.580867,0 -93.437730,45.580948,0 -93.437582,45.581020,0 -93.437473,45.581076,0 -93.437311,45.581145,0 -93.437202,45.581189,0 -93.437014,45.581277,0 -93.436861,45.581327,0 -93.436534,45.581402,0 -93.436403,45.581404,0 -93.436255,45.581366,0 -93.436219,45.581344,0 -93.436150,45.581278,0 -93.436080,45.581164,0 -93.436026,45.581051,0 -93.435995,45.580888,0 -93.435977,45.580744,0 -93.435949,45.580519,0 -93.435940,45.580310,0 -93.435936,45.580188,0 -93.435931,45.580065,0 -93.435917,45.579954,0 -93.435901,45.579856,0 -93.435891,45.579716,0 -93.435875,45.579579,0 -93.435865,45.579449,0 -93.435835,45.579282,0 -93.435817,45.579168,0 -93.435791,45.579052,0 -93.435758,45.578909,0 -93.435728,45.578769,0 -93.435701,45.578644,0 -93.435644,45.578480,0 -93.435577,45.578321,0 -93.435540,45.578243,0 -93.435439,45.578057,0 -93.435367,45.577917,0 -93.435313,45.577840,0 -93.435261,45.577723,0 -93.435187,45.577586,0 -93.435122,45.577474,0 -93.435073,45.577352,0 -93.435001,45.577243,0 -93.434962,45.577189,0 -93.434914,45.577127,0 -93.434858,45.577038,0 -93.434770,45.576939,0 -93.434685,45.576788,0 -93.434617,45.576633,0 -93.434581,45.576553,0 -93.434531,45.576424,0 -93.434461,45.576279,0 -93.434388,45.576135,0 -93.434367,45.576033,0 -93.434353,45.576008,0 -93.434325,45.575929,0 -93.434261,45.575811,0 -93.434221,45.575705,0 -93.434176,45.575614,0 -93.434123,45.575528,0 -93.434054,45.575447,0 -93.434005,45.575362,0 -93.433883,45.575272,0 -93.433799,45.575188,0 -93.433708,45.575116,0 -93.433524,45.575011,0 -93.433321,45.574881,0 -93.433160,45.574796,0 -93.433030,45.574745,0 -93.432800,45.574680,0 -93.432507,45.574662,0 -93.432211,45.574680,0 -93.431919,45.574730,0 -93.431434,45.574796,0 -93.431207,45.574831,0 -93.430877,45.574886,0 -93.430475,45.574951,0 -93.430297,45.574979,0 -93.429992,45.575046,0 -93.429555,45.575144,0 -93.429241,45.575184,0 -93.429010,45.575194,0 -93.428755,45.575182,0 -93.428457,45.575153,0 -93.428207,45.575105,0 -93.428142,45.575056,0 -93.428052,45.574945,0 -93.428014,45.574877,0 -93.427964,45.574732,0 -93.427930,45.574650,0 -93.427899,45.574532,0 -93.427875,45.574338,0 -93.427864,45.574162,0 -93.427859,45.573983,0 -93.427851,45.573707,0 -93.427845,45.573538,0 -93.427863,45.573323,0 -93.427864,45.573062,0 -93.427876,45.573019,0 -93.427886,45.572864,0 -93.427905,45.572706,0 -93.427930,45.572555,0 -93.427943,45.572407,0 -93.427965,45.572164,0 -93.427994,45.572019,0 -93.428074,45.571803,0 -93.428093,45.571743,0 -93.428144,45.571541,0 -93.428212,45.571373,0 -93.428294,45.571214,0 -93.428321,45.571115,0 -93.428339,45.571016,0 -93.428394,45.570895,0 -93.428419,45.570790,0 -93.428445,45.570627,0 -93.428479,45.570511,0 -93.428558,45.570371,0 -93.428631,45.570224,0 -93.428677,45.570118,0 -93.428773,45.569876,0 -93.428818,45.569711,0 -93.428870,45.569603,0 -93.428968,45.569462,0 -93.429030,45.569326,0 -93.429121,45.569199,0 -93.429219,45.569090,0 -93.429268,45.569026,0 -93.429395,45.568933,0 -93.429561,45.568822,0 -93.429706,45.568735,0 -93.429801,45.568684,0 -93.429953,45.568624,0 -93.430122,45.568566,0 -93.430147,45.568555,0 -93.430208,45.568547,0 -93.430345,45.568494,0 -93.430560,45.568435,0 -93.430670,45.568405,0 -93.430804,45.568365,0 -93.430965,45.568330,0 -93.431170,45.568279,0 -93.431289,45.568262,0 -93.431442,45.568243,0 -93.431654,45.568208,0 -93.431860,45.568173,0 -93.432036,45.568138,0 -93.432394,45.568043,0 -93.432815,45.567937,0 -93.433112,45.567858,0 -93.433200,45.567837,0 -93.433261,45.567818,0 -93.433377,45.567781,0 -93.433625,45.567743,0 -93.433802,45.567699,0 -93.433985,45.567672,0 -93.434205,45.567641,0 -93.434316,45.567619,0 -93.434594,45.567602,0 -93.434799,45.567578,0 -93.434902,45.567561,0 -93.435126,45.567541,0 -93.435431,45.567517,0 -93.435535,45.567506,0 -93.435667,45.567504,0 -93.435827,45.567496,0 -93.436018,45.567476,0 -93.436314,45.567470,0 -93.436507,45.567471,0 -93.436744,45.567482,0 -93.437235,45.567475,0 -93.437465,45.567470,0 -93.437782,45.567471,0 -93.438040,45.567492,0 -93.438238,45.567514,0 -93.438428,45.567563,0 -93.438526,45.567620,0 -93.438578,45.567660,0 -93.438645,45.567749,0 -93.438690,45.567786,0 -93.438746,45.567912,0 -93.438814,45.568030,0 -93.438868,45.568114,0 -93.438909,45.568191,0 -93.438973,45.568283,0 -93.439048,45.568406,0 -93.439083,45.568489,0 -93.439151,45.568625,0 -93.439218,45.568732,0 -93.439277,45.568815,0 -93.439344,45.568927,0 -93.439395,45.568976,0 -93.439422,45.569018,0 -93.439504,45.569080,0 -93.439610,45.569170,0 -93.439743,45.569249,0 -93.439875,45.569327,0 -93.439960,45.569388,0 -93.440115,45.569465,0 -93.440264,45.569539,0 -93.440342,45.569575,0 -93.440464,45.569642,0 -93.440646,45.569739,0 -93.440779,45.569807,0 -93.440846,45.569840,0 -93.441020,45.569925,0 -93.441151,45.569975,0 -93.441199,45.570000,0 -93.441242,45.570013,0 -93.441312,45.570055,0 -93.441445,45.570110,0 -93.441496,45.570125,0 -93.441547,45.570153,0 -93.441707,45.570224,0 -93.441871,45.570290,0 -93.441994,45.570344,0 -93.442164,45.570401,0 -93.442321,45.570452,0 -93.442406,45.570471,0 -93.442607,45.570540,0 -93.442840,45.570617,0 -93.443016,45.570657,0 -93.443215,45.570712,0 -93.443467,45.570795,0 -93.443629,45.570852,0 -93.443818,45.570927,0 -93.443924,45.570964,0 -93.444033,45.570989,0 -93.444362,45.571095,0 -93.444550,45.571143,0 -93.444701,45.571192,0 -93.444871,45.571232,0 -93.445178,45.571264,0 -93.445407,45.571276,0 -93.445676,45.571271,0 -93.445990,45.571241,0 -93.446167,45.571225,0 -93.446369,45.571146,0 -93.446585,45.571059,0 -93.446649,45.571021,0 -93.446905,45.570949,0 -93.447048,45.570892,0 -93.447229,45.570863,0 -93.447655,45.570847,0 -93.447758,45.570848,0 -93.447930,45.570868,0 -93.448073,45.570885,0 -93.448316,45.570919,0 -93.448540,45.570977,0 -93.448845,45.571065,0 -93.449103,45.571143,0 -93.449338,45.571234,0 -93.449600,45.571375,0 -93.449946,45.571583,0 -93.450036,45.571626,0 -93.450208,45.571754,0 -93.450290,45.571815,0 -93.450445,45.571903,0 -93.450569,45.571984,0 -93.450674,45.572032,0 -93.450752,45.572086,0 -93.450921,45.572192,0 -93.451082,45.572297,0 -93.451238,45.572391,0 -93.451387,45.572487,0 -93.451588,45.572583,0 -93.451771,45.572700,0 -93.451940,45.572812,0 -93.452190,45.572955,0 -93.452297,45.573002,0 -93.452411,45.573049,0 -93.452492,45.573069,0 -93.452686,45.573148,0 -93.452862,45.573211,0 -93.452966,45.573248,0 -93.453076,45.573280,0 -93.453160,45.573315,0 -93.453274,45.573353,0 -93.453422,45.573409,0 -93.453604,45.573472,0 -93.453778,45.573529,0 -93.454007,45.573615,0 -93.454184,45.573690,0 -93.454434,45.573771,0 -93.454607,45.573837,0 -93.454799,45.573926,0 -93.454994,45.574018,0 -93.455044,45.574048,0 -93.455133,45.574093,0 -93.455333,45.574179,0 -93.455511,45.574274,0 -93.455691,45.574364,0 -93.455803,45.574453,0 -93.455915,45.574603,0 -93.455940,45.574698,0 -93.455936,45.574766,0 -93.455896,45.574877,0 -93.455832,45.575009,0 -93.455745,45.575133,0 -93.455664,45.575202,0 -93.455538,45.575361,0 -93.455442,45.575468,0 -93.455411,45.575500,0 -93.455270,45.575665,0 -93.455123,45.575821,0 -93.455069,45.575848,0 -93.455010,45.575914,0 -93.454962,45.575948,0 -93.454931,45.575978,0 -93.454885,45.576000,0 -93.454801,45.576091,0 -93.454667,45.576216,0 -93.454527,45.576331,0 -93.454419,45.576436,0 -93.454375,45.576488,0 -93.454231,45.576623,0 -93.454117,45.576693,0 -93.454062,45.576736,0 -93.453907,45.576828,0 -93.453731,45.576946,0 -93.453633,45.577013,0 -93.453508,45.577061,0 -93.453276,45.577206,0 -93.453052,45.577354,0 -93.452872,45.577480,0 -93.452650,45.577568,0 -93.452453,45.577680,0 -93.452327,45.577742,0 -93.452194,45.577800,0 -93.452071,45.577845,0 -93.451843,45.577934,0 -93.451744,45.577964,0 -93.451555,45.578009,0 -93.451140,45.578076,0 -93.450695,45.578111,0 -93.450425,45.578104,0 -93.450093,45.578085,0 -93.449634,45.578070,0 -93.449208,45.578026,0 -93.448950,45.578006,0 -93.448672,45.577977,0 -93.448440,45.577961,0 -93.448317,45.577946,0 -93.448171,45.577923,0 -93.447862,45.577880,0 -93.447728,45.577872,0 -93.447544,45.577864,0 -93.447280,45.577831,0 -93.447062,45.577815,0 -93.446884,45.577791,0 -93.446584,45.577758,0 -93.446422,45.577744,0 -93.446142,45.577721,0 -93.445904,45.577692,0 -93.445818,45.577689,0 -93.445677,45.577672,0 -93.445574,45.577666,0 -93.445507,45.577651,0 -93.445287,45.577653,0 -93.445032,45.577668,0 -93.444829,45.577689,0 -93.444566,45.577721,0 -93.444427,45.577750,0 -93.444259,45.577792,0 -93.444061,45.577829,0 -93.443853,45.577887,0 -93.443792,45.577896,0 -93.443633,45.577961,0 -93.443582,45.577983,0 -93.443465,45.578001,0 -93.443360,45.578042,0 -93.443295,45.578072,0 -93.443213,45.578093,0 -93.443157,45.578101,0 -93.443059,45.578138,0 -93.442911,45.578194,0 -93.442863,45.578210,0 -93.442740,45.578269,0 -93.442698,45.578294,0 -93.442555,45.578353,0 -93.442354,45.578433,0 -93.442275,45.578474,0 -93.442170,45.578539,0 -93.442124,45.578557,0 -93.442012,45.578626,0 -93.441940,45.578668,0 -93.441843,45.578732,0 -93.441786,45.578758,0 -93.441695,45.578806,0 -93.441598,45.578859,0 -93.441510,45.578908,0 -93.441420,45.578964,0 -93.441389,45.578984,0 -93.441315,45.579033,0 -93.441218,45.579094,0 -93.441140,45.579144,0 -93.441043,45.579207,0 -93.441004,45.579231,0 -93.440936,45.579269,0 -93.440847,45.579327,0 -93.440791,45.579363,0 -93.440741,45.579391,0 -93.440658,45.579421,0 -93.440611,45.579455,0 -93.440528,45.579503,0 -93.440437,45.579542,0 -93.440368,45.579580,0 -93.440272,45.579631,0 -93.440233,45.579646,0 -93.440156,45.579692,0 -93.440093,45.579730,0 -93.439991,45.579769,0 -93.439932,45.579795,0 -93.439832,45.579837,0 -93.439751,45.579873,0 -93.439706,45.579898,0 -93.439677,45.579922,0 -93.439615,45.579956,0 -93.439562,45.579987,0 -93.439477,45.580044,0 -93.439394,45.580085,0 -93.439321,45.580114,0 -93.439273,45.580137,0 -93.439236,45.580163,0 -93.439150,45.580203,0 -93.439087,45.580229,0 -93.438996,45.580280,0 -93.438941,45.580311,0 -93.438844,45.580358,0 -93.438786,45.580393,0 -93.438744,45.580416,0</coordinates></LineString>
      <name>20 ft</name>
    </Placemark>
  <Placemark>
      <styleUrl>#contourStyle</styleUrl>
      <LineString><coordinates>-93.442306,45.578129,0 -93.442190,45.578182,0 -93.442106,45.578209,0 -93.442009,45.578253,0 -93.441920,45.578300,0 -93.441862,45.578325,0 -93.441787,45.578359,0 -93.441731,45.578400,0 -93.441659,45.578430,0 -93.441605,45.578451,0 -93.441499,45.578499,0 -93.441397,45.578554,0 -93.441302,45.578598,0 -93.441221,45.578637,0 -93.441124,45.578685,0 -93.440988,45.578759,0 -93.440901,45.578813,0 -93.440795,45.578875,0 -93.440712,45.578915,0 -93.440585,45.578981,0 -93.440457,45.579038,0 -93.440335,45.579121,0 -93.440219,45.579178,0 -93.440083,45.579257,0 -93.439991,45.579300,0 -93.439829,45.579383,0 -93.439754,45.579416,0 -93.439648,45.579468,0 -93.439518,45.579518,0 -93.439377,45.579587,0 -93.439297,45.579621,0 -93.439250,45.579641,0 -93.439163,45.579678,0 -93.439084,45.579709,0 -93.438927,45.579757,0 -93.438784,45.579805,0 -93.438513,45.579880,0 -93.438337,45.579914,0 -93.438108,45.579922,0 -93.437682,45.579896,0 -93.437488,45.579875,0 -93.437374,45.579834,0 -93.437245,45.579776,0 -93.437132,45.579700,0 -93.437050,45.579646,0 -93.436984,45.579619,0 -93.436880,45.579539,0 -93.436751,45.579441,0 -93.436636,45.579361,0 -93.436537,45.579267,0 -93.436458,45.579170,0 -93.436361,45.579038,0 -93.436262,45.578908,0 -93.436188,45.578816,0 -93.436150,45.578741,0 -93.436099,45.578676,0 -93.436016,45.578525,0 -93.435974,45.578419,0 -93.435940,45.578367,0 -93.435916,45.578292,0 -93.435894,45.578195,0 -93.435885,45.578115,0 -93.435875,45.577997,0 -93.435841,45.577833,0 -93.435811,45.577675,0 -93.435766,45.577474,0 -93.435722,45.577311,0 -93.435700,45.577157,0 -93.435681,45.577045,0 -93.435656,45.576882,0 -93.435647,45.576801,0 -93.435582,45.576645,0 -93.435505,45.576481,0 -93.435422,45.576316,0 -93.435368,45.576220,0 -93.435323,45.576113,0 -93.435295,45.576056,0 -93.435253,45.575922,0 -93.435226,45.575838,0 -93.435250,45.575736,0 -93.435298,45.575613,0 -93.435393,45.575460,0 -93.435515,45.575311,0 -93.435659,45.575163,0 -93.435746,45.575082,0 -93.435845,45.575010,0 -93.435904,45.574947,0 -93.435994,45.574821,0 -93.436063,45.574717,0 -93.436141,45.574583,0 -93.436248,45.574407,0 -93.436335,45.574236,0 -93.436391,45.574071,0 -93.436419,45.573923,0 -93.436404,45.573749,0 -93.436378,45.573558,0 -93.436351,45.573352,0 -93.436325,45.573200,0 -93.436302,45.573031,0 -93.436277,45.572931,0 -93.436237,45.572861,0 -93.436187,45.572804,0 -93.436130,45.572763,0 -93.435998,45.572644,0 -93.435921,45.572620,0 -93.435855,45.572606,0 -93.435464,45.572541,0 -93.435192,45.572522,0 -93.434971,45.572496,0 -93.434820,45.572490,0 -93.434428,45.572505,0 -93.434020,45.572498,0 -93.433799,45.572506,0 -93.433478,45.572521,0 -93.433222,45.572543,0 -93.433113,45.572567,0 -93.432869,45.572684,0 -93.432589,45.572857,0 -93.432384,45.572972,0 -93.432242,45.573079,0 -93.432142,45.573142,0 -93.431969,45.573218,0 -93.431760,45.573294,0 -93.431564,45.573366,0 -93.431351,45.573428,0 -93.431227,45.573467,0 -93.431081,45.573489,0 -93.430836,45.573483,0 -93.430756,45.573464,0 -93.430563,45.573397,0 -93.430429,45.573307,0 -93.430344,45.573222,0 -93.430253,45.573129,0 -93.430133,45.572995,0 -93.430038,45.572856,0 -93.429979,45.572755,0 -93.429915,45.572651,0 -93.429889,45.572555,0 -93.429833,45.572450,0 -93.429788,45.572380,0 -93.429746,45.572285,0 -93.429718,45.572182,0 -93.429675,45.572048,0 -93.429605,45.571798,0 -93.429582,45.571577,0 -93.429586,45.571357,0 -93.429591,45.571163,0 -93.429578,45.571068,0 -93.429557,45.570903,0 -93.429537,45.570714,0 -93.429544,45.570535,0 -93.429541,45.570308,0 -93.429555,45.570115,0 -93.429571,45.570042,0 -93.429618,45.569891,0 -93.429712,45.569662,0 -93.429773,45.569501,0 -93.429839,45.569429,0 -93.429957,45.569332,0 -93.430075,45.569260,0 -93.430235,45.569172,0 -93.430431,45.569082,0 -93.430519,45.569039,0 -93.430701,45.568983,0 -93.430901,45.568919,0 -93.431094,45.568874,0 -93.431364,45.568802,0 -93.431456,45.568781,0 -93.431599,45.568737,0 -93.431833,45.568684,0 -93.431972,45.568647,0 -93.432139,45.568602,0 -93.432340,45.568533,0 -93.432911,45.568416,0 -93.433100,45.568360,0 -93.433277,45.568319,0 -93.433515,45.568276,0 -93.433750,45.568263,0 -93.434216,45.568262,0 -93.434320,45.568263,0 -93.434435,45.568296,0 -93.434565,45.568344,0 -93.434674,45.568376,0 -93.434758,45.568408,0 -93.434942,45.568491,0 -93.435026,45.568530,0 -93.435195,45.568607,0 -93.435361,45.568702,0 -93.435527,45.568801,0 -93.435660,45.568879,0 -93.435760,45.568942,0 -93.435870,45.568995,0 -93.435997,45.569074,0 -93.436138,45.569148,0 -93.436276,45.569233,0 -93.436440,45.569312,0 -93.436640,45.569443,0 -93.436807,45.569553,0 -93.436889,45.569600,0 -93.436997,45.569668,0 -93.437194,45.569793,0 -93.437327,45.569881,0 -93.437468,45.569955,0 -93.437642,45.570024,0 -93.437837,45.570110,0 -93.438106,45.570199,0 -93.438252,45.570247,0 -93.438472,45.570289,0 -93.438677,45.570311,0 -93.438870,45.570320,0 -93.439204,45.570317,0 -93.439468,45.570332,0 -93.439748,45.570364,0 -93.439991,45.570389,0 -93.440298,45.570428,0 -93.440583,45.570491,0 -93.440812,45.570539,0 -93.441070,45.570588,0 -93.441364,45.570652,0 -93.441507,45.570689,0 -93.441694,45.570745,0 -93.441945,45.570801,0 -93.442144,45.570863,0 -93.442280,45.570899,0 -93.442349,45.570917,0 -93.442580,45.570986,0 -93.442735,45.571019,0 -93.442904,45.571058,0 -93.443211,45.571119,0 -93.443414,45.571155,0 -93.443524,45.571189,0 -93.443842,45.571249,0 -93.444013,45.571270,0 -93.444294,45.571329,0 -93.444494,45.571363,0 -93.444731,45.571388,0 -93.444955,45.571408,0 -93.445064,45.571412,0 -93.445285,45.571447,0 -93.445569,45.571469,0 -93.445726,45.571469,0 -93.445879,45.571450,0 -93.446086,45.571397,0 -93.446299,45.571339,0 -93.446454,45.571289,0 -93.446604,45.571235,0 -93.446735,45.571174,0 -93.446882,45.571113,0 -93.447027,45.571067,0 -93.447155,45.571042,0 -93.447391,45.571004,0 -93.447495,45.570993,0 -93.447629,45.570993,0 -93.447823,45.571002,0 -93.447972,45.571025,0 -93.448184,45.571060,0 -93.448343,45.571098,0 -93.448444,45.571127,0 -93.448630,45.571201,0 -93.448745,45.571268,0 -93.448909,45.571374,0 -93.448987,45.571434,0 -93.449105,45.571571,0 -93.449217,45.571654,0 -93.449258,45.571731,0 -93.449317,45.571800,0 -93.449400,45.571916,0 -93.449512,45.572075,0 -93.449636,45.572229,0 -93.449718,45.572320,0 -93.449846,45.572488,0 -93.449915,45.572555,0 -93.449993,45.572612,0 -93.450062,45.572686,0 -93.450175,45.572769,0 -93.450285,45.572849,0 -93.450333,45.572905,0 -93.450444,45.572994,0 -93.450595,45.573085,0 -93.450708,45.573142,0 -93.450827,45.573204,0 -93.450989,45.573299,0 -93.451042,45.573321,0 -93.451122,45.573346,0 -93.451298,45.573444,0 -93.451480,45.573519,0 -93.451635,45.573598,0 -93.451813,45.573702,0 -93.451970,45.573798,0 -93.452041,45.573851,0 -93.452188,45.573975,0 -93.452318,45.574089,0 -93.452402,45.574152,0 -93.452495,45.574222,0 -93.452605,45.574285,0 -93.452735,45.574395,0 -93.452849,45.574511,0 -93.452914,45.574583,0 -93.453003,45.574701,0 -93.453112,45.574820,0 -93.453129,45.574933,0 -93.453170,45.575045,0 -93.453154,45.575195,0 -93.453095,45.575334,0 -93.452999,45.575497,0 -93.452934,45.575595,0 -93.452808,45.575714,0 -93.452712,45.575784,0 -93.452569,45.575895,0 -93.452362,45.576029,0 -93.452151,45.576173,0 -93.451916,45.576330,0 -93.451709,45.576455,0 -93.451564,45.576535,0 -93.451496,45.576574,0 -93.451449,45.576600,0 -93.451369,45.576629,0 -93.451301,45.576663,0 -93.451220,45.576721,0 -93.451047,45.576825,0 -93.450923,45.576880,0 -93.450825,45.576942,0 -93.450603,45.577030,0 -93.450349,45.577111,0 -93.450130,45.577174,0 -93.449945,45.577219,0 -93.449716,45.577265,0 -93.449480,45.577306,0 -93.449352,45.577336,0 -93.449246,45.577358,0 -93.449056,45.577407,0 -93.448667,45.577459,0 -93.448493,45.577475,0 -93.448342,45.577499,0 -93.448043,45.577537,0 -93.447887,45.577552,0 -93.447736,45.577562,0 -93.447612,45.577580,0 -93.447409,45.577601,0 -93.447244,45.577599,0 -93.446973,45.577595,0 -93.446619,45.577589,0 -93.446291,45.577572,0 -93.446120,45.577556,0 -93.445832,45.577536,0 -93.445522,45.577524,0 -93.445110,45.577495,0 -93.444883,45.577483,0 -93.444756,45.577489,0 -93.444557,45.577511,0 -93.444315,45.577527,0 -93.444164,45.577543,0 -93.443986,45.577579,0 -93.443878,45.577593,0 -93.443795,45.577616,0 -93.443720,45.577641,0 -93.443608,45.577671,0 -93.443537,45.577682,0 -93.443422,45.577713,0 -93.443295,45.577750,0 -93.443175,45.577793,0 -93.443053,45.577844,0 -93.442926,45.577883,0 -93.442818,45.577936,0 -93.442697,45.577976,0 -93.442599,45.577994,0 -93.442537,45.578016,0 -93.442420,45.578082,0 -93.442365,45.578110,0 -93.442306,45.578129,0</coordinates></LineString>
      <name>25 ft</name>
    </Placemark>
  <Placemark>
      <styleUrl>#contourStyle</styleUrl>
      <LineString><coordinates>-93.439229,45.571843,0 -93.439359,45.572085,0 -93.439376,45.572233,0 -93.439361,45.572363,0 -93.439280,45.572466,0 -93.439140,45.572554,0 -93.438801,45.572641,0 -93.438405,45.572631,0 -93.438150,45.572592,0 -93.437881,45.572504,0 -93.437780,45.572435,0 -93.437689,45.572325,0 -93.437609,45.572122,0 -93.437600,45.572013,0 -93.437688,45.571790,0 -93.437779,45.571612,0 -93.437833,45.571561,0 -93.438025,45.571501,0 -93.438203,45.571441,0 -93.438472,45.571433,0 -93.438670,45.571451,0 -93.438836,45.571502,0 -93.439087,45.571647,0 -93.439229,45.571843,0</coordinates></LineString>
      <name>25 ft</name>
    </Placemark>
  <Placemark>
      <styleUrl>#contourStyle</styleUrl>
      <LineString><coordinates>-93.439096,45.572175,0 -93.439050,45.572309,0 -93.438991,45.572415,0 -93.438895,45.572473,0 -93.438778,45.572500,0 -93.438605,45.572498,0 -93.438335,45.572466,0 -93.438181,45.572425,0 -93.438070,45.572397,0 -93.437980,45.572359,0 -93.437904,45.572315,0 -93.437847,45.572256,0 -93.437823,45.572160,0 -93.437852,45.572049,0 -93.437906,45.571964,0 -93.437970,45.571850,0 -93.438067,45.571760,0 -93.438217,45.571655,0 -93.438326,45.571633,0 -93.438424,45.571634,0 -93.438572,45.571676,0 -93.438754,45.571728,0 -93.438803,45.571753,0 -93.438902,45.571828,0 -93.439072,45.571948,0 -93.439092,45.572016,0 -93.439096,45.572175,0</coordinates></LineString>
      <name>20 ft</name>
    </Placemark>
  <Placemark>
      <styleUrl>#contourStyle</styleUrl>
      <LineString><coordinates>-93.438634,45.572009,0 -93.438628,45.572140,0 -93.438600,45.572206,0 -93.438554,45.572252,0 -93.438460,45.572284,0 -93.438382,45.572295,0 -93.438258,45.572282,0 -93.438166,45.572247,0 -93.438123,45.572186,0 -93.438095,45.572089,0 -93.438096,45.572032,0 -93.438121,45.571964,0 -93.438162,45.571929,0 -93.438258,45.571875,0 -93.438394,45.571863,0 -93.438483,45.571874,0 -93.438560,45.571910,0 -93.438611,45.571952,0 -93.438634,45.572009,0</coordinates></LineString>
      <name>15 ft</name>
    </Placemark>
  <Placemark>
      <styleUrl>#contourStyle</styleUrl>
      <LineString><coordinates>-93.436001,45.573856,0 -93.436029,45.573945,0 -93.436035,45.574004,0 -93.436025,45.574068,0 -93.435973,45.574142,0 -93.435897,45.574183,0 -93.435821,45.574189,0 -93.435750,45.574177,0 -93.435675,45.574129,0 -93.435597,45.574023,0 -93.435571,45.573937,0 -93.435588,45.573839,0 -93.435628,45.573763,0 -93.435683,45.573729,0 -93.435771,45.573710,0 -93.435829,45.573719,0 -93.435938,45.573769,0 -93.435964,45.573795,0 -93.436001,45.573856,0</coordinates></LineString>
      <name>20 ft</name>
    </Placemark>
  
  </Folder>



  <Folder>
    <Style id="Trailer Launch">
      <IconStyle>
        <Icon>
          <href>http://maps.dnr.state.mn.us/compass/graphics/kml_icons/water_access_trailer.png</href>
          <scale>0.78125</scale>
        </Icon>
      </IconStyle>
    </Style>
    <Style id="Carry-In">
      <IconStyle>
        <Icon>
          <href>http://maps.dnr.state.mn.us/compass/graphics/kml_icons/water_access_carry-in.png</href>
          <scale>0.78125</scale>
        </Icon>
      </IconStyle>
    </Style>
    <name>Water Access Sites</name>
    <description>Water Access Sites in Minnesota. Supplied by the Minnesota DNR, Division of Parks &amp; Trails</description>
    <Placemark>
      <styleUrl>#Trailer Launch</styleUrl>    
      <Point>
        <coordinates>-93.430050,45.576421</coordinates>
      </Point>
      <name>Green Lake Public Water Access Site</name>
      <description>
        <![CDATA[
	  <a href="https://www.dnr.state.mn.us/water_access/site.html?id=WAS01697">more detail</a>
        ]]>
      </description>
    </Placemark>
    
  </Folder>



</Folder>
</kml>
