<?xml version="1.0" encoding="UTF-8"?>
<kml xmlns="http://www.opengis.net/kml/2.2" xmlns:gx="http://www.google.com/kml/ext/2.2" xmlns:kml="http://www.opengis.net/kml/2.2" xmlns:atom="http://www.w3.org/2005/Atom">
<Folder>
  <name>MNDNR LakeFinder</name>


  <Folder>
    <Style id="lakeStyle">
      <LineStyle>
        <color>F7FF3333</color>
        <width>4</width>
      </LineStyle>
    </Style>
    <name>Minnesota Lake Basins</name>
  <Placemark>
      <styleUrl>#lakeStyle</styleUrl>
      <MultiGeometry>
        <LineString><coordinates>-93.514469,45.488091,0 -93.514278,45.487633,0 -93.514200,45.487260,0 -93.514187,45.486762,0 -93.514343,45.486559,0 -93.514517,45.486276,0 -93.514562,45.486021,0 -93.514644,45.485863,0 -93.514893,45.485620,0 -93.514995,45.485586,0 -93.515452,45.485630,0 -93.515702,45.485544,0 -93.515970,45.485313,0 -93.516256,45.485024,0 -93.516542,45.484695,0 -93.516718,45.484577,0 -93.516904,45.484595,0 -93.517100,45.484640,0 -93.517258,45.484640,0 -93.517416,45.484554,0 -93.517685,45.484487,0 -93.518039,45.484433,0 -93.518634,45.484411,0 -93.518876,45.484390,0 -93.519212,45.484428,0 -93.519551,45.484538,0 -93.519707,45.484589,0 -93.520126,45.484607,0 -93.520368,45.484625,0 -93.520385,45.484622,0 -93.520665,45.484572,0 -93.520982,45.484590,0 -93.521300,45.484693,0 -93.521618,45.484882,0 -93.522094,45.485050,0 -93.522495,45.485107,0 -93.522776,45.485263,0 -93.522907,45.485354,0 -93.522935,45.485373,0 -93.523188,45.485529,0 -93.523414,45.485745,0 -93.523509,45.485973,0 -93.523539,45.486235,0 -93.523533,45.486602,0 -93.523499,45.486884,0 -93.523346,45.487260,0 -93.523326,45.487310,0 -93.523150,45.487442,0 -93.523075,45.487463,0 -93.523029,45.487475,0 -93.522968,45.487533,0 -93.522863,45.487633,0 -93.522381,45.487852,0 -93.521889,45.488018,0 -93.521369,45.488144,0 -93.520363,45.488156,0 -93.520233,45.488150,0 -93.520018,45.488079,0 -93.519170,45.488056,0 -93.518229,45.487982,0 -93.517764,45.487951,0 -93.517457,45.487985,0 -93.517253,45.488091,0 -93.517246,45.488092,0 -93.517150,45.488098,0 -93.517077,45.488184,0 -93.517124,45.488275,0 -93.517246,45.488327,0 -93.517358,45.488411,0 -93.517405,45.488457,0 -93.517410,45.488490,0 -93.517415,45.488529,0 -93.517313,45.488615,0 -93.517025,45.488701,0 -93.516570,45.488782,0 -93.516235,45.488842,0 -93.516040,45.488843,0 -93.515517,45.488741,0 -93.514929,45.488527,0 -93.514648,45.488358,0 -93.514469,45.488091,0</coordinates></LineString>
      </MultiGeometry>
      <name>Sandy</name>
      <description>
        <![CDATA[
          <a href="http://www.dnr.state.mn.us/lakefind/lake.html?id=71004000">DNR LakeFinder</a>
        ]]>
      </description>
    </Placemark>
  
  </Folder>



  <Folder>
    <Style id="contourStyle">
      <LabelStyle> 
        <scale>1.1</scale>         
      </LabelStyle>
      <LineStyle>
        <color>50FFFFFF</color>
        <width>1</width>
        <gx:labelVisibility>1</gx:labelVisibility>
      </LineStyle>
    </Style>
    <name>Minnesota Lake Bathymetry</name>
  <Placemark>
      <styleUrl>#contourStyle</styleUrl>
      <LineString><coordinates>-93.516804,45.487843,0 -93.516579,45.487893,0 -93.516302,45.487858,0 -93.516110,45.487773,0 -93.515971,45.487652,0 -93.515848,45.487482,0 -93.515793,45.487178,0 -93.515930,45.487007,0 -93.516172,45.486933,0 -93.516501,45.486980,0 -93.516815,45.487137,0 -93.516990,45.487428,0 -93.516923,45.487660,0 -93.516804,45.487843,0</coordinates></LineString>
      <name>10 ft</name>
    </Placemark>
  <Placemark>
      <styleUrl>#contourStyle</styleUrl>
      <LineString><coordinates>-93.515086,45.487473,0 -93.514948,45.487511,0 -93.514861,45.487511,0 -93.514688,45.487451,0 -93.514601,45.487390,0 -93.514600,45.487329,0 -93.514599,45.487256,0 -93.514616,45.487147,0 -93.514719,45.487073,0 -93.514840,45.487024,0 -93.514978,45.487011,0 -93.515099,45.487035,0 -93.515169,45.487108,0 -93.515205,45.487181,0 -93.515206,45.487302,0 -93.515086,45.487473,0</coordinates></LineString>
      <name>10 ft</name>
    </Placemark>
  <Placemark>
      <styleUrl>#contourStyle</styleUrl>
      <LineString><coordinates>-93.518480,45.485656,0 -93.518636,45.485582,0 -93.518928,45.485361,0 -93.519100,45.485214,0 -93.519272,45.485080,0 -93.519531,45.485042,0 -93.519807,45.484980,0 -93.519998,45.484979,0 -93.520171,45.485002,0 -93.520554,45.485159,0 -93.520884,45.485291,0 -93.521422,45.485423,0 -93.521959,45.485494,0 -93.522549,45.485588,0 -93.522810,45.485721,0 -93.523002,45.485939,0 -93.523074,45.486231,0 -93.523094,45.486572,0 -93.523011,45.486889,0 -93.522908,45.487048,0 -93.522737,45.487232,0 -93.522479,45.487391,0 -93.522100,45.487612,0 -93.521599,45.487736,0 -93.521201,45.487774,0 -93.520854,45.487752,0 -93.520473,45.487680,0 -93.519970,45.487610,0 -93.519589,45.487563,0 -93.519086,45.487467,0 -93.518288,45.487301,0 -93.518027,45.487204,0 -93.517870,45.487059,0 -93.517730,45.486901,0 -93.517572,45.486695,0 -93.517345,45.486465,0 -93.517152,45.486161,0 -93.517150,45.485930,0 -93.517218,45.485771,0 -93.517303,45.485661,0 -93.517389,45.485636,0 -93.517459,45.485636,0 -93.517597,45.485660,0 -93.517771,45.485708,0 -93.517979,45.485755,0 -93.518222,45.485754,0 -93.518377,45.485729,0 -93.518480,45.485656,0</coordinates></LineString>
      <name>10 ft</name>
    </Placemark>
  <Placemark>
      <styleUrl>#contourStyle</styleUrl>
      <LineString><coordinates>-93.522424,45.487148,0 -93.522045,45.487271,0 -93.521838,45.487370,0 -93.521475,45.487493,0 -93.521320,45.487555,0 -93.521165,45.487580,0 -93.520696,45.487521,0 -93.520488,45.487437,0 -93.520297,45.487425,0 -93.519743,45.487416,0 -93.519379,45.487381,0 -93.519067,45.487309,0 -93.518634,45.487250,0 -93.518442,45.487154,0 -93.518233,45.487033,0 -93.518006,45.486839,0 -93.517796,45.486584,0 -93.517586,45.486342,0 -93.517464,45.486220,0 -93.517462,45.486026,0 -93.517582,45.485891,0 -93.517911,45.485890,0 -93.518275,45.485937,0 -93.518570,45.485935,0 -93.518742,45.485837,0 -93.518914,45.485702,0 -93.519068,45.485568,0 -93.519292,45.485433,0 -93.519413,45.485347,0 -93.519689,45.485285,0 -93.519862,45.485284,0 -93.520174,45.485283,0 -93.520608,45.485414,0 -93.521042,45.485583,0 -93.521198,45.485619,0 -93.521406,45.485642,0 -93.521649,45.485653,0 -93.521822,45.485653,0 -93.522117,45.485676,0 -93.522325,45.485699,0 -93.522568,45.485783,0 -93.522673,45.485892,0 -93.522796,45.486123,0 -93.522902,45.486390,0 -93.522853,45.486695,0 -93.522683,45.486988,0 -93.522424,45.487148,0</coordinates></LineString>
      <name>20 ft</name>
    </Placemark>
  <Placemark>
      <styleUrl>#contourStyle</styleUrl>
      <LineString><coordinates>-93.522336,45.486905,0 -93.521731,45.487066,0 -93.521316,45.487153,0 -93.520814,45.487167,0 -93.520155,45.487049,0 -93.519774,45.487026,0 -93.519479,45.486979,0 -93.519271,45.486931,0 -93.518977,45.486908,0 -93.518717,45.486909,0 -93.518457,45.486837,0 -93.518230,45.486716,0 -93.518056,45.486571,0 -93.517916,45.486401,0 -93.517863,45.486304,0 -93.517966,45.486157,0 -93.518086,45.486120,0 -93.518381,45.486143,0 -93.518538,45.486240,0 -93.518728,45.486263,0 -93.518988,45.486250,0 -93.519126,45.486164,0 -93.519263,45.485993,0 -93.519331,45.485847,0 -93.519537,45.485699,0 -93.519709,45.485613,0 -93.519882,45.485600,0 -93.520143,45.485672,0 -93.520525,45.485768,0 -93.520906,45.485827,0 -93.521148,45.485826,0 -93.521356,45.485801,0 -93.521598,45.485800,0 -93.521824,45.485823,0 -93.522068,45.485992,0 -93.522208,45.486223,0 -93.522400,45.486417,0 -93.522471,45.486551,0 -93.522507,45.486733,0 -93.522457,45.486868,0 -93.522336,45.486905,0</coordinates></LineString>
      <name>30 ft</name>
    </Placemark>
  <Placemark>
      <styleUrl>#contourStyle</styleUrl>
      <LineString><coordinates>-93.520100,45.486659,0 -93.519720,45.486734,0 -93.519408,45.486687,0 -93.519303,45.486614,0 -93.519267,45.486517,0 -93.519266,45.486407,0 -93.519213,45.486237,0 -93.519298,45.486115,0 -93.519472,45.486114,0 -93.519576,45.486126,0 -93.519767,45.486222,0 -93.519975,45.486270,0 -93.520114,45.486355,0 -93.520185,45.486464,0 -93.520168,45.486586,0 -93.520100,45.486659,0</coordinates></LineString>
      <name>40 ft</name>
    </Placemark>
  <Placemark>
      <styleUrl>#contourStyle</styleUrl>
      <LineString><coordinates>-93.516559,45.487564,0 -93.516438,45.487577,0 -93.516351,45.487577,0 -93.516160,45.487517,0 -93.516090,45.487457,0 -93.516037,45.487335,0 -93.516036,45.487238,0 -93.516088,45.487201,0 -93.516278,45.487164,0 -93.516469,45.487199,0 -93.516504,45.487211,0 -93.516591,45.487272,0 -93.516643,45.487332,0 -93.516627,45.487491,0 -93.516559,45.487564,0</coordinates></LineString>
      <name>20 ft</name>
    </Placemark>
  
  </Folder>



  <Folder>
    <Style id="Trailer Launch">
      <IconStyle>
        <Icon>
          <href>http://maps.dnr.state.mn.us/compass/graphics/kml_icons/water_access_trailer.png</href>
          <scale>0.78125</scale>
        </Icon>
      </IconStyle>
    </Style>
    <Style id="Carry-In">
      <IconStyle>
        <Icon>
          <href>http://maps.dnr.state.mn.us/compass/graphics/kml_icons/water_access_carry-in.png</href>
          <scale>0.78125</scale>
        </Icon>
      </IconStyle>
    </Style>
    <name>Water Access Sites</name>
    <description>Water Access Sites in Minnesota. Supplied by the Minnesota DNR, Division of Parks &amp; Trails</description>
    <Placemark>
      <styleUrl>#Trailer Launch</styleUrl>    
      <Point>
        <coordinates>-93.520147,45.488065</coordinates>
      </Point>
      <name>Sandy Lake (N) Public Water Access Site</name>
      <description>
        <![CDATA[
	  <a href="https://www.dnr.state.mn.us/water_access/site.html?id=WAS00058">more detail</a>
        ]]>
      </description>
    </Placemark>
    <Placemark>
      <styleUrl>#Carry-In</styleUrl>    
      <Point>
        <coordinates>-93.519528,45.484682</coordinates>
      </Point>
      <name>Sandy Lake (S) Public Water Access Site</name>
      <description>
        <![CDATA[
	  <a href="https://www.dnr.state.mn.us/water_access/site.html?id=WAS00329">more detail</a>
        ]]>
      </description>
    </Placemark>
    
  </Folder>



</Folder>
</kml>
