<?xml version="1.0" encoding="UTF-8"?>
<kml xmlns="http://www.opengis.net/kml/2.2" xmlns:gx="http://www.google.com/kml/ext/2.2" xmlns:kml="http://www.opengis.net/kml/2.2" xmlns:atom="http://www.w3.org/2005/Atom">
<Folder>
  <name>MNDNR LakeFinder</name>


  <Folder>
    <Style id="lakeStyle">
      <LineStyle>
        <color>F7FF3333</color>
        <width>4</width>
      </LineStyle>
    </Style>
    <name>Minnesota Lake Basins</name>
  <Placemark>
      <styleUrl>#lakeStyle</styleUrl>
      <MultiGeometry>
        <LineString><coordinates>-93.688549,45.431095,0 -93.688489,45.430932,0 -93.688489,45.430910,0 -93.688489,45.430891,0 -93.688479,45.430850,0 -93.688418,45.430824,0 -93.688372,45.430803,0 -93.688400,45.430735,0 -93.688402,45.430734,0 -93.688487,45.430721,0 -93.688514,45.430612,0 -93.688607,45.430525,0 -93.688664,45.430473,0 -93.688869,45.430282,0 -93.688906,45.430282,0 -93.688965,45.430282,0 -93.689014,45.430288,0 -93.689125,45.430343,0 -93.689150,45.430356,0 -93.689159,45.430321,0 -93.689126,45.430285,0 -93.689012,45.430159,0 -93.688759,45.430031,0 -93.688487,45.429951,0 -93.687335,45.429958,0 -93.686861,45.429920,0 -93.685883,45.429966,0 -93.685448,45.429962,0 -93.684867,45.429931,0 -93.683946,45.429828,0 -93.683365,45.429784,0 -93.683132,45.429744,0 -93.682578,45.429550,0 -93.682226,45.429252,0 -93.682019,45.428919,0 -93.681876,45.428348,0 -93.681899,45.427850,0 -93.681912,45.427813,0 -93.682021,45.427488,0 -93.682191,45.427133,0 -93.682325,45.427043,0 -93.682361,45.426839,0 -93.682564,45.426547,0 -93.682628,45.426455,0 -93.682943,45.426120,0 -93.683123,45.425974,0 -93.683163,45.425941,0 -93.683587,45.425727,0 -93.684049,45.425440,0 -93.684240,45.425321,0 -93.684797,45.424929,0 -93.685229,45.424634,0 -93.685575,45.424444,0 -93.685719,45.424365,0 -93.686383,45.424095,0 -93.686787,45.423932,0 -93.687048,45.423826,0 -93.687298,45.423715,0 -93.687278,45.423627,0 -93.687280,45.423576,0 -93.687286,45.423470,0 -93.687390,45.423265,0 -93.687827,45.422642,0 -93.687913,45.422525,0 -93.688104,45.422368,0 -93.688190,45.422210,0 -93.688197,45.422013,0 -93.688078,45.421761,0 -93.687981,45.421734,0 -93.687999,45.421666,0 -93.688182,45.421597,0 -93.688266,45.421582,0 -93.688298,45.421576,0 -93.688472,45.421575,0 -93.688427,45.421594,0 -93.688193,45.421692,0 -93.688251,45.421706,0 -93.688425,45.421677,0 -93.688792,45.421641,0 -93.688956,45.421545,0 -93.689060,45.421380,0 -93.689117,45.421298,0 -93.689126,45.421182,0 -93.689037,45.421026,0 -93.688900,45.420932,0 -93.688696,45.420851,0 -93.688212,45.420854,0 -93.688105,45.420807,0 -93.688094,45.420718,0 -93.688122,45.420643,0 -93.688383,45.420594,0 -93.688411,45.420553,0 -93.688274,45.420422,0 -93.688255,45.420404,0 -93.688070,45.420316,0 -93.687924,45.420283,0 -93.687577,45.420394,0 -93.687325,45.420375,0 -93.687288,45.420365,0 -93.687223,45.420348,0 -93.686976,45.420282,0 -93.686917,45.420201,0 -93.686935,45.420142,0 -93.686945,45.420112,0 -93.687098,45.419995,0 -93.687242,45.419858,0 -93.687279,45.419776,0 -93.687249,45.419667,0 -93.687062,45.419430,0 -93.686984,45.419362,0 -93.686869,45.419333,0 -93.686722,45.419295,0 -93.686711,45.419280,0 -93.686604,45.419132,0 -93.686534,45.418963,0 -93.686543,45.418867,0 -93.686724,45.418655,0 -93.686810,45.418559,0 -93.686847,45.418449,0 -93.686814,45.418116,0 -93.686745,45.418021,0 -93.686532,45.417974,0 -93.686473,45.417934,0 -93.686491,45.417804,0 -93.686549,45.417777,0 -93.686646,45.417776,0 -93.686762,45.417809,0 -93.686967,45.417972,0 -93.687054,45.417971,0 -93.687315,45.417888,0 -93.687338,45.417891,0 -93.687421,45.417901,0 -93.687480,45.417921,0 -93.687499,45.417968,0 -93.687326,45.418045,0 -93.687231,45.418134,0 -93.687222,45.418263,0 -93.687272,45.418399,0 -93.687321,45.418426,0 -93.687457,45.418446,0 -93.687555,45.418547,0 -93.687556,45.418670,0 -93.687395,45.418944,0 -93.687243,45.419163,0 -93.687254,45.419285,0 -93.687280,45.419338,0 -93.687314,45.419408,0 -93.687418,45.419514,0 -93.687480,45.419577,0 -93.687689,45.419806,0 -93.687716,45.419835,0 -93.687892,45.420038,0 -93.688019,45.420126,0 -93.688194,45.420159,0 -93.688330,45.420206,0 -93.688583,45.420347,0 -93.688690,45.420353,0 -93.688853,45.420230,0 -93.689151,45.420119,0 -93.689306,45.420077,0 -93.689635,45.420068,0 -93.689844,45.420007,0 -93.689847,45.420006,0 -93.690089,45.419971,0 -93.690146,45.419963,0 -93.690293,45.419891,0 -93.690329,45.419873,0 -93.690533,45.419640,0 -93.690587,45.419579,0 -93.690672,45.419428,0 -93.690671,45.419312,0 -93.690690,45.419144,0 -93.690706,45.419006,0 -93.690779,45.418644,0 -93.690912,45.418493,0 -93.691201,45.418376,0 -93.691337,45.418375,0 -93.691593,45.418463,0 -93.691706,45.418502,0 -93.692046,45.418595,0 -93.692326,45.418587,0 -93.693098,45.418378,0 -93.693377,45.418212,0 -93.693809,45.417998,0 -93.693964,45.417963,0 -93.694109,45.417969,0 -93.694206,45.417955,0 -93.694397,45.417777,0 -93.694567,45.417401,0 -93.694639,45.417019,0 -93.694705,45.416875,0 -93.694840,45.416793,0 -93.695043,45.416757,0 -93.695236,45.416790,0 -93.695547,45.416836,0 -93.695837,45.416814,0 -93.696048,45.416704,0 -93.696134,45.416628,0 -93.696037,45.416567,0 -93.696017,45.416493,0 -93.696025,45.416404,0 -93.696112,45.416362,0 -93.696344,45.416327,0 -93.696595,45.416305,0 -93.697194,45.416233,0 -93.697561,45.416149,0 -93.697792,45.416107,0 -93.698346,45.416247,0 -93.698763,45.416326,0 -93.698908,45.416325,0 -93.699121,45.416324,0 -93.699256,45.416323,0 -93.699431,45.416397,0 -93.699442,45.416506,0 -93.699357,45.416622,0 -93.699165,45.416760,0 -93.699109,45.416964,0 -93.699121,45.417141,0 -93.699185,45.417605,0 -93.699333,45.417835,0 -93.699491,45.418121,0 -93.699493,45.418243,0 -93.699426,45.418291,0 -93.699184,45.418341,0 -93.698856,45.418411,0 -93.698664,45.418473,0 -93.698538,45.418481,0 -93.698005,45.418450,0 -93.697570,45.418473,0 -93.697309,45.418509,0 -93.697184,45.418571,0 -93.697040,45.418674,0 -93.696944,45.418729,0 -93.696703,45.418799,0 -93.696095,45.418932,0 -93.695980,45.418987,0 -93.695865,45.419097,0 -93.695866,45.419226,0 -93.695818,45.419268,0 -93.695585,45.419201,0 -93.695323,45.419100,0 -93.694984,45.419061,0 -93.694809,45.419056,0 -93.694568,45.419105,0 -93.694230,45.419175,0 -93.693728,45.419267,0 -93.693468,45.419357,0 -93.693219,45.419556,0 -93.692968,45.419660,0 -93.692699,45.419798,0 -93.692545,45.419894,0 -93.692547,45.420017,0 -93.692579,45.420275,0 -93.692561,45.420364,0 -93.692505,45.420521,0 -93.692400,45.420685,0 -93.692190,45.420878,0 -93.692076,45.421083,0 -93.691972,45.421274,0 -93.691839,45.421459,0 -93.691763,45.421562,0 -93.691747,45.421834,0 -93.691536,45.422026,0 -93.690979,45.422364,0 -93.690777,45.422501,0 -93.690711,45.422618,0 -93.690723,45.422849,0 -93.690792,45.422951,0 -93.690999,45.423188,0 -93.691146,45.423344,0 -93.691167,45.423474,0 -93.690992,45.423475,0 -93.690808,45.423442,0 -93.690518,45.423468,0 -93.690489,45.423471,0 -93.690502,45.423498,0 -93.690519,45.423532,0 -93.690587,45.423566,0 -93.690945,45.423584,0 -93.691159,45.423637,0 -93.691530,45.423901,0 -93.691638,45.424009,0 -93.691736,45.424158,0 -93.691739,45.424383,0 -93.691634,45.424493,0 -93.691558,45.424596,0 -93.691570,45.424786,0 -93.691660,45.425024,0 -93.691867,45.425364,0 -93.691927,45.425534,0 -93.692067,45.425853,0 -93.692225,45.426146,0 -93.692444,45.426628,0 -93.692545,45.426948,0 -93.692547,45.427173,0 -93.692549,45.427309,0 -93.692445,45.427500,0 -93.692342,45.427808,0 -93.692239,45.428054,0 -93.692193,45.428279,0 -93.692101,45.428661,0 -93.692092,45.428743,0 -93.691949,45.428901,0 -93.691702,45.429297,0 -93.691496,45.429810,0 -93.691325,45.430077,0 -93.690993,45.430631,0 -93.690802,45.430877,0 -93.690793,45.430973,0 -93.690736,45.431048,0 -93.690611,45.431055,0 -93.689954,45.431155,0 -93.689499,45.431151,0 -93.689334,45.431118,0 -93.688869,45.431093,0 -93.688866,45.431097,0 -93.688831,45.431148,0 -93.688822,45.431203,0 -93.688928,45.431216,0 -93.689085,45.431245,0 -93.689171,45.431262,0 -93.689220,45.431289,0 -93.689230,45.431343,0 -93.689163,45.431425,0 -93.689165,45.431569,0 -93.688788,45.431639,0 -93.688614,45.431606,0 -93.688594,45.431545,0 -93.688610,45.431327,0 -93.688549,45.431095,0</coordinates></LineString> <LineString><coordinates>-93.689879,45.425141,0 -93.689918,45.425099,0 -93.689641,45.425101,0 -93.689610,45.424983,0 -93.689549,45.424817,0 -93.689548,45.424705,0 -93.689632,45.424357,0 -93.689788,45.424148,0 -93.690238,45.423832,0 -93.690364,45.423693,0 -93.690433,45.423623,0 -93.690422,45.423574,0 -93.690372,45.423512,0 -93.690243,45.423471,0 -93.690046,45.423472,0 -93.689799,45.423488,0 -93.689455,45.423587,0 -93.689297,45.423616,0 -93.688806,45.423765,0 -93.688609,45.423821,0 -93.688521,45.423898,0 -93.688396,45.424170,0 -93.688310,45.424393,0 -93.688192,45.424463,0 -93.688025,45.424541,0 -93.687917,45.424535,0 -93.687848,45.424577,0 -93.687860,45.424723,0 -93.688010,45.424930,0 -93.688230,45.425089,0 -93.688567,45.425219,0 -93.689071,45.425299,0 -93.689525,45.425248,0 -93.689879,45.425141,0</coordinates></LineString>
      </MultiGeometry>
      <name>Ann</name>
      <description>
        <![CDATA[
          <a href="http://www.dnr.state.mn.us/lakefind/lake.html?id=71006900">DNR LakeFinder</a>
        ]]>
      </description>
    </Placemark>
  
  </Folder>



  <Folder>
    <Style id="contourStyle">
      <LabelStyle> 
        <scale>1.1</scale>         
      </LabelStyle>
      <LineStyle>
        <color>50FFFFFF</color>
        <width>1</width>
        <gx:labelVisibility>1</gx:labelVisibility>
      </LineStyle>
    </Style>
    <name>Minnesota Lake Bathymetry</name>
  <Placemark>
      <styleUrl>#contourStyle</styleUrl>
      <LineString><coordinates>-93.691446,45.429121,0 -93.690976,45.429352,0 -93.690388,45.429564,0 -93.690093,45.429628,0 -93.689740,45.429672,0 -93.689591,45.429631,0 -93.689382,45.429383,0 -93.689173,45.429259,0 -93.688760,45.429303,0 -93.688348,45.429368,0 -93.687639,45.429372,0 -93.687019,45.429376,0 -93.686575,45.429337,0 -93.686102,45.429340,0 -93.685542,45.429427,0 -93.684834,45.429514,0 -93.684244,45.429559,0 -93.683683,45.429521,0 -93.683119,45.429337,0 -93.682822,45.429214,0 -93.682494,45.428946,0 -93.682580,45.428716,0 -93.682693,45.428321,0 -93.682809,45.428091,0 -93.682894,45.427820,0 -93.682862,45.427633,0 -93.682858,45.427280,0 -93.683030,45.426842,0 -93.683379,45.426424,0 -93.683729,45.426006,0 -93.683932,45.425734,0 -93.684548,45.425377,0 -93.685458,45.424893,0 -93.685898,45.424641,0 -93.686455,45.424347,0 -93.686955,45.424115,0 -93.687219,45.423988,0 -93.687483,45.423862,0 -93.687631,45.423861,0 -93.687839,45.423943,0 -93.687900,45.424109,0 -93.687784,45.424318,0 -93.687579,45.424485,0 -93.687523,45.424694,0 -93.687645,45.425005,0 -93.687765,45.425191,0 -93.688122,45.425397,0 -93.688478,45.425541,0 -93.688834,45.425622,0 -93.689248,45.425682,0 -93.689455,45.425680,0 -93.689692,45.425741,0 -93.689812,45.425907,0 -93.689902,45.426052,0 -93.689938,45.426530,0 -93.689941,45.426842,0 -93.690094,45.427236,0 -93.690304,45.427505,0 -93.690455,45.427796,0 -93.690634,45.427961,0 -93.690815,45.428209,0 -93.691023,45.428354,0 -93.691203,45.428540,0 -93.691382,45.428684,0 -93.691501,45.428829,0 -93.691592,45.428995,0 -93.691563,45.429057,0 -93.691446,45.429121,0</coordinates></LineString>
      <name>5 ft</name>
    </Placemark>
  <Placemark>
      <styleUrl>#contourStyle</styleUrl>
      <LineString><coordinates>-93.690855,45.429103,0 -93.690562,45.429292,0 -93.690268,45.429419,0 -93.689973,45.429462,0 -93.689737,45.429484,0 -93.689588,45.429361,0 -93.689379,45.429195,0 -93.689141,45.429031,0 -93.688874,45.428949,0 -93.688224,45.428890,0 -93.687427,45.428958,0 -93.687014,45.429023,0 -93.686484,45.429109,0 -93.685806,45.429217,0 -93.685305,45.429345,0 -93.684774,45.429390,0 -93.684360,45.429392,0 -93.683947,45.429374,0 -93.683562,45.429314,0 -93.683236,45.429232,0 -93.682969,45.429109,0 -93.682820,45.429027,0 -93.682758,45.428778,0 -93.682844,45.428548,0 -93.683013,45.427903,0 -93.683183,45.427278,0 -93.683327,45.426986,0 -93.683646,45.426464,0 -93.684170,45.425837,0 -93.684374,45.425607,0 -93.684932,45.425354,0 -93.685519,45.425059,0 -93.686282,45.424660,0 -93.686576,45.424512,0 -93.686840,45.424407,0 -93.687017,45.424406,0 -93.687106,45.424405,0 -93.687284,45.424487,0 -93.687346,45.424716,0 -93.687468,45.425068,0 -93.687648,45.425296,0 -93.687975,45.425481,0 -93.688658,45.425747,0 -93.688984,45.425808,0 -93.689430,45.426117,0 -93.689581,45.426324,0 -93.689586,45.426782,0 -93.689532,45.427156,0 -93.689712,45.427426,0 -93.690010,45.427653,0 -93.690279,45.427859,0 -93.690398,45.427962,0 -93.690459,45.428149,0 -93.690639,45.428335,0 -93.690818,45.428521,0 -93.690938,45.428604,0 -93.691028,45.428790,0 -93.691001,45.428957,0 -93.690855,45.429103,0</coordinates></LineString>
      <name>10 ft</name>
    </Placemark>
  <Placemark>
      <styleUrl>#contourStyle</styleUrl>
      <LineString><coordinates>-93.689395,45.428031,0 -93.689455,45.428155,0 -93.689575,45.428279,0 -93.689576,45.428342,0 -93.689428,45.428384,0 -93.689310,45.428385,0 -93.689192,45.428365,0 -93.689075,45.428469,0 -93.689313,45.428634,0 -93.689610,45.428757,0 -93.689729,45.428840,0 -93.689731,45.428965,0 -93.689732,45.429069,0 -93.689585,45.429090,0 -93.689496,45.429070,0 -93.689377,45.428988,0 -93.689169,45.428906,0 -93.689020,45.428802,0 -93.688547,45.428743,0 -93.688045,45.428746,0 -93.687602,45.428811,0 -93.686688,45.428900,0 -93.685863,45.429050,0 -93.685332,45.429116,0 -93.684741,45.429140,0 -93.684180,45.429144,0 -93.683855,45.429104,0 -93.683619,45.429105,0 -93.683292,45.429003,0 -93.683113,45.428859,0 -93.683053,45.428755,0 -93.683022,45.428610,0 -93.683078,45.428339,0 -93.683247,45.427693,0 -93.683390,45.427339,0 -93.683447,45.427110,0 -93.683709,45.426817,0 -93.684467,45.426001,0 -93.685376,45.425434,0 -93.685933,45.425098,0 -93.686080,45.425014,0 -93.686226,45.424909,0 -93.686432,45.424867,0 -93.686757,45.424844,0 -93.686905,45.424885,0 -93.687262,45.425111,0 -93.687620,45.425400,0 -93.688155,45.425667,0 -93.688422,45.425790,0 -93.688660,45.425935,0 -93.688869,45.426079,0 -93.689138,45.426348,0 -93.689288,45.426534,0 -93.689378,45.426700,0 -93.689354,45.427157,0 -93.689360,45.427573,0 -93.689244,45.427761,0 -93.689245,45.427907,0 -93.689395,45.428031,0</coordinates></LineString>
      <name>15 ft</name>
    </Placemark>
  <Placemark>
      <styleUrl>#contourStyle</styleUrl>
      <LineString><coordinates>-93.685799,45.428697,0 -93.685150,45.428763,0 -93.684825,45.428765,0 -93.684588,45.428663,0 -93.684320,45.428498,0 -93.684289,45.428373,0 -93.684136,45.427917,0 -93.684159,45.427376,0 -93.684244,45.427084,0 -93.684478,45.426896,0 -93.684652,45.426645,0 -93.685266,45.426101,0 -93.685587,45.425808,0 -93.685970,45.425701,0 -93.686177,45.425762,0 -93.686356,45.425865,0 -93.686652,45.425926,0 -93.686769,45.425884,0 -93.687123,45.425778,0 -93.687506,45.425734,0 -93.687950,45.425814,0 -93.688100,45.426021,0 -93.688163,45.426291,0 -93.688137,45.426645,0 -93.688051,45.426853,0 -93.688055,45.427124,0 -93.688145,45.427269,0 -93.688383,45.427455,0 -93.688593,45.427682,0 -93.688654,45.427848,0 -93.688597,45.427994,0 -93.688452,45.428224,0 -93.688039,45.428309,0 -93.687421,45.428438,0 -93.686772,45.428546,0 -93.686183,45.428695,0 -93.685799,45.428697,0</coordinates></LineString>
      <name>20 ft</name>
    </Placemark>
  <Placemark>
      <styleUrl>#contourStyle</styleUrl>
      <LineString><coordinates>-93.687616,45.427459,0 -93.687350,45.427502,0 -93.687143,45.427441,0 -93.687083,45.427379,0 -93.687023,45.427276,0 -93.687021,45.427151,0 -93.687137,45.426942,0 -93.687371,45.426795,0 -93.687724,45.426689,0 -93.687843,45.426730,0 -93.687905,45.427000,0 -93.687850,45.427271,0 -93.687762,45.427354,0 -93.687616,45.427459,0</coordinates></LineString>
      <name>25 ft</name>
    </Placemark>
  <Placemark>
      <styleUrl>#contourStyle</styleUrl>
      <LineString><coordinates>-93.689108,45.428740,0 -93.689048,45.428636,0 -93.689077,45.428594,0 -93.689136,45.428594,0 -93.689373,45.428696,0 -93.689492,45.428779,0 -93.689612,45.428861,0 -93.689612,45.428903,0 -93.689554,45.428986,0 -93.689465,45.428966,0 -93.689406,45.428925,0 -93.689198,45.428822,0 -93.689108,45.428740,0</coordinates></LineString>
      <name>20 ft</name>
    </Placemark>
  <Placemark>
      <styleUrl>#contourStyle</styleUrl>
      <LineString><coordinates>-93.689540,45.427843,0 -93.689628,45.427821,0 -93.689778,45.427945,0 -93.689927,45.428090,0 -93.690077,45.428255,0 -93.690079,45.428422,0 -93.690050,45.428526,0 -93.689845,45.428610,0 -93.689550,45.428654,0 -93.689431,45.428613,0 -93.689283,45.428531,0 -93.689282,45.428468,0 -93.689311,45.428426,0 -93.689429,45.428446,0 -93.689548,45.428467,0 -93.689696,45.428486,0 -93.689725,45.428465,0 -93.689724,45.428403,0 -93.689693,45.428299,0 -93.689603,45.428196,0 -93.689543,45.428113,0 -93.689482,45.427947,0 -93.689540,45.427843,0</coordinates></LineString>
      <name>10 ft</name>
    </Placemark>
  
  </Folder>



  <Folder>
    <Style id="Trailer Launch">
      <IconStyle>
        <Icon>
          <href>http://maps.dnr.state.mn.us/compass/graphics/kml_icons/water_access_trailer.png</href>
          <scale>0.78125</scale>
        </Icon>
      </IconStyle>
    </Style>
    <Style id="Carry-In">
      <IconStyle>
        <Icon>
          <href>http://maps.dnr.state.mn.us/compass/graphics/kml_icons/water_access_carry-in.png</href>
          <scale>0.78125</scale>
        </Icon>
      </IconStyle>
    </Style>
    <name>Water Access Sites</name>
    <description>Water Access Sites in Minnesota. Supplied by the Minnesota DNR, Division of Parks &amp; Trails</description>
    <Placemark>
      <styleUrl>#Trailer Launch</styleUrl>    
      <Point>
        <coordinates>-93.689630,45.431053</coordinates>
      </Point>
      <name>Ann Lake Public Water Access Site</name>
      <description>
        <![CDATA[
	  <a href="https://www.dnr.state.mn.us/water_access/site.html?id=WAS01767">more detail</a>
        ]]>
      </description>
    </Placemark>
    
  </Folder>



</Folder>
</kml>
