<?xml version="1.0" encoding="UTF-8"?>
<kml xmlns="http://www.opengis.net/kml/2.2" xmlns:gx="http://www.google.com/kml/ext/2.2" xmlns:kml="http://www.opengis.net/kml/2.2" xmlns:atom="http://www.w3.org/2005/Atom">
<Folder>
  <name>MNDNR LakeFinder</name>


  <Folder>
    <Style id="lakeStyle">
      <LineStyle>
        <color>F7FF3333</color>
        <width>4</width>
      </LineStyle>
    </Style>
    <name>Minnesota Lake Basins</name>
  <Placemark>
      <styleUrl>#lakeStyle</styleUrl>
      <MultiGeometry>
        <LineString><coordinates>-93.578676,45.464680,0 -93.578238,45.464670,0 -93.577178,45.464740,0 -93.576657,45.464763,0 -93.576313,45.464745,0 -93.575538,45.464559,0 -93.575043,45.464391,0 -93.574407,45.464034,0 -93.574209,45.463819,0 -93.573963,45.463421,0 -93.573446,45.462919,0 -93.573014,45.462502,0 -93.572873,45.462417,0 -93.572649,45.462379,0 -93.572408,45.462407,0 -93.571832,45.462527,0 -93.571441,45.462510,0 -93.570657,45.462311,0 -93.569658,45.462027,0 -93.568706,45.461751,0 -93.568379,45.461647,0 -93.567989,45.461721,0 -93.567637,45.461808,0 -93.567329,45.461816,0 -93.567012,45.461759,0 -93.566741,45.461636,0 -93.566451,45.461434,0 -93.566187,45.461147,0 -93.566101,45.460925,0 -93.566090,45.460735,0 -93.566234,45.460198,0 -93.566330,45.459621,0 -93.566408,45.459018,0 -93.566385,45.458566,0 -93.566446,45.458120,0 -93.566571,45.457635,0 -93.566814,45.456822,0 -93.567131,45.455949,0 -93.567450,45.455240,0 -93.567676,45.454565,0 -93.568022,45.453882,0 -93.568537,45.453277,0 -93.569099,45.452717,0 -93.569421,45.452362,0 -93.569661,45.452151,0 -93.569818,45.452052,0 -93.570245,45.451873,0 -93.570718,45.451727,0 -93.571182,45.451626,0 -93.571433,45.451592,0 -93.571573,45.451598,0 -93.571675,45.451617,0 -93.571723,45.451754,0 -93.571910,45.451878,0 -93.572079,45.452001,0 -93.572462,45.452098,0 -93.572807,45.452181,0 -93.572984,45.452272,0 -93.572990,45.452284,0 -93.573010,45.452286,0 -93.573179,45.452323,0 -93.573261,45.452366,0 -93.573363,45.452413,0 -93.573431,45.452451,0 -93.573445,45.452489,0 -93.573445,45.452551,0 -93.573398,45.452584,0 -93.573277,45.452594,0 -93.573135,45.452595,0 -93.572938,45.452601,0 -93.572756,45.452602,0 -93.572627,45.452602,0 -93.572583,45.452603,0 -93.572572,45.452608,0 -93.572546,45.452603,0 -93.572499,45.452613,0 -93.572431,45.452594,0 -93.572335,45.452542,0 -93.572267,45.452509,0 -93.572199,45.452457,0 -93.572124,45.452414,0 -93.572009,45.452358,0 -93.571920,45.452296,0 -93.571825,45.452216,0 -93.571743,45.452159,0 -93.571661,45.452083,0 -93.571565,45.452022,0 -93.571484,45.451965,0 -93.571402,45.451942,0 -93.571375,45.451970,0 -93.571491,45.452022,0 -93.571580,45.452098,0 -93.571702,45.452169,0 -93.571811,45.452249,0 -93.571934,45.452325,0 -93.572043,45.452410,0 -93.572152,45.452486,0 -93.572282,45.452561,0 -93.572383,45.452608,0 -93.572465,45.452656,0 -93.572540,45.452722,0 -93.572586,45.452753,0 -93.572599,45.452778,0 -93.572720,45.452837,0 -93.573403,45.453174,0 -93.573562,45.453271,0 -93.573826,45.453597,0 -93.574219,45.453811,0 -93.574649,45.453979,0 -93.575331,45.454258,0 -93.575573,45.454283,0 -93.575984,45.454412,0 -93.576077,45.454437,0 -93.576095,45.454391,0 -93.576068,45.454323,0 -93.575895,45.453882,0 -93.575543,45.453117,0 -93.575313,45.452483,0 -93.575233,45.451927,0 -93.575098,45.451521,0 -93.575091,45.451495,0 -93.575093,45.451475,0 -93.575091,45.451356,0 -93.575117,45.451213,0 -93.575190,45.451037,0 -93.575256,45.450874,0 -93.575315,45.450755,0 -93.575341,45.450612,0 -93.575340,45.450522,0 -93.575346,45.450479,0 -93.575357,45.450459,0 -93.575456,45.450072,0 -93.575554,45.449620,0 -93.575560,45.449286,0 -93.575549,45.449077,0 -93.575568,45.449015,0 -93.575580,45.448872,0 -93.575586,45.448786,0 -93.575579,45.448706,0 -93.575517,45.448625,0 -93.575428,45.448554,0 -93.575389,45.448530,0 -93.575177,45.448305,0 -93.575128,45.448030,0 -93.575142,45.447578,0 -93.575085,45.447448,0 -93.574935,45.447344,0 -93.574740,45.447241,0 -93.574701,45.447220,0 -93.574645,45.447230,0 -93.574432,45.447268,0 -93.573966,45.447250,0 -93.573761,45.447192,0 -93.573546,45.447049,0 -93.573291,45.446743,0 -93.573176,45.446363,0 -93.573094,45.445887,0 -93.573120,45.445846,0 -93.573187,45.445783,0 -93.573234,45.445736,0 -93.573336,45.445711,0 -93.573410,45.445682,0 -93.573411,45.445682,0 -93.573412,45.445682,0 -93.573430,45.445663,0 -93.573497,45.445644,0 -93.573501,45.445643,0 -93.573646,45.445614,0 -93.573747,45.445571,0 -93.573868,45.445528,0 -93.573923,45.445512,0 -93.573932,45.445505,0 -93.573985,45.445462,0 -93.574198,45.445350,0 -93.574682,45.445301,0 -93.575100,45.445293,0 -93.575909,45.445236,0 -93.576309,45.445247,0 -93.576392,45.445281,0 -93.576692,45.445403,0 -93.576894,45.445554,0 -93.577386,45.445923,0 -93.577836,45.446229,0 -93.578005,45.446372,0 -93.578360,45.446548,0 -93.578370,45.446553,0 -93.578539,45.446723,0 -93.578688,45.446895,0 -93.578793,45.447016,0 -93.578916,45.447179,0 -93.579096,45.447512,0 -93.579174,45.447853,0 -93.579175,45.447977,0 -93.579189,45.447994,0 -93.579178,45.448011,0 -93.579179,45.448059,0 -93.579220,45.448111,0 -93.579302,45.448153,0 -93.579390,45.448186,0 -93.579465,45.448210,0 -93.579524,45.448218,0 -93.579896,45.448380,0 -93.580167,45.448509,0 -93.580412,45.448842,0 -93.580526,45.449018,0 -93.580694,45.449102,0 -93.580844,45.449233,0 -93.580919,45.449239,0 -93.580926,45.449168,0 -93.580927,45.449160,0 -93.580882,45.449122,0 -93.580881,45.449112,0 -93.580888,45.449069,0 -93.580887,45.448998,0 -93.580914,45.448945,0 -93.580947,45.448912,0 -93.580948,45.448908,0 -93.580971,45.448905,0 -93.581072,45.448753,0 -93.581033,45.448583,0 -93.581097,45.448498,0 -93.581236,45.448451,0 -93.581357,45.448398,0 -93.581496,45.448345,0 -93.581626,45.448351,0 -93.581739,45.448508,0 -93.581880,45.448605,0 -93.582011,45.448742,0 -93.582048,45.448742,0 -93.582062,45.448758,0 -93.582130,45.448777,0 -93.582204,45.448772,0 -93.582237,45.448710,0 -93.582291,45.448629,0 -93.582317,45.448576,0 -93.582357,45.448514,0 -93.582404,45.448471,0 -93.582458,45.448433,0 -93.582519,45.448408,0 -93.582606,45.448389,0 -93.582625,45.448384,0 -93.582678,45.448392,0 -93.582809,45.448515,0 -93.582886,45.448724,0 -93.582886,45.448736,0 -93.582915,45.448764,0 -93.582957,45.448897,0 -93.582938,45.449025,0 -93.582912,45.449111,0 -93.582811,45.449212,0 -93.582738,45.449327,0 -93.582658,45.449437,0 -93.582624,45.449489,0 -93.582530,45.449523,0 -93.582429,45.449547,0 -93.582416,45.449551,0 -93.582390,45.449572,0 -93.582382,45.449571,0 -93.582341,45.449595,0 -93.582335,45.449624,0 -93.582410,45.449662,0 -93.582485,45.449704,0 -93.582620,45.449727,0 -93.582729,45.449746,0 -93.582782,45.449760,0 -93.582935,45.449831,0 -93.583234,45.450019,0 -93.583450,45.450162,0 -93.583731,45.450397,0 -93.583929,45.450586,0 -93.583966,45.450662,0 -93.584033,45.450801,0 -93.584083,45.451142,0 -93.584144,45.451633,0 -93.584214,45.451741,0 -93.584400,45.452031,0 -93.584494,45.452207,0 -93.584629,45.452652,0 -93.584634,45.452738,0 -93.584663,45.453228,0 -93.584592,45.453575,0 -93.584521,45.453779,0 -93.584484,45.453884,0 -93.584440,45.453910,0 -93.584299,45.453996,0 -93.584291,45.454166,0 -93.584374,45.454577,0 -93.584389,45.454651,0 -93.584566,45.455501,0 -93.584572,45.455686,0 -93.584579,45.455868,0 -93.584602,45.456293,0 -93.584590,45.456305,0 -93.584597,45.456371,0 -93.584591,45.456448,0 -93.584606,45.456562,0 -93.584607,45.456667,0 -93.584621,45.456705,0 -93.584620,45.456709,0 -93.584625,45.456719,0 -93.584627,45.456948,0 -93.584514,45.457330,0 -93.584510,45.457342,0 -93.584337,45.457683,0 -93.584098,45.457979,0 -93.583849,45.458190,0 -93.583692,45.458322,0 -93.583638,45.458466,0 -93.583759,45.458505,0 -93.583842,45.458614,0 -93.583853,45.458629,0 -93.583968,45.458929,0 -93.583907,45.459270,0 -93.583715,45.459677,0 -93.583338,45.460072,0 -93.583275,45.460302,0 -93.583212,45.460531,0 -93.583073,45.461449,0 -93.583047,45.461691,0 -93.583024,45.461962,0 -93.583014,45.462071,0 -93.582961,45.462294,0 -93.582885,45.462547,0 -93.582878,45.462569,0 -93.582853,45.462655,0 -93.582809,45.462911,0 -93.582737,45.463022,0 -93.582534,45.463338,0 -93.582480,45.463528,0 -93.582480,45.463533,0 -93.582491,45.463692,0 -93.582388,45.463771,0 -93.582386,45.463775,0 -93.582306,45.463866,0 -93.582192,45.463971,0 -93.582118,45.464105,0 -93.581998,45.464249,0 -93.581945,45.464358,0 -93.581899,45.464492,0 -93.581887,45.464597,0 -93.581888,45.464697,0 -93.581881,45.464754,0 -93.581828,45.464816,0 -93.581646,45.464898,0 -93.581511,45.464961,0 -93.581350,45.465038,0 -93.581167,45.465058,0 -93.581018,45.465054,0 -93.580984,45.465039,0 -93.580652,45.464998,0 -93.580084,45.464975,0 -93.579488,45.464925,0 -93.579124,45.464829,0 -93.578676,45.464680,0</coordinates></LineString> <LineString><coordinates>-93.579802,45.455070,0 -93.579754,45.455043,0 -93.579564,45.455044,0 -93.579432,45.455045,0 -93.579412,45.454978,0 -93.579105,45.454679,0 -93.578779,45.454387,0 -93.578617,45.454294,0 -93.578437,45.454302,0 -93.578200,45.454330,0 -93.578086,45.454390,0 -93.577907,45.454552,0 -93.577889,45.454625,0 -93.577967,45.454785,0 -93.577987,45.454939,0 -93.577800,45.455180,0 -93.577746,45.455475,0 -93.577653,45.455689,0 -93.577635,45.455742,0 -93.577701,45.455735,0 -93.578269,45.455525,0 -93.579291,45.455179,0 -93.579423,45.455132,0 -93.579594,45.455111,0 -93.579802,45.455070,0</coordinates></LineString> <LineString><coordinates>-93.582032,45.449579,0 -93.582064,45.449550,0 -93.582105,45.449513,0 -93.582151,45.449401,0 -93.582224,45.449270,0 -93.582167,45.449192,0 -93.582111,45.449153,0 -93.581943,45.449108,0 -93.581890,45.449100,0 -93.581869,45.449107,0 -93.581795,45.449136,0 -93.581735,45.449189,0 -93.581668,45.449280,0 -93.581622,45.449361,0 -93.581573,45.449409,0 -93.581555,45.449428,0 -93.581507,45.449447,0 -93.581433,45.449452,0 -93.581386,45.449438,0 -93.581338,45.449405,0 -93.581331,45.449377,0 -93.581323,45.449356,0 -93.581296,45.449325,0 -93.581256,45.449282,0 -93.581180,45.449282,0 -93.581163,45.449282,0 -93.581127,45.449341,0 -93.581211,45.449419,0 -93.581323,45.449465,0 -93.581463,45.449510,0 -93.581827,45.449580,0 -93.582032,45.449579,0</coordinates></LineString> <LineString><coordinates>-93.578757,45.447847,0 -93.578542,45.447769,0 -93.578739,45.447906,0 -93.578991,45.447977,0 -93.578935,45.447925,0 -93.578757,45.447847,0</coordinates></LineString>
      </MultiGeometry>
      <name>Fremont</name>
      <description>
        <![CDATA[
          <a href="http://www.dnr.state.mn.us/lakefind/lake.html?id=71001600">DNR LakeFinder</a>
        ]]>
      </description>
    </Placemark>
  
  </Folder>



  <Folder>
    <Style id="contourStyle">
      <LabelStyle> 
        <scale>1.1</scale>         
      </LabelStyle>
      <LineStyle>
        <color>50FFFFFF</color>
        <width>1</width>
        <gx:labelVisibility>1</gx:labelVisibility>
      </LineStyle>
    </Style>
    <name>Minnesota Lake Bathymetry</name>
  <Placemark>
      <styleUrl>#contourStyle</styleUrl>
      <LineString><coordinates>-93.581222,45.455547,0 -93.580837,45.455405,0 -93.580474,45.455344,0 -93.579865,45.455426,0 -93.579572,45.455475,0 -93.579347,45.455572,0 -93.579054,45.455685,0 -93.578784,45.455782,0 -93.578581,45.455862,0 -93.578491,45.455926,0 -93.578334,45.456007,0 -93.578222,45.456135,0 -93.578156,45.456310,0 -93.577954,45.456486,0 -93.577595,45.456679,0 -93.577437,45.456759,0 -93.577234,45.456808,0 -93.577144,45.456824,0 -93.576918,45.456841,0 -93.576714,45.456779,0 -93.576555,45.456700,0 -93.576532,45.456636,0 -93.576508,45.456541,0 -93.576508,45.456461,0 -93.576597,45.456381,0 -93.576754,45.456285,0 -93.576934,45.456141,0 -93.577091,45.456013,0 -93.577269,45.455789,0 -93.577426,45.455614,0 -93.577604,45.455358,0 -93.577661,45.455167,0 -93.577714,45.455052,0 -93.577731,45.454988,0 -93.577749,45.454912,0 -93.577748,45.454861,0 -93.577693,45.454760,0 -93.577674,45.454671,0 -93.577672,45.454518,0 -93.577689,45.454441,0 -93.577779,45.454365,0 -93.577887,45.454300,0 -93.578012,45.454198,0 -93.578101,45.454007,0 -93.578190,45.453892,0 -93.578262,45.453853,0 -93.578515,45.453852,0 -93.578624,45.453851,0 -93.578787,45.453927,0 -93.579097,45.454142,0 -93.579206,45.454243,0 -93.579389,45.454420,0 -93.579535,45.454508,0 -93.579608,45.454648,0 -93.579754,45.454724,0 -93.579990,45.454786,0 -93.580279,45.454823,0 -93.580569,45.454860,0 -93.580786,45.454871,0 -93.581094,45.454946,0 -93.581203,45.454971,0 -93.581312,45.455008,0 -93.581402,45.455033,0 -93.581476,45.455122,0 -93.581494,45.455148,0 -93.581513,45.455186,0 -93.581513,45.455211,0 -93.581531,45.455262,0 -93.581532,45.455300,0 -93.581460,45.455364,0 -93.581442,45.455390,0 -93.581389,45.455454,0 -93.581222,45.455547,0</coordinates></LineString>
      <name>5 ft</name>
    </Placemark>
  <Placemark>
      <styleUrl>#contourStyle</styleUrl>
      <LineString><coordinates>-93.575658,45.452008,0 -93.575547,45.451792,0 -93.575508,45.451551,0 -93.575561,45.451385,0 -93.575576,45.451131,0 -93.575681,45.450799,0 -93.575750,45.450391,0 -93.575853,45.449882,0 -93.575839,45.449373,0 -93.575888,45.448889,0 -93.575795,45.448648,0 -93.575685,45.448445,0 -93.575535,45.447962,0 -93.575461,45.447759,0 -93.575367,45.447454,0 -93.575201,45.447098,0 -93.575073,45.447010,0 -93.574565,45.446796,0 -93.574202,45.446709,0 -93.573822,45.446647,0 -93.573695,45.446558,0 -93.573622,45.446482,0 -93.573620,45.446355,0 -93.573691,45.446228,0 -93.573781,45.446138,0 -93.574051,45.446009,0 -93.574411,45.445893,0 -93.574826,45.445802,0 -93.575187,45.445724,0 -93.575602,45.445696,0 -93.575982,45.445694,0 -93.576217,45.445719,0 -93.576363,45.445781,0 -93.576581,45.445908,0 -93.577010,45.446287,0 -93.577211,45.446490,0 -93.577630,45.446869,0 -93.577976,45.447059,0 -93.578248,45.447159,0 -93.578466,45.447311,0 -93.578522,45.447412,0 -93.578505,45.447578,0 -93.578344,45.447757,0 -93.578274,45.447986,0 -93.578312,45.448088,0 -93.578421,45.448176,0 -93.578675,45.448277,0 -93.578929,45.448352,0 -93.579256,45.448503,0 -93.579693,45.448755,0 -93.580148,45.449122,0 -93.580313,45.449299,0 -93.580604,45.449451,0 -93.581003,45.449589,0 -93.581719,45.449789,0 -93.582426,45.449950,0 -93.582953,45.450240,0 -93.583444,45.450518,0 -93.583774,45.450949,0 -93.583851,45.451381,0 -93.583872,45.451687,0 -93.584094,45.452093,0 -93.584296,45.452397,0 -93.584333,45.452524,0 -93.584500,45.452969,0 -93.584484,45.453172,0 -93.584370,45.453453,0 -93.584245,45.453645,0 -93.584103,45.453887,0 -93.584051,45.454116,0 -93.584036,45.454358,0 -93.584076,45.454778,0 -93.584207,45.455197,0 -93.584284,45.455642,0 -93.584286,45.455859,0 -93.584255,45.456317,0 -93.584313,45.456699,0 -93.584199,45.457094,0 -93.584004,45.457464,0 -93.583773,45.457808,0 -93.583576,45.458051,0 -93.583434,45.458307,0 -93.583418,45.458472,0 -93.583419,45.458612,0 -93.583584,45.458802,0 -93.583585,45.458929,0 -93.583605,45.459082,0 -93.583535,45.459299,0 -93.583428,45.459477,0 -93.583160,45.459772,0 -93.582999,45.459950,0 -93.582948,45.460218,0 -93.582896,45.460447,0 -93.582917,45.460753,0 -93.582859,45.461249,0 -93.582828,45.461797,0 -93.582725,45.462255,0 -93.582586,45.462842,0 -93.582304,45.463568,0 -93.581965,45.464054,0 -93.581805,45.464271,0 -93.581698,45.464399,0 -93.581645,45.464552,0 -93.581628,45.464692,0 -93.581575,45.464768,0 -93.581395,45.464820,0 -93.581214,45.464821,0 -93.580997,45.464822,0 -93.580652,45.464760,0 -93.580163,45.464636,0 -93.579510,45.464461,0 -93.579166,45.464399,0 -93.578331,45.464161,0 -93.577788,45.464100,0 -93.577481,45.464102,0 -93.577120,45.464231,0 -93.576850,45.464296,0 -93.576578,45.464297,0 -93.576235,45.464286,0 -93.575655,45.464213,0 -93.575256,45.464037,0 -93.574974,45.463936,0 -93.574719,45.463747,0 -93.574426,45.463392,0 -93.574114,45.462986,0 -93.573876,45.462606,0 -93.573567,45.462454,0 -93.573257,45.462240,0 -93.572713,45.462102,0 -93.572370,45.462117,0 -93.571971,45.462081,0 -93.571700,45.462082,0 -93.571519,45.462070,0 -93.571410,45.462045,0 -93.571066,45.461932,0 -93.570540,45.461782,0 -93.569669,45.461570,0 -93.569017,45.461421,0 -93.568654,45.461321,0 -93.568074,45.461209,0 -93.567711,45.461046,0 -93.567420,45.460882,0 -93.567182,45.460577,0 -93.566988,45.460197,0 -93.566785,45.459739,0 -93.566782,45.459434,0 -93.566793,45.458772,0 -93.566860,45.458225,0 -93.566906,45.457448,0 -93.567142,45.456620,0 -93.567407,45.456020,0 -93.567672,45.455332,0 -93.567812,45.454949,0 -93.568024,45.454401,0 -93.568239,45.454158,0 -93.568542,45.453787,0 -93.568811,45.453519,0 -93.569223,45.453148,0 -93.569366,45.453032,0 -93.569952,45.452826,0 -93.570277,45.452812,0 -93.570748,45.452860,0 -93.571237,45.452896,0 -93.571980,45.453096,0 -93.572543,45.453309,0 -93.572907,45.453562,0 -93.573145,45.453828,0 -93.573490,45.453992,0 -93.573617,45.454080,0 -93.573854,45.454219,0 -93.574053,45.454282,0 -93.574361,45.454306,0 -93.574506,45.454356,0 -93.574633,45.454419,0 -93.574724,45.454482,0 -93.574889,45.454659,0 -93.574999,45.454786,0 -93.575271,45.454925,0 -93.575452,45.454924,0 -93.575579,45.454910,0 -93.575741,45.454846,0 -93.576011,45.454781,0 -93.576191,45.454716,0 -93.576299,45.454639,0 -93.576334,45.454512,0 -93.576278,45.454385,0 -93.576259,45.454207,0 -93.576239,45.454016,0 -93.576237,45.453876,0 -93.576181,45.453647,0 -93.576105,45.453342,0 -93.576049,45.453113,0 -93.575992,45.452936,0 -93.575844,45.452567,0 -93.575658,45.452008,0</coordinates></LineString>
      <name>5 ft</name>
    </Placemark>
  <Placemark>
      <styleUrl>#contourStyle</styleUrl>
      <LineString><coordinates>-93.576865,45.455184,0 -93.576863,45.454993,0 -93.576898,45.454891,0 -93.577006,45.454827,0 -93.577151,45.454826,0 -93.577260,45.454889,0 -93.577316,45.455080,0 -93.577300,45.455220,0 -93.577173,45.455259,0 -93.576956,45.455247,0 -93.576865,45.455184,0</coordinates></LineString>
      <name>10 ft</name>
    </Placemark>
  
  </Folder>



  <Folder>
    <Style id="Trailer Launch">
      <IconStyle>
        <Icon>
          <href>http://maps.dnr.state.mn.us/compass/graphics/kml_icons/water_access_trailer.png</href>
          <scale>0.78125</scale>
        </Icon>
      </IconStyle>
    </Style>
    <Style id="Carry-In">
      <IconStyle>
        <Icon>
          <href>http://maps.dnr.state.mn.us/compass/graphics/kml_icons/water_access_carry-in.png</href>
          <scale>0.78125</scale>
        </Icon>
      </IconStyle>
    </Style>
    <name>Water Access Sites</name>
    <description>Water Access Sites in Minnesota. Supplied by the Minnesota DNR, Division of Parks &amp; Trails</description>
    <Placemark>
      <styleUrl>#Trailer Launch</styleUrl>    
      <Point>
        <coordinates>-93.575539,45.450948</coordinates>
      </Point>
      <name>Fremont Lake Public Water Access Site</name>
      <description>
        <![CDATA[
	  <a href="https://www.dnr.state.mn.us/water_access/site.html?id=WAS01780">more detail</a>
        ]]>
      </description>
    </Placemark>
    
  </Folder>



</Folder>
</kml>
