<?xml version="1.0" encoding="UTF-8"?>
<kml xmlns="http://www.opengis.net/kml/2.2" xmlns:gx="http://www.google.com/kml/ext/2.2" xmlns:kml="http://www.opengis.net/kml/2.2" xmlns:atom="http://www.w3.org/2005/Atom">
<Folder>
  <name>MNDNR LakeFinder</name>


  <Folder>
    <Style id="lakeStyle">
      <LineStyle>
        <color>F7FF3333</color>
        <width>4</width>
      </LineStyle>
    </Style>
    <name>Minnesota Lake Basins</name>
  <Placemark>
      <styleUrl>#lakeStyle</styleUrl>
      <MultiGeometry>
        <LineString><coordinates>-93.616596,45.496865,0 -93.616557,45.496754,0 -93.616464,45.496709,0 -93.616481,45.496610,0 -93.616564,45.496557,0 -93.616714,45.496596,0 -93.616862,45.496612,0 -93.616882,45.496615,0 -93.616901,45.496604,0 -93.616974,45.496562,0 -93.617019,45.496424,0 -93.616916,45.496333,0 -93.616896,45.496222,0 -93.616931,45.496038,0 -93.616985,45.495815,0 -93.616955,45.495691,0 -93.616898,45.495527,0 -93.616916,45.495475,0 -93.616980,45.495409,0 -93.617007,45.495317,0 -93.616986,45.495088,0 -93.616994,45.494996,0 -93.617198,45.494930,0 -93.617374,45.494844,0 -93.617587,45.494666,0 -93.617715,45.494468,0 -93.617694,45.494220,0 -93.617533,45.493978,0 -93.617362,45.493691,0 -93.617154,45.493424,0 -93.617051,45.493378,0 -93.616761,45.493275,0 -93.616621,45.493171,0 -93.616572,45.493021,0 -93.616533,45.492811,0 -93.616427,45.492517,0 -93.616396,45.492210,0 -93.616459,45.492013,0 -93.616472,45.491815,0 -93.616483,45.491646,0 -93.616757,45.491153,0 -93.616977,45.490818,0 -93.617124,45.490653,0 -93.617267,45.490528,0 -93.617410,45.490403,0 -93.617659,45.490212,0 -93.618037,45.489902,0 -93.618126,45.489857,0 -93.618454,45.489690,0 -93.618631,45.489683,0 -93.618911,45.489733,0 -93.619255,45.489653,0 -93.619729,45.489605,0 -93.620064,45.489550,0 -93.620295,45.489464,0 -93.620363,45.489478,0 -93.620538,45.489515,0 -93.620797,45.489396,0 -93.621013,45.489315,0 -93.621243,45.489230,0 -93.621688,45.489057,0 -93.622077,45.488899,0 -93.622114,45.488884,0 -93.622193,45.488777,0 -93.622288,45.488648,0 -93.622294,45.488274,0 -93.622167,45.487738,0 -93.621853,45.487163,0 -93.621718,45.486712,0 -93.621751,45.486345,0 -93.621923,45.485912,0 -93.622371,45.485143,0 -93.622425,45.485038,0 -93.622471,45.484913,0 -93.622551,45.484612,0 -93.622567,45.484402,0 -93.622584,45.484186,0 -93.622646,45.483884,0 -93.622709,45.483707,0 -93.622875,45.483562,0 -93.623060,45.483443,0 -93.623263,45.483350,0 -93.623440,45.483296,0 -93.623458,45.483290,0 -93.623653,45.483035,0 -93.623679,45.483001,0 -93.623741,45.482798,0 -93.623907,45.482620,0 -93.624110,45.482449,0 -93.624165,45.482337,0 -93.624089,45.482259,0 -93.623931,45.482253,0 -93.623736,45.482287,0 -93.623578,45.482288,0 -93.623474,45.482216,0 -93.623501,45.482131,0 -93.623594,45.482104,0 -93.623650,45.482117,0 -93.623744,45.482149,0 -93.624004,45.482135,0 -93.624172,45.482127,0 -93.624275,45.482173,0 -93.624386,45.482185,0 -93.624505,45.481955,0 -93.624606,45.481869,0 -93.624652,45.481804,0 -93.624520,45.481588,0 -93.624491,45.481503,0 -93.624592,45.481444,0 -93.624846,45.481626,0 -93.624958,45.481638,0 -93.625144,45.481611,0 -93.625328,45.481492,0 -93.625587,45.481321,0 -93.626337,45.480933,0 -93.626356,45.480923,0 -93.626503,45.480847,0 -93.626994,45.480592,0 -93.627669,45.480143,0 -93.628167,45.479728,0 -93.628841,45.479253,0 -93.629406,45.478942,0 -93.629757,45.478671,0 -93.630459,45.478209,0 -93.630802,45.478063,0 -93.631247,45.477884,0 -93.631437,45.477855,0 -93.631693,45.477816,0 -93.632140,45.477826,0 -93.632261,45.477845,0 -93.632403,45.477782,0 -93.632408,45.477779,0 -93.632409,45.477779,0 -93.632474,45.477713,0 -93.632650,45.477660,0 -93.632752,45.477649,0 -93.632901,45.477632,0 -93.633487,45.477566,0 -93.633812,45.477529,0 -93.634324,45.477565,0 -93.635166,45.477862,0 -93.635831,45.478245,0 -93.636330,45.478707,0 -93.636416,45.478903,0 -93.636427,45.479073,0 -93.636531,45.479197,0 -93.636532,45.479308,0 -93.636470,45.479597,0 -93.636419,45.480043,0 -93.636386,45.480423,0 -93.636123,45.481059,0 -93.636034,45.481407,0 -93.635898,45.481715,0 -93.635706,45.482051,0 -93.635655,45.482496,0 -93.635712,45.483367,0 -93.635706,45.483540,0 -93.635705,45.483577,0 -93.635729,45.484048,0 -93.635753,45.484143,0 -93.635797,45.484316,0 -93.635751,45.484402,0 -93.635631,45.484487,0 -93.635418,45.484561,0 -93.634796,45.484747,0 -93.634434,45.484880,0 -93.634277,45.484934,0 -93.634035,45.484968,0 -93.633746,45.484950,0 -93.633746,45.484950,0 -93.633638,45.484918,0 -93.633503,45.484879,0 -93.633470,45.484873,0 -93.633401,45.484860,0 -93.633253,45.484959,0 -93.633104,45.484921,0 -93.632982,45.484895,0 -93.632917,45.484863,0 -93.632953,45.484771,0 -93.633147,45.484678,0 -93.633435,45.484565,0 -93.633573,45.484473,0 -93.633535,45.484342,0 -93.633356,45.484218,0 -93.633226,45.484186,0 -93.633068,45.484246,0 -93.633013,45.484351,0 -93.633005,45.484423,0 -93.632931,45.484443,0 -93.632573,45.484432,0 -93.632567,45.484432,0 -93.632426,45.484309,0 -93.632368,45.484132,0 -93.632237,45.484041,0 -93.631798,45.483939,0 -93.631687,45.483939,0 -93.631547,45.483940,0 -93.631490,45.483816,0 -93.631415,45.483777,0 -93.631108,45.483785,0 -93.630950,45.483865,0 -93.630909,45.483926,0 -93.630813,45.484069,0 -93.630835,45.484204,0 -93.630843,45.484252,0 -93.630761,45.484396,0 -93.630679,45.484567,0 -93.630531,45.484666,0 -93.630277,45.484926,0 -93.630273,45.484930,0 -93.630210,45.485107,0 -93.630284,45.485286,0 -93.630373,45.485499,0 -93.630687,45.486165,0 -93.630737,45.486414,0 -93.630739,45.486656,0 -93.630694,45.486755,0 -93.630683,45.486769,0 -93.630593,45.486880,0 -93.630528,45.487102,0 -93.630503,45.487188,0 -93.630421,45.487359,0 -93.630293,45.487543,0 -93.629970,45.487761,0 -93.629265,45.488046,0 -93.628633,45.488181,0 -93.628076,45.488321,0 -93.627595,45.488540,0 -93.627335,45.488640,0 -93.627237,45.488712,0 -93.627086,45.488824,0 -93.627125,45.488975,0 -93.627605,45.489522,0 -93.627848,45.489662,0 -93.628001,45.489750,0 -93.628055,45.489782,0 -93.628390,45.489780,0 -93.628626,45.489743,0 -93.628995,45.489685,0 -93.629191,45.489698,0 -93.629265,45.489703,0 -93.629509,45.489872,0 -93.629686,45.490036,0 -93.629848,45.490184,0 -93.629861,45.490214,0 -93.629934,45.490380,0 -93.630122,45.490615,0 -93.630123,45.490707,0 -93.630096,45.490773,0 -93.630209,45.490837,0 -93.630440,45.490784,0 -93.630441,45.490784,0 -93.630443,45.490785,0 -93.630488,45.490805,0 -93.630600,45.490855,0 -93.630610,45.490877,0 -93.630696,45.491071,0 -93.630671,45.491378,0 -93.630533,45.491530,0 -93.630369,45.491615,0 -93.630366,45.491616,0 -93.630153,45.491650,0 -93.630122,45.491643,0 -93.630041,45.491624,0 -93.629984,45.491572,0 -93.629844,45.491560,0 -93.629668,45.491620,0 -93.629555,45.491721,0 -93.629345,45.491910,0 -93.629318,45.491938,0 -93.629134,45.492127,0 -93.629033,45.492278,0 -93.628944,45.492665,0 -93.628902,45.492773,0 -93.628835,45.492947,0 -93.628551,45.493283,0 -93.628550,45.493285,0 -93.628530,45.493347,0 -93.628497,45.493453,0 -93.628408,45.493517,0 -93.628386,45.493533,0 -93.627925,45.494013,0 -93.627584,45.494271,0 -93.627148,45.494489,0 -93.626898,45.494615,0 -93.626779,45.494727,0 -93.626798,45.494832,0 -93.626911,45.494870,0 -93.626994,45.494944,0 -93.627014,45.494961,0 -93.627043,45.495059,0 -93.626980,45.495250,0 -93.626927,45.495538,0 -93.626874,45.495761,0 -93.626793,45.496037,0 -93.626695,45.496005,0 -93.626672,45.495998,0 -93.626437,45.495803,0 -93.626319,45.495705,0 -93.626117,45.495536,0 -93.626045,45.495466,0 -93.625901,45.495328,0 -93.625843,45.495177,0 -93.625832,45.494988,0 -93.625775,45.494896,0 -93.625732,45.494896,0 -93.625502,45.494894,0 -93.625396,45.494893,0 -93.625309,45.494892,0 -93.624703,45.494843,0 -93.623418,45.494804,0 -93.622951,45.494751,0 -93.622940,45.494750,0 -93.622697,45.494722,0 -93.622318,45.494679,0 -93.621972,45.494629,0 -93.621431,45.494527,0 -93.621283,45.494534,0 -93.620854,45.494556,0 -93.620585,45.494617,0 -93.620427,45.494690,0 -93.620253,45.494716,0 -93.620158,45.494730,0 -93.619775,45.494654,0 -93.619402,45.494597,0 -93.619141,45.494605,0 -93.618919,45.494685,0 -93.618715,45.494764,0 -93.618437,45.494962,0 -93.618402,45.495120,0 -93.618181,45.495363,0 -93.618026,45.495639,0 -93.617962,45.495757,0 -93.617927,45.495934,0 -93.617769,45.496020,0 -93.617696,45.496126,0 -93.617716,45.496230,0 -93.617707,45.496342,0 -93.617643,45.496394,0 -93.617450,45.496605,0 -93.617293,45.496743,0 -93.617154,45.496797,0 -93.617033,45.496804,0 -93.616921,45.496798,0 -93.616828,45.496851,0 -93.616773,45.496923,0 -93.616699,45.496937,0 -93.616681,45.496924,0 -93.616596,45.496865,0</coordinates></LineString> <LineString><coordinates>-93.626092,45.495254,0 -93.626325,45.495325,0 -93.626446,45.495324,0 -93.626706,45.495238,0 -93.626779,45.495132,0 -93.626788,45.495041,0 -93.626693,45.494884,0 -93.626543,45.494826,0 -93.626292,45.494853,0 -93.626125,45.494926,0 -93.626014,45.495006,0 -93.626044,45.495163,0 -93.626092,45.495254,0</coordinates></LineString> <LineString><coordinates>-93.630365,45.490974,0 -93.630244,45.490948,0 -93.630104,45.490955,0 -93.630077,45.491001,0 -93.630086,45.491060,0 -93.629985,45.491166,0 -93.630042,45.491250,0 -93.629987,45.491310,0 -93.629978,45.491395,0 -93.630044,45.491440,0 -93.630165,45.491459,0 -93.630323,45.491400,0 -93.630441,45.491163,0 -93.630412,45.491058,0 -93.630365,45.490974,0</coordinates></LineString>
      </MultiGeometry>
      <name>Elk</name>
      <description>
        <![CDATA[
          <a href="http://www.dnr.state.mn.us/lakefind/lake.html?id=71005500">DNR LakeFinder</a>
        ]]>
      </description>
    </Placemark>
  
  </Folder>



  <Folder>
    <Style id="contourStyle">
      <LabelStyle> 
        <scale>1.1</scale>         
      </LabelStyle>
      <LineStyle>
        <color>50FFFFFF</color>
        <width>1</width>
        <gx:labelVisibility>1</gx:labelVisibility>
      </LineStyle>
    </Style>
    <name>Minnesota Lake Bathymetry</name>
  <Placemark>
      <styleUrl>#contourStyle</styleUrl>
      <LineString><coordinates>-93.629568,45.487038,0 -93.629520,45.487107,0 -93.629338,45.487267,0 -93.628807,45.487626,0 -93.628330,45.487827,0 -93.627684,45.487969,0 -93.627192,45.488042,0 -93.626911,45.488132,0 -93.626799,45.488212,0 -93.626688,45.488312,0 -93.626661,45.488441,0 -93.626617,45.488926,0 -93.626691,45.489223,0 -93.626850,45.489579,0 -93.626965,45.489787,0 -93.627305,45.490022,0 -93.627617,45.490159,0 -93.628211,45.490384,0 -93.628615,45.490639,0 -93.628957,45.490965,0 -93.629002,45.491252,0 -93.628880,45.491649,0 -93.628714,45.491937,0 -93.628507,45.492344,0 -93.628292,45.492643,0 -93.627986,45.493001,0 -93.627526,45.493420,0 -93.626996,45.493878,0 -93.626633,45.494138,0 -93.626114,45.494428,0 -93.625778,45.494569,0 -93.625300,45.494631,0 -93.624307,45.494656,0 -93.623884,45.494629,0 -93.623418,45.494562,0 -93.623009,45.494465,0 -93.622459,45.494418,0 -93.621853,45.494422,0 -93.620803,45.494368,0 -93.620448,45.494182,0 -93.620107,45.493886,0 -93.620105,45.493678,0 -93.620004,45.493471,0 -93.619760,45.493076,0 -93.619561,45.492948,0 -93.619307,45.492860,0 -93.619081,45.492842,0 -93.618730,45.492962,0 -93.618478,45.493102,0 -93.618254,45.493223,0 -93.617987,45.493254,0 -93.617591,45.493117,0 -93.617264,45.492871,0 -93.617036,45.492635,0 -93.617011,45.492219,0 -93.616952,45.491991,0 -93.617004,45.491565,0 -93.617241,45.491365,0 -93.617435,45.491107,0 -93.617614,45.490739,0 -93.617880,45.490530,0 -93.618399,45.490329,0 -93.619334,45.490155,0 -93.620121,45.490022,0 -93.621414,45.489787,0 -93.622229,45.489555,0 -93.622551,45.489414,0 -93.623028,45.489174,0 -93.623391,45.488954,0 -93.623573,45.488765,0 -93.623627,45.488566,0 -93.623525,45.488289,0 -93.623304,45.488073,0 -93.623049,45.487935,0 -93.622836,45.487758,0 -93.622707,45.487561,0 -93.622705,45.487382,0 -93.622773,45.487174,0 -93.622881,45.486728,0 -93.622868,45.486163,0 -93.622891,45.485727,0 -93.623026,45.485221,0 -93.623274,45.484645,0 -93.623509,45.484307,0 -93.624005,45.483888,0 -93.624409,45.483539,0 -93.624899,45.483269,0 -93.625417,45.482968,0 -93.625948,45.482619,0 -93.626527,45.482110,0 -93.626804,45.481653,0 -93.627080,45.481186,0 -93.627345,45.480947,0 -93.627652,45.480618,0 -93.628231,45.480149,0 -93.628972,45.479659,0 -93.629768,45.479100,0 -93.630356,45.478780,0 -93.631070,45.478360,0 -93.631455,45.478189,0 -93.632144,45.478047,0 -93.632692,45.477945,0 -93.633058,45.477953,0 -93.633439,45.477960,0 -93.633707,45.477999,0 -93.634145,45.478115,0 -93.634329,45.478263,0 -93.634868,45.478606,0 -93.635365,45.478891,0 -93.635536,45.479108,0 -93.635660,45.479533,0 -93.635677,45.479741,0 -93.635527,45.480148,0 -93.635416,45.480367,0 -93.635225,45.480873,0 -93.635102,45.481211,0 -93.635015,45.481588,0 -93.635019,45.482004,0 -93.635096,45.482578,0 -93.635113,45.482816,0 -93.635004,45.483143,0 -93.634859,45.483412,0 -93.634677,45.483532,0 -93.634383,45.483712,0 -93.633962,45.483813,0 -93.633441,45.483806,0 -93.632962,45.483769,0 -93.632355,45.483703,0 -93.631649,45.483548,0 -93.631282,45.483501,0 -93.630860,45.483503,0 -93.630663,45.483534,0 -93.630488,45.483654,0 -93.630307,45.483813,0 -93.630155,45.484082,0 -93.630044,45.484211,0 -93.629823,45.484648,0 -93.629812,45.484876,0 -93.629844,45.485273,0 -93.629949,45.485827,0 -93.629966,45.486114,0 -93.629872,45.486521,0 -93.629708,45.486908,0 -93.629568,45.487038,0</coordinates></LineString>
      <name>5 ft</name>
    </Placemark>
  <Placemark>
      <styleUrl>#contourStyle</styleUrl>
      <LineString><coordinates>-93.626299,45.490078,0 -93.626356,45.490137,0 -93.626441,45.490206,0 -93.626598,45.490383,0 -93.626672,45.490729,0 -93.626590,45.490938,0 -93.626381,45.491137,0 -93.625918,45.491358,0 -93.625329,45.491569,0 -93.624754,45.491760,0 -93.624291,45.491931,0 -93.624018,45.492111,0 -93.623879,45.492310,0 -93.623952,45.492548,0 -93.624236,45.492714,0 -93.624759,45.492900,0 -93.625198,45.493076,0 -93.625397,45.493243,0 -93.625399,45.493451,0 -93.625289,45.493630,0 -93.624967,45.493830,0 -93.624695,45.494069,0 -93.624414,45.494200,0 -93.624133,45.494231,0 -93.623753,45.494233,0 -93.623287,45.494156,0 -93.622849,45.494010,0 -93.622241,45.493815,0 -93.621789,45.493699,0 -93.621365,45.493582,0 -93.621237,45.493484,0 -93.621022,45.493188,0 -93.620793,45.492822,0 -93.620583,45.492368,0 -93.620427,45.492220,0 -93.620214,45.492063,0 -93.619847,45.491975,0 -93.619098,45.491762,0 -93.618631,45.491586,0 -93.618375,45.491369,0 -93.618273,45.491092,0 -93.618370,45.490884,0 -93.618565,45.490754,0 -93.618987,45.490643,0 -93.620034,45.490439,0 -93.621411,45.490144,0 -93.622423,45.489901,0 -93.622913,45.489630,0 -93.623487,45.489290,0 -93.623996,45.488832,0 -93.624133,45.488474,0 -93.624129,45.488167,0 -93.624279,45.487721,0 -93.624541,45.487214,0 -93.624545,45.486877,0 -93.624655,45.486688,0 -93.624554,45.486471,0 -93.624299,45.486343,0 -93.624059,45.486226,0 -93.623888,45.486048,0 -93.623840,45.485573,0 -93.623863,45.485107,0 -93.623938,45.484839,0 -93.624091,45.484700,0 -93.624524,45.484321,0 -93.624999,45.484001,0 -93.625518,45.483770,0 -93.626162,45.483499,0 -93.626920,45.483188,0 -93.627880,45.482767,0 -93.628118,45.482627,0 -93.628341,45.482437,0 -93.628506,45.482109,0 -93.628642,45.481643,0 -93.628990,45.480670,0 -93.629208,45.480035,0 -93.629375,45.479796,0 -93.629892,45.479466,0 -93.630382,45.479216,0 -93.630957,45.478925,0 -93.631518,45.478734,0 -93.631883,45.478633,0 -93.632432,45.478640,0 -93.632729,45.478707,0 -93.633012,45.478864,0 -93.633316,45.478962,0 -93.633542,45.479010,0 -93.634133,45.479007,0 -93.634669,45.479024,0 -93.634768,45.479102,0 -93.634855,45.479310,0 -93.634814,45.479449,0 -93.634605,45.479609,0 -93.634311,45.479739,0 -93.634030,45.479810,0 -93.633509,45.479852,0 -93.633101,45.479884,0 -93.632834,45.479925,0 -93.632526,45.480115,0 -93.632120,45.480326,0 -93.631445,45.481053,0 -93.631028,45.481501,0 -93.630610,45.481909,0 -93.630390,45.482426,0 -93.630080,45.483012,0 -93.629817,45.483430,0 -93.629637,45.483688,0 -93.629640,45.483996,0 -93.629644,45.484382,0 -93.629575,45.484521,0 -93.629361,45.484918,0 -93.629293,45.485058,0 -93.629337,45.485246,0 -93.629424,45.485503,0 -93.629456,45.485810,0 -93.629291,45.486167,0 -93.629139,45.486426,0 -93.628945,45.486714,0 -93.628631,45.486973,0 -93.628281,45.487193,0 -93.627902,45.487334,0 -93.627256,45.487476,0 -93.626835,45.487617,0 -93.626415,45.487848,0 -93.626095,45.488186,0 -93.625803,45.488564,0 -93.625778,45.488872,0 -93.625796,45.489248,0 -93.625941,45.489554,0 -93.626299,45.490078,0</coordinates></LineString>
      <name>10 ft</name>
    </Placemark>
  <Placemark>
      <styleUrl>#contourStyle</styleUrl>
      <LineString><coordinates>-93.625435,45.488388,0 -93.624934,45.488946,0 -93.624781,45.489095,0 -93.624628,45.489334,0 -93.624516,45.489404,0 -93.624418,45.489394,0 -93.624361,45.489355,0 -93.624401,45.489137,0 -93.624467,45.488809,0 -93.624478,45.488473,0 -93.624488,45.488136,0 -93.624654,45.487847,0 -93.624863,45.487628,0 -93.625325,45.487358,0 -93.625801,45.487148,0 -93.626082,45.487007,0 -93.626181,45.487046,0 -93.626210,45.487116,0 -93.626197,45.487274,0 -93.626060,45.487602,0 -93.625880,45.487900,0 -93.625435,45.488388,0</coordinates></LineString>
      <name>15 ft</name>
    </Placemark>
  <Placemark>
      <styleUrl>#contourStyle</styleUrl>
      <LineString><coordinates>-93.629570,45.482767,0 -93.629501,45.482867,0 -93.629290,45.482927,0 -93.629149,45.482879,0 -93.629092,45.482849,0 -93.629091,45.482770,0 -93.629103,45.482601,0 -93.629145,45.482512,0 -93.629242,45.482383,0 -93.629353,45.482243,0 -93.629506,45.482094,0 -93.629731,45.482023,0 -93.629872,45.482052,0 -93.629971,45.482151,0 -93.629973,45.482250,0 -93.629932,45.482369,0 -93.629849,45.482508,0 -93.629696,45.482687,0 -93.629570,45.482767,0</coordinates></LineString>
      <name>15 ft</name>
    </Placemark>
  
  </Folder>



  <Folder>
    <Style id="Trailer Launch">
      <IconStyle>
        <Icon>
          <href>http://maps.dnr.state.mn.us/compass/graphics/kml_icons/water_access_trailer.png</href>
          <scale>0.78125</scale>
        </Icon>
      </IconStyle>
    </Style>
    <Style id="Carry-In">
      <IconStyle>
        <Icon>
          <href>http://maps.dnr.state.mn.us/compass/graphics/kml_icons/water_access_carry-in.png</href>
          <scale>0.78125</scale>
        </Icon>
      </IconStyle>
    </Style>
    <name>Water Access Sites</name>
    <description>Water Access Sites in Minnesota. Supplied by the Minnesota DNR, Division of Parks &amp; Trails</description>
    <Placemark>
      <styleUrl>#Trailer Launch</styleUrl>    
      <Point>
        <coordinates>-93.630880,45.478048</coordinates>
      </Point>
      <name>Little Elk Lake Public Water Access Site</name>
      <description>
        <![CDATA[
	  <a href="https://www.dnr.state.mn.us/water_access/site.html?id=WAS01301">more detail</a>
        ]]>
      </description>
    </Placemark>
    
  </Folder>



</Folder>
</kml>
