<?xml version="1.0" encoding="UTF-8"?>
<kml xmlns="http://www.opengis.net/kml/2.2" xmlns:gx="http://www.google.com/kml/ext/2.2" xmlns:kml="http://www.opengis.net/kml/2.2" xmlns:atom="http://www.w3.org/2005/Atom">
<Folder>
  <name>MNDNR LakeFinder</name>


  <Folder>
    <Style id="lakeStyle">
      <LineStyle>
        <color>F7FF3333</color>
        <width>4</width>
      </LineStyle>
    </Style>
    <name>Minnesota Lake Basins</name>
  <Placemark>
      <styleUrl>#lakeStyle</styleUrl>
      <MultiGeometry>
        <LineString><coordinates>-93.903896,45.307408,0 -93.903384,45.307301,0 -93.903022,45.307304,0 -93.902791,45.307371,0 -93.902478,45.307537,0 -93.902385,45.307568,0 -93.902294,45.307598,0 -93.902093,45.307815,0 -93.902040,45.307979,0 -93.901758,45.308355,0 -93.901659,45.308520,0 -93.901586,45.308605,0 -93.901559,45.308684,0 -93.901495,45.308750,0 -93.901365,45.308751,0 -93.901253,45.308700,0 -93.901149,45.308550,0 -93.900998,45.308400,0 -93.900782,45.308278,0 -93.900436,45.308097,0 -93.900109,45.307942,0 -93.899950,45.307878,0 -93.899792,45.307860,0 -93.899635,45.307900,0 -93.899404,45.307974,0 -93.899200,45.307976,0 -93.898847,45.307959,0 -93.898650,45.307875,0 -93.898471,45.307693,0 -93.898387,45.307635,0 -93.898375,45.307504,0 -93.898428,45.307281,0 -93.898619,45.307090,0 -93.898886,45.306937,0 -93.899064,45.306749,0 -93.899082,45.306730,0 -93.899268,45.306586,0 -93.899571,45.306367,0 -93.899735,45.306174,0 -93.899773,45.305938,0 -93.899756,45.305752,0 -93.899619,45.305458,0 -93.899438,45.305018,0 -93.899082,45.304505,0 -93.898665,45.304096,0 -93.898065,45.303701,0 -93.897475,45.303398,0 -93.897269,45.303262,0 -93.897220,45.303073,0 -93.897224,45.303006,0 -93.897242,45.302706,0 -93.897375,45.302325,0 -93.897519,45.302075,0 -93.897535,45.301865,0 -93.897725,45.301575,0 -93.897821,45.301457,0 -93.897907,45.301351,0 -93.898153,45.301087,0 -93.898254,45.300995,0 -93.898300,45.300965,0 -93.898410,45.300895,0 -93.898603,45.300743,0 -93.898618,45.300712,0 -93.898666,45.300618,0 -93.898914,45.300446,0 -93.899125,45.300340,0 -93.899459,45.300257,0 -93.899643,45.300211,0 -93.899985,45.300136,0 -93.900505,45.300152,0 -93.900729,45.300196,0 -93.900838,45.300219,0 -93.900939,45.300240,0 -93.901148,45.300284,0 -93.901834,45.300259,0 -93.902453,45.300110,0 -93.902817,45.299857,0 -93.903013,45.299719,0 -93.903582,45.299276,0 -93.903807,45.299065,0 -93.904112,45.298781,0 -93.904368,45.298523,0 -93.904598,45.298417,0 -93.904832,45.298299,0 -93.904929,45.298250,0 -93.905225,45.298143,0 -93.905247,45.298141,0 -93.905762,45.298080,0 -93.906095,45.298045,0 -93.906634,45.298073,0 -93.906827,45.298052,0 -93.907079,45.298024,0 -93.907375,45.298008,0 -93.907548,45.297949,0 -93.907828,45.297854,0 -93.908002,45.297815,0 -93.908188,45.297772,0 -93.908717,45.297781,0 -93.909053,45.297864,0 -93.909436,45.298005,0 -93.910145,45.298268,0 -93.910679,45.298571,0 -93.911157,45.298875,0 -93.911441,45.299201,0 -93.911499,45.299397,0 -93.911521,45.299573,0 -93.911424,45.299901,0 -93.911291,45.300263,0 -93.911003,45.300868,0 -93.910778,45.301262,0 -93.910773,45.301564,0 -93.910611,45.301879,0 -93.910228,45.302282,0 -93.909981,45.302500,0 -93.909755,45.302895,0 -93.909499,45.303133,0 -93.909380,45.303265,0 -93.909382,45.303382,0 -93.909422,45.303513,0 -93.909489,45.303689,0 -93.909528,45.303774,0 -93.909456,45.303899,0 -93.909451,45.304194,0 -93.909445,45.304423,0 -93.909264,45.304713,0 -93.909073,45.304924,0 -93.908870,45.305017,0 -93.908593,45.305085,0 -93.908307,45.305218,0 -93.908151,45.305298,0 -93.908144,45.305436,0 -93.908293,45.305474,0 -93.908405,45.305519,0 -93.908545,45.305583,0 -93.908776,45.305490,0 -93.909109,45.305454,0 -93.909258,45.305486,0 -93.909334,45.305564,0 -93.909401,45.305687,0 -93.909420,45.305720,0 -93.909422,45.305838,0 -93.909367,45.305930,0 -93.909415,45.306009,0 -93.909499,45.306047,0 -93.909426,45.306113,0 -93.909316,45.306186,0 -93.909280,45.306258,0 -93.909272,45.306311,0 -93.909263,45.306370,0 -93.909199,45.306449,0 -93.909108,45.306515,0 -93.909068,45.306516,0 -93.909024,45.306516,0 -93.908977,45.306470,0 -93.908902,45.306425,0 -93.908772,45.306407,0 -93.908643,45.306473,0 -93.908513,45.306474,0 -93.908355,45.306443,0 -93.908253,45.306470,0 -93.908163,45.306647,0 -93.908193,45.306752,0 -93.908101,45.306838,0 -93.908032,45.307153,0 -93.908055,45.307414,0 -93.908104,45.307610,0 -93.908172,45.307787,0 -93.908228,45.307832,0 -93.908220,45.307891,0 -93.908351,45.307929,0 -93.908324,45.308028,0 -93.908353,45.308067,0 -93.908308,45.308166,0 -93.908348,45.308342,0 -93.908303,45.308441,0 -93.907964,45.308699,0 -93.907652,45.308957,0 -93.907607,45.309055,0 -93.907627,45.309121,0 -93.907368,45.309175,0 -93.906832,45.309350,0 -93.906678,45.309390,0 -93.906259,45.309498,0 -93.906113,45.309604,0 -93.905965,45.309638,0 -93.905788,45.309640,0 -93.905693,45.309516,0 -93.905600,45.309350,0 -93.905550,45.309262,0 -93.905483,45.309105,0 -93.905376,45.308818,0 -93.905328,45.308700,0 -93.905262,45.308622,0 -93.905103,45.308551,0 -93.905025,45.308329,0 -93.904948,45.308220,0 -93.904911,45.308166,0 -93.904712,45.307906,0 -93.904468,45.307751,0 -93.904196,45.307543,0 -93.903896,45.307408,0</coordinates></LineString>
      </MultiGeometry>
      <name>Ida</name>
      <description>
        <![CDATA[
          <a href="http://www.dnr.state.mn.us/lakefind/lake.html?id=86014600">DNR LakeFinder</a>
        ]]>
      </description>
    </Placemark>
  
  </Folder>



  <Folder>
    <Style id="contourStyle">
      <LabelStyle> 
        <scale>1.1</scale>         
      </LabelStyle>
      <LineStyle>
        <color>50FFFFFF</color>
        <width>1</width>
        <gx:labelVisibility>1</gx:labelVisibility>
      </LineStyle>
    </Style>
    <name>Minnesota Lake Bathymetry</name>
  <Placemark>
      <styleUrl>#contourStyle</styleUrl>
      <LineString><coordinates>-93.907445,45.304801,0 -93.906773,45.305520,0 -93.906152,45.306203,0 -93.905730,45.306688,0 -93.905481,45.306940,0 -93.905243,45.307057,0 -93.905015,45.307033,0 -93.904265,45.306771,0 -93.903643,45.306624,0 -93.902528,45.306454,0 -93.901855,45.306299,0 -93.901370,45.305991,0 -93.900637,45.305247,0 -93.900504,45.304820,0 -93.900496,45.304320,0 -93.900455,45.304133,0 -93.900314,45.303983,0 -93.899830,45.303781,0 -93.899587,45.303614,0 -93.899224,45.303028,0 -93.899256,45.302635,0 -93.899331,45.302563,0 -93.899734,45.302462,0 -93.900504,45.302411,0 -93.900958,45.302372,0 -93.901272,45.302236,0 -93.901748,45.301911,0 -93.902137,45.301756,0 -93.902364,45.301718,0 -93.902553,45.301699,0 -93.902984,45.301749,0 -93.903299,45.301693,0 -93.903562,45.301548,0 -93.903724,45.301395,0 -93.903746,45.301154,0 -93.903739,45.300762,0 -93.903861,45.300493,0 -93.904036,45.300349,0 -93.904600,45.300032,0 -93.905151,45.299707,0 -93.905551,45.299418,0 -93.905939,45.299165,0 -93.906491,45.298938,0 -93.907145,45.298701,0 -93.907359,45.298646,0 -93.907738,45.298651,0 -93.908246,45.298763,0 -93.908842,45.298892,0 -93.909451,45.299021,0 -93.909781,45.299144,0 -93.910176,45.299301,0 -93.910278,45.299390,0 -93.910281,45.299550,0 -93.910110,45.299908,0 -93.909768,45.300696,0 -93.909476,45.301394,0 -93.909356,45.301806,0 -93.909184,45.302128,0 -93.908812,45.302542,0 -93.908253,45.303179,0 -93.908245,45.303447,0 -93.908287,45.303741,0 -93.908365,45.303866,0 -93.908419,45.304070,0 -93.908423,45.304311,0 -93.908185,45.304465,0 -93.907870,45.304556,0 -93.907632,45.304648,0 -93.907445,45.304801,0</coordinates></LineString>
      <name>20 ft</name>
    </Placemark>
  <Placemark>
      <styleUrl>#contourStyle</styleUrl>
      <LineString><coordinates>-93.906822,45.302201,0 -93.906060,45.302028,0 -93.905756,45.301986,0 -93.905641,45.301889,0 -93.905614,45.301764,0 -93.905713,45.301629,0 -93.905949,45.301405,0 -93.906224,45.301188,0 -93.907218,45.300913,0 -93.907899,45.300809,0 -93.908038,45.300826,0 -93.908104,45.300941,0 -93.907983,45.301335,0 -93.907725,45.301756,0 -93.907425,45.302008,0 -93.907099,45.302163,0 -93.906923,45.302209,0 -93.906822,45.302201,0</coordinates></LineString>
      <name>50 ft</name>
    </Placemark>
  <Placemark>
      <styleUrl>#contourStyle</styleUrl>
      <LineString><coordinates>-93.908330,45.301662,0 -93.907607,45.302310,0 -93.907194,45.302581,0 -93.906892,45.302664,0 -93.906462,45.302649,0 -93.906144,45.302509,0 -93.905775,45.302352,0 -93.905407,45.302292,0 -93.904929,45.302421,0 -93.904577,45.302566,0 -93.904362,45.302541,0 -93.904309,45.302417,0 -93.904694,45.301994,0 -93.905116,45.301447,0 -93.905485,45.300819,0 -93.905718,45.300363,0 -93.906243,45.300019,0 -93.906920,45.299684,0 -93.907311,45.299601,0 -93.907640,45.299598,0 -93.907906,45.299640,0 -93.908455,45.299993,0 -93.908713,45.300339,0 -93.908783,45.300740,0 -93.908626,45.301223,0 -93.908330,45.301662,0</coordinates></LineString>
      <name>40 ft</name>
    </Placemark>
  <Placemark>
      <styleUrl>#contourStyle</styleUrl>
      <LineString><coordinates>-93.908897,45.301568,0 -93.908476,45.302125,0 -93.907967,45.302691,0 -93.907832,45.302933,0 -93.907779,45.303585,0 -93.907798,45.303950,0 -93.907563,45.304309,0 -93.907201,45.304615,0 -93.906013,45.305437,0 -93.904873,45.306079,0 -93.904396,45.306288,0 -93.903929,45.306345,0 -93.903347,45.306296,0 -93.902940,45.306175,0 -93.902686,45.306052,0 -93.902541,45.305723,0 -93.902664,45.305472,0 -93.902988,45.305211,0 -93.903325,45.304940,0 -93.903698,45.304527,0 -93.903781,45.304187,0 -93.903586,45.303814,0 -93.903393,45.303619,0 -93.903137,45.303434,0 -93.902667,45.303286,0 -93.902287,45.303271,0 -93.902162,45.303308,0 -93.902049,45.303389,0 -93.901889,45.303649,0 -93.901704,45.303918,0 -93.901427,45.304001,0 -93.901236,45.303958,0 -93.900944,45.303844,0 -93.900533,45.303437,0 -93.900123,45.303119,0 -93.900020,45.302959,0 -93.900094,45.302860,0 -93.900371,45.302814,0 -93.900776,45.302802,0 -93.901026,45.302648,0 -93.901163,45.302504,0 -93.901376,45.302413,0 -93.901704,45.302339,0 -93.902080,45.302140,0 -93.902723,45.302028,0 -93.903177,45.301962,0 -93.903983,45.301777,0 -93.904397,45.301595,0 -93.904547,45.301442,0 -93.904741,45.300923,0 -93.904861,45.300539,0 -93.905183,45.300126,0 -93.905595,45.299793,0 -93.905995,45.299540,0 -93.906586,45.299339,0 -93.906976,45.299193,0 -93.907404,45.299118,0 -93.907759,45.299133,0 -93.908114,45.299193,0 -93.908457,45.299306,0 -93.908828,45.299580,0 -93.909163,45.300005,0 -93.909299,45.300629,0 -93.909179,45.300977,0 -93.908897,45.301568,0</coordinates></LineString>
      <name>30 ft</name>
    </Placemark>
  <Placemark>
      <styleUrl>#contourStyle</styleUrl>
      <LineString><coordinates>-93.903215,45.304379,0 -93.903092,45.304576,0 -93.902854,45.304703,0 -93.902551,45.304723,0 -93.902370,45.304520,0 -93.902392,45.304270,0 -93.902515,45.304099,0 -93.902716,45.303982,0 -93.902918,45.303953,0 -93.903058,45.304006,0 -93.903211,45.304121,0 -93.903215,45.304379,0</coordinates></LineString>
      <name>10 ft</name>
    </Placemark>
  <Placemark>
      <styleUrl>#contourStyle</styleUrl>
      <LineString><coordinates>-93.902204,45.304369,0 -93.902425,45.304002,0 -93.902637,45.303813,0 -93.902788,45.303776,0 -93.903067,45.303827,0 -93.903247,45.304004,0 -93.903377,45.304244,0 -93.903330,45.304459,0 -93.903056,45.304702,0 -93.902805,45.304829,0 -93.902489,45.304804,0 -93.902260,45.304717,0 -93.902181,45.304548,0 -93.902204,45.304369,0</coordinates></LineString>
      <name>15 ft</name>
    </Placemark>
  <Placemark>
      <styleUrl>#contourStyle</styleUrl>
      <LineString><coordinates>-93.902572,45.303697,0 -93.902749,45.303660,0 -93.902964,45.303712,0 -93.903257,45.303853,0 -93.903464,45.304136,0 -93.903456,45.304413,0 -93.903322,45.304753,0 -93.903097,45.304880,0 -93.902820,45.304971,0 -93.902530,45.304991,0 -93.902224,45.304860,0 -93.902019,45.304683,0 -93.901990,45.304425,0 -93.902223,45.304021,0 -93.902572,45.303697,0</coordinates></LineString>
      <name>20 ft</name>
    </Placemark>
  <Placemark>
      <styleUrl>#contourStyle</styleUrl>
      <LineString><coordinates>-93.907559,45.304862,0 -93.906615,45.305896,0 -93.906205,45.306336,0 -93.905870,45.306776,0 -93.905598,45.307117,0 -93.905334,45.307253,0 -93.905043,45.307220,0 -93.904508,45.306965,0 -93.903949,45.306818,0 -93.903380,45.306769,0 -93.901934,45.306522,0 -93.901451,45.306320,0 -93.901080,45.306064,0 -93.900577,45.305417,0 -93.900366,45.304892,0 -93.900323,45.304545,0 -93.900344,45.304313,0 -93.900329,45.304161,0 -93.900201,45.304010,0 -93.899730,45.303827,0 -93.899282,45.303500,0 -93.899062,45.303181,0 -93.899057,45.302833,0 -93.899153,45.302511,0 -93.899252,45.302412,0 -93.899554,45.302312,0 -93.900300,45.302279,0 -93.900868,45.302230,0 -93.901182,45.302102,0 -93.901671,45.301840,0 -93.902136,45.301693,0 -93.902654,45.301654,0 -93.902944,45.301651,0 -93.903246,45.301560,0 -93.903420,45.301371,0 -93.903505,45.301103,0 -93.903410,45.300702,0 -93.903520,45.300469,0 -93.903909,45.300279,0 -93.904548,45.299917,0 -93.905123,45.299546,0 -93.905999,45.298977,0 -93.907104,45.298514,0 -93.907393,45.298395,0 -93.907583,45.298403,0 -93.908040,45.298533,0 -93.909881,45.299054,0 -93.910327,45.299246,0 -93.910417,45.299380,0 -93.910410,45.299701,0 -93.910204,45.300300,0 -93.909849,45.301008,0 -93.909597,45.301822,0 -93.909201,45.302378,0 -93.908929,45.302737,0 -93.908479,45.303088,0 -93.908384,45.303473,0 -93.908414,45.303758,0 -93.908519,45.304007,0 -93.908573,45.304221,0 -93.908525,45.304364,0 -93.908299,45.304499,0 -93.907797,45.304682,0 -93.907559,45.304862,0</coordinates></LineString>
      <name>15 ft</name>
    </Placemark>
  <Placemark>
      <styleUrl>#contourStyle</styleUrl>
      <LineString><coordinates>-93.908540,45.304524,0 -93.907875,45.304842,0 -93.907327,45.305355,0 -93.906893,45.305876,0 -93.906533,45.306307,0 -93.906308,45.306496,0 -93.906075,45.306935,0 -93.905902,45.307159,0 -93.905501,45.307368,0 -93.905159,45.307388,0 -93.904728,45.307302,0 -93.904054,45.307067,0 -93.903485,45.307027,0 -93.902902,45.306969,0 -93.901988,45.306691,0 -93.901390,45.306490,0 -93.901046,45.306279,0 -93.900725,45.305987,0 -93.900515,45.305525,0 -93.900295,45.305178,0 -93.900223,45.304662,0 -93.900230,45.304260,0 -93.900164,45.304073,0 -93.899934,45.303959,0 -93.899693,45.303881,0 -93.899260,45.303670,0 -93.899029,45.303458,0 -93.898959,45.303039,0 -93.898964,45.302575,0 -93.899112,45.302360,0 -93.899338,45.302224,0 -93.900120,45.302120,0 -93.900953,45.302051,0 -93.901304,45.301870,0 -93.901593,45.301716,0 -93.902210,45.301577,0 -93.902967,45.301473,0 -93.903269,45.301372,0 -93.903342,45.301220,0 -93.903377,45.301006,0 -93.903271,45.300703,0 -93.903318,45.300498,0 -93.903756,45.300200,0 -93.904357,45.299838,0 -93.904818,45.299460,0 -93.905445,45.299107,0 -93.905845,45.298863,0 -93.906662,45.298526,0 -93.907114,45.298317,0 -93.907340,45.298253,0 -93.907758,45.298312,0 -93.908558,45.298502,0 -93.909205,45.298658,0 -93.909929,45.298919,0 -93.910464,45.299120,0 -93.910516,45.299209,0 -93.910596,45.299476,0 -93.910526,45.299878,0 -93.910270,45.300469,0 -93.910086,45.300783,0 -93.909772,45.301749,0 -93.909453,45.302340,0 -93.909068,45.302780,0 -93.908743,45.302997,0 -93.908608,45.303221,0 -93.908574,45.303462,0 -93.908604,45.303765,0 -93.908776,45.304290,0 -93.908540,45.304524,0</coordinates></LineString>
      <name>10 ft</name>
    </Placemark>
  
  </Folder>



  <Folder>
    <Style id="Trailer Launch">
      <IconStyle>
        <Icon>
          <href>http://maps.dnr.state.mn.us/compass/graphics/kml_icons/water_access_trailer.png</href>
          <scale>0.78125</scale>
        </Icon>
      </IconStyle>
    </Style>
    <Style id="Carry-In">
      <IconStyle>
        <Icon>
          <href>http://maps.dnr.state.mn.us/compass/graphics/kml_icons/water_access_carry-in.png</href>
          <scale>0.78125</scale>
        </Icon>
      </IconStyle>
    </Style>
    <name>Water Access Sites</name>
    <description>Water Access Sites in Minnesota. Supplied by the Minnesota DNR, Division of Parks &amp; Trails</description>
    <Placemark>
      <styleUrl>#Trailer Launch</styleUrl>    
      <Point>
        <coordinates>-93.901065,45.300303</coordinates>
      </Point>
      <name>Ida Lake Public Water Access Site</name>
      <description>
        <![CDATA[
	  <a href="https://www.dnr.state.mn.us/water_access/site.html?id=WAS01758">more detail</a>
        ]]>
      </description>
    </Placemark>
    
  </Folder>



</Folder>
</kml>
