<?xml version="1.0" encoding="UTF-8"?>
<kml xmlns="http://www.opengis.net/kml/2.2" xmlns:gx="http://www.google.com/kml/ext/2.2" xmlns:kml="http://www.opengis.net/kml/2.2" xmlns:atom="http://www.w3.org/2005/Atom">
<Folder>
  <name>MNDNR LakeFinder</name>


  <Folder>
    <Style id="lakeStyle">
      <LineStyle>
        <color>F7FF3333</color>
        <width>4</width>
      </LineStyle>
    </Style>
    <name>Minnesota Lake Basins</name>
  <Placemark>
      <styleUrl>#lakeStyle</styleUrl>
      <MultiGeometry>
        <LineString><coordinates>-93.402351,45.578134,0 -93.402350,45.578130,0 -93.402309,45.578131,0 -93.402098,45.578073,0 -93.402044,45.578057,0 -93.401907,45.578018,0 -93.401787,45.577992,0 -93.401742,45.577982,0 -93.401690,45.577961,0 -93.401619,45.577933,0 -93.401489,45.577868,0 -93.401400,45.577837,0 -93.401371,45.577837,0 -93.401360,45.577830,0 -93.401220,45.577817,0 -93.401089,45.577828,0 -93.401029,45.577906,0 -93.401027,45.577912,0 -93.401006,45.577959,0 -93.400960,45.577975,0 -93.400813,45.577978,0 -93.400724,45.577979,0 -93.400572,45.577979,0 -93.400414,45.577948,0 -93.400218,45.577909,0 -93.400064,45.577871,0 -93.399868,45.577796,0 -93.399807,45.577746,0 -93.399440,45.577593,0 -93.399154,45.577470,0 -93.398868,45.577328,0 -93.398681,45.577161,0 -93.398025,45.576645,0 -93.397834,45.576464,0 -93.397739,45.576124,0 -93.397605,45.575645,0 -93.397539,45.575271,0 -93.397480,45.574933,0 -93.397468,45.574511,0 -93.397342,45.574418,0 -93.397335,45.574418,0 -93.397134,45.574408,0 -93.396527,45.574364,0 -93.396135,45.574391,0 -93.395966,45.574392,0 -93.395590,45.574261,0 -93.395406,45.574075,0 -93.395281,45.573942,0 -93.395201,45.573768,0 -93.395179,45.573702,0 -93.395120,45.573519,0 -93.395097,45.573440,0 -93.395137,45.573340,0 -93.395187,45.573275,0 -93.395268,45.573247,0 -93.395359,45.573250,0 -93.395467,45.573267,0 -93.395475,45.573271,0 -93.395526,45.573268,0 -93.395721,45.573184,0 -93.395902,45.573010,0 -93.395919,45.572972,0 -93.396079,45.572815,0 -93.396339,45.572487,0 -93.396647,45.572300,0 -93.396662,45.572281,0 -93.397551,45.571627,0 -93.398133,45.571371,0 -93.398803,45.571236,0 -93.399290,45.571214,0 -93.399369,45.571210,0 -93.399886,45.571341,0 -93.400558,45.571616,0 -93.400787,45.571708,0 -93.401006,45.571796,0 -93.401727,45.571829,0 -93.402519,45.571971,0 -93.402967,45.572187,0 -93.403096,45.572291,0 -93.403382,45.572523,0 -93.403486,45.572764,0 -93.403489,45.572802,0 -93.403491,45.572804,0 -93.403500,45.572873,0 -93.403514,45.573016,0 -93.403520,45.573099,0 -93.403520,45.573100,0 -93.403522,45.573101,0 -93.403504,45.573212,0 -93.403459,45.573382,0 -93.403421,45.573441,0 -93.403420,45.573443,0 -93.403415,45.573458,0 -93.403406,45.573490,0 -93.403413,45.573526,0 -93.403398,45.573606,0 -93.403389,45.573656,0 -93.403401,45.573754,0 -93.403411,45.573838,0 -93.403416,45.573923,0 -93.403380,45.574077,0 -93.403369,45.574123,0 -93.403370,45.574129,0 -93.403360,45.574163,0 -93.403360,45.574165,0 -93.403341,45.574215,0 -93.403333,45.574251,0 -93.403312,45.574281,0 -93.403288,45.574304,0 -93.403266,45.574320,0 -93.403250,45.574325,0 -93.403231,45.574352,0 -93.403234,45.574390,0 -93.403242,45.574438,0 -93.403245,45.574465,0 -93.403246,45.574503,0 -93.403232,45.574524,0 -93.403200,45.574541,0 -93.403194,45.574542,0 -93.403175,45.574564,0 -93.403133,45.574634,0 -93.403093,45.574680,0 -93.403060,45.574717,0 -93.402987,45.574829,0 -93.402976,45.574861,0 -93.402970,45.574881,0 -93.403000,45.574892,0 -93.403075,45.574884,0 -93.403235,45.574832,0 -93.403330,45.574796,0 -93.403458,45.574767,0 -93.403549,45.574732,0 -93.403698,45.574720,0 -93.403869,45.574733,0 -93.404045,45.574710,0 -93.404099,45.574692,0 -93.404216,45.574654,0 -93.404541,45.574561,0 -93.404860,45.574480,0 -93.405004,45.574457,0 -93.405146,45.574435,0 -93.405773,45.574168,0 -93.406503,45.573814,0 -93.406685,45.573741,0 -93.406716,45.573728,0 -93.406798,45.573696,0 -93.406817,45.573698,0 -93.406850,45.573722,0 -93.406889,45.573749,0 -93.406941,45.573806,0 -93.407035,45.573799,0 -93.407060,45.573792,0 -93.407074,45.573767,0 -93.407114,45.573727,0 -93.407159,45.573637,0 -93.407181,45.573582,0 -93.407211,45.573506,0 -93.407213,45.573502,0 -93.407248,45.573444,0 -93.407244,45.573399,0 -93.407232,45.573381,0 -93.407217,45.573359,0 -93.407200,45.573322,0 -93.407173,45.573264,0 -93.407160,45.573253,0 -93.407110,45.573212,0 -93.407026,45.573131,0 -93.406997,45.573098,0 -93.406975,45.573035,0 -93.406965,45.573019,0 -93.406910,45.572933,0 -93.406798,45.572825,0 -93.406733,45.572759,0 -93.406715,45.572746,0 -93.406713,45.572743,0 -93.406640,45.572667,0 -93.406544,45.572586,0 -93.406487,45.572533,0 -93.406410,45.572462,0 -93.406372,45.572440,0 -93.406341,45.572408,0 -93.406157,45.572280,0 -93.405361,45.571961,0 -93.405065,45.571841,0 -93.404708,45.571692,0 -93.404442,45.571571,0 -93.404228,45.571415,0 -93.404024,45.571330,0 -93.403871,45.571259,0 -93.403727,45.571159,0 -93.403710,45.571134,0 -93.403696,45.571125,0 -93.403600,45.571024,0 -93.403513,45.570933,0 -93.403439,45.570794,0 -93.403416,45.570697,0 -93.403394,45.570623,0 -93.403394,45.570575,0 -93.403394,45.570575,0 -93.403411,45.570537,0 -93.403423,45.570398,0 -93.403427,45.570360,0 -93.403485,45.570146,0 -93.403671,45.569759,0 -93.404081,45.569420,0 -93.404176,45.569386,0 -93.404595,45.569237,0 -93.405658,45.568932,0 -93.406874,45.568457,0 -93.407735,45.568019,0 -93.408021,45.567874,0 -93.408058,45.567861,0 -93.408844,45.567605,0 -93.409685,45.567554,0 -93.410803,45.567695,0 -93.411698,45.567945,0 -93.412822,45.568418,0 -93.412940,45.568461,0 -93.413060,45.568529,0 -93.413178,45.568614,0 -93.413268,45.568713,0 -93.413334,45.568814,0 -93.413394,45.568927,0 -93.413413,45.568964,0 -93.413452,45.569048,0 -93.413451,45.569059,0 -93.413443,45.569204,0 -93.413442,45.569219,0 -93.413440,45.569225,0 -93.413424,45.569267,0 -93.413392,45.569375,0 -93.413217,45.569597,0 -93.413077,45.569703,0 -93.413060,45.569753,0 -93.412968,45.569838,0 -93.412852,45.569966,0 -93.412667,45.570108,0 -93.412607,45.570187,0 -93.412472,45.570305,0 -93.412263,45.570443,0 -93.412104,45.570596,0 -93.412086,45.570708,0 -93.412088,45.570915,0 -93.412109,45.571129,0 -93.412152,45.571346,0 -93.412429,45.571919,0 -93.412466,45.571996,0 -93.412486,45.572322,0 -93.412402,45.572648,0 -93.412363,45.572750,0 -93.412354,45.572774,0 -93.412301,45.572914,0 -93.412145,45.573158,0 -93.412064,45.573259,0 -93.412038,45.573291,0 -93.411993,45.573345,0 -93.411908,45.573422,0 -93.411874,45.573475,0 -93.411848,45.573575,0 -93.411793,45.573680,0 -93.411728,45.573779,0 -93.411688,45.573854,0 -93.411678,45.573890,0 -93.411665,45.573981,0 -93.411676,45.574025,0 -93.411707,45.574082,0 -93.411718,45.574108,0 -93.411720,45.574114,0 -93.411721,45.574139,0 -93.411716,45.574148,0 -93.411713,45.574196,0 -93.411709,45.574221,0 -93.411702,45.574257,0 -93.411689,45.574314,0 -93.411693,45.574394,0 -93.411699,45.574469,0 -93.411713,45.574526,0 -93.411721,45.574583,0 -93.411733,45.574741,0 -93.411733,45.574791,0 -93.411731,45.574792,0 -93.411745,45.574890,0 -93.411782,45.575145,0 -93.411785,45.575161,0 -93.411788,45.575168,0 -93.411796,45.575238,0 -93.411824,45.575312,0 -93.411838,45.575358,0 -93.411849,45.575400,0 -93.411868,45.575440,0 -93.411869,45.575472,0 -93.411866,45.575518,0 -93.411852,45.575559,0 -93.411837,45.575660,0 -93.411824,45.575867,0 -93.411826,45.576053,0 -93.411795,45.576596,0 -93.411786,45.576689,0 -93.411764,45.576911,0 -93.411754,45.576929,0 -93.411725,45.576982,0 -93.411657,45.577052,0 -93.411539,45.577185,0 -93.411330,45.577330,0 -93.411107,45.577458,0 -93.410893,45.577547,0 -93.410698,45.577623,0 -93.410540,45.577686,0 -93.410377,45.577736,0 -93.410168,45.577799,0 -93.410102,45.577808,0 -93.410098,45.577810,0 -93.409906,45.577849,0 -93.409865,45.577852,0 -93.409604,45.577896,0 -93.409292,45.577972,0 -93.408915,45.578042,0 -93.408613,45.578102,0 -93.408263,45.578156,0 -93.408167,45.578171,0 -93.408058,45.578193,0 -93.407872,45.578239,0 -93.407851,45.578240,0 -93.407834,45.578243,0 -93.407806,45.578247,0 -93.407701,45.578266,0 -93.407660,45.578273,0 -93.407494,45.578288,0 -93.407383,45.578303,0 -93.407290,45.578317,0 -93.407173,45.578324,0 -93.407170,45.578322,0 -93.407097,45.578328,0 -93.407019,45.578334,0 -93.406862,45.578346,0 -93.406833,45.578350,0 -93.406827,45.578352,0 -93.406550,45.578364,0 -93.406549,45.578368,0 -93.406353,45.578376,0 -93.406092,45.578380,0 -93.405938,45.578380,0 -93.405780,45.578378,0 -93.405658,45.578375,0 -93.405570,45.578367,0 -93.405540,45.578365,0 -93.405430,45.578356,0 -93.405266,45.578347,0 -93.405108,45.578308,0 -93.404962,45.578257,0 -93.404818,45.578230,0 -93.404715,45.578221,0 -93.404598,45.578179,0 -93.404421,45.578117,0 -93.404196,45.578033,0 -93.403977,45.577965,0 -93.403766,45.577880,0 -93.403584,45.577816,0 -93.403401,45.577731,0 -93.403224,45.577670,0 -93.403222,45.577669,0 -93.403198,45.577654,0 -93.403132,45.577633,0 -93.403029,45.577569,0 -93.402925,45.577531,0 -93.402861,45.577509,0 -93.402805,45.577482,0 -93.402684,45.577450,0 -93.402460,45.577401,0 -93.402216,45.577403,0 -93.401982,45.577424,0 -93.401826,45.577408,0 -93.401688,45.577413,0 -93.401390,45.577516,0 -93.401288,45.577617,0 -93.401275,45.577663,0 -93.401273,45.577672,0 -93.401270,45.577680,0 -93.401322,45.577729,0 -93.401462,45.577745,0 -93.401579,45.577767,0 -93.401697,45.577781,0 -93.401770,45.577811,0 -93.401982,45.577897,0 -93.402159,45.577964,0 -93.402459,45.578038,0 -93.402732,45.578074,0 -93.403014,45.578104,0 -93.403035,45.578110,0 -93.403148,45.578112,0 -93.403447,45.578166,0 -93.403643,45.578244,0 -93.403718,45.578326,0 -93.403723,45.578388,0 -93.403754,45.578405,0 -93.403789,45.578424,0 -93.403761,45.578480,0 -93.403668,45.578483,0 -93.403491,45.578451,0 -93.403397,45.578425,0 -93.403294,45.578311,0 -93.403214,45.578288,0 -93.403000,45.578273,0 -93.402831,45.578218,0 -93.402635,45.578196,0 -93.402351,45.578134,0</coordinates></LineString>
      </MultiGeometry>
      <name>Spectacle</name>
      <description>
        <![CDATA[
          <a href="http://www.dnr.state.mn.us/lakefind/lake.html?id=30013500">DNR LakeFinder</a>
        ]]>
      </description>
    </Placemark>
  
  </Folder>



  <Folder>
    <Style id="contourStyle">
      <LabelStyle> 
        <scale>1.1</scale>         
      </LabelStyle>
      <LineStyle>
        <color>50FFFFFF</color>
        <width>1</width>
        <gx:labelVisibility>1</gx:labelVisibility>
      </LineStyle>
    </Style>
    <name>Minnesota Lake Bathymetry</name>
  <Placemark>
      <styleUrl>#contourStyle</styleUrl>
      <LineString><coordinates>-93.408717,45.570516,0 -93.408030,45.570988,0 -93.407748,45.571172,0 -93.407420,45.571260,0 -93.407137,45.571245,0 -93.406717,45.571112,0 -93.406580,45.570945,0 -93.406420,45.570707,0 -93.406497,45.570413,0 -93.406790,45.570141,0 -93.406981,45.570021,0 -93.407501,45.569948,0 -93.407965,45.569891,0 -93.408316,45.569874,0 -93.408599,45.569912,0 -93.408838,45.570070,0 -93.409009,45.570261,0 -93.408920,45.570396,0 -93.408717,45.570516,0</coordinates></LineString>
      <name>10 ft</name>
    </Placemark>
  <Placemark>
      <styleUrl>#contourStyle</styleUrl>
      <LineString><coordinates>-93.405617,45.577842,0 -93.404404,45.577615,0 -93.403043,45.577286,0 -93.402135,45.577003,0 -93.401761,45.576957,0 -93.400810,45.576920,0 -93.399982,45.576701,0 -93.399415,45.576496,0 -93.399187,45.576314,0 -93.398992,45.575909,0 -93.398921,45.575552,0 -93.399020,45.575074,0 -93.399085,45.574732,0 -93.399116,45.574334,0 -93.399091,45.573945,0 -93.398971,45.573763,0 -93.398777,45.573588,0 -93.398414,45.573446,0 -93.397948,45.573249,0 -93.397698,45.573091,0 -93.397572,45.572909,0 -93.397605,45.572702,0 -93.397740,45.572566,0 -93.398123,45.572374,0 -93.398530,45.572261,0 -93.398903,45.572252,0 -93.399980,45.572431,0 -93.400908,45.572452,0 -93.401384,45.572522,0 -93.401884,45.572671,0 -93.402168,45.572845,0 -93.402316,45.573035,0 -93.402364,45.573393,0 -93.402378,45.573703,0 -93.402178,45.574204,0 -93.401920,45.574659,0 -93.401832,45.575025,0 -93.401891,45.575231,0 -93.402186,45.575429,0 -93.402583,45.575499,0 -93.402866,45.575522,0 -93.403341,45.575433,0 -93.403759,45.575312,0 -93.404611,45.574991,0 -93.405074,45.574759,0 -93.405616,45.574558,0 -93.406123,45.574278,0 -93.406405,45.574134,0 -93.406756,45.574085,0 -93.407083,45.573980,0 -93.407253,45.573892,0 -93.407455,45.573717,0 -93.407510,45.573494,0 -93.407541,45.573080,0 -93.407464,45.572540,0 -93.407337,45.572318,0 -93.407109,45.572104,0 -93.406712,45.571954,0 -93.406247,45.571869,0 -93.405658,45.571720,0 -93.405374,45.571609,0 -93.405010,45.571388,0 -93.404725,45.571111,0 -93.404712,45.570888,0 -93.404941,45.570371,0 -93.405457,45.569828,0 -93.405727,45.569557,0 -93.405895,45.569310,0 -93.406492,45.568902,0 -93.406920,45.568630,0 -93.407535,45.568326,0 -93.407783,45.568134,0 -93.408177,45.567879,0 -93.408335,45.567806,0 -93.408584,45.567758,0 -93.409409,45.567651,0 -93.410099,45.567649,0 -93.410513,45.567711,0 -93.411080,45.567812,0 -93.411545,45.567938,0 -93.412056,45.568175,0 -93.412193,45.568285,0 -93.412556,45.568491,0 -93.412750,45.568649,0 -93.412921,45.568863,0 -93.412957,45.569094,0 -93.412823,45.569325,0 -93.412271,45.569796,0 -93.411895,45.570218,0 -93.411649,45.570553,0 -93.411583,45.570903,0 -93.411610,45.571404,0 -93.411671,45.572040,0 -93.411613,45.572605,0 -93.411256,45.573290,0 -93.411043,45.573632,0 -93.410967,45.574110,0 -93.410965,45.574563,0 -93.411104,45.575047,0 -93.411383,45.575984,0 -93.411397,45.576350,0 -93.411315,45.576796,0 -93.411080,45.577106,0 -93.410798,45.577282,0 -93.410392,45.577451,0 -93.409702,45.577573,0 -93.409046,45.577686,0 -93.408096,45.577777,0 -93.407361,45.577939,0 -93.406857,45.577925,0 -93.406348,45.577910,0 -93.405617,45.577842,0</coordinates></LineString>
      <name>5 ft</name>
    </Placemark>
  <Placemark>
      <styleUrl>#contourStyle</styleUrl>
      <LineString><coordinates>-93.407370,45.576873,0 -93.406263,45.577140,0 -93.405369,45.577286,0 -93.404758,45.577328,0 -93.404090,45.577282,0 -93.402990,45.577072,0 -93.402576,45.576930,0 -93.401885,45.576813,0 -93.401306,45.576672,0 -93.400818,45.576372,0 -93.400509,45.576015,0 -93.400324,45.575427,0 -93.400151,45.574911,0 -93.399903,45.574268,0 -93.399662,45.573903,0 -93.399389,45.573682,0 -93.399037,45.573476,0 -93.398435,45.573279,0 -93.398151,45.573145,0 -93.397913,45.573035,0 -93.397798,45.572876,0 -93.397820,45.572741,0 -93.397887,45.572653,0 -93.398057,45.572605,0 -93.398476,45.572667,0 -93.398873,45.572769,0 -93.399202,45.572895,0 -93.399953,45.573401,0 -93.400397,45.573781,0 -93.400695,45.574297,0 -93.400824,45.574877,0 -93.400884,45.575417,0 -93.400988,45.575703,0 -93.401250,45.575949,0 -93.401874,45.576137,0 -93.402452,45.576199,0 -93.403607,45.576235,0 -93.404592,45.576231,0 -93.404892,45.576190,0 -93.405264,45.575990,0 -93.405387,45.575831,0 -93.405634,45.575440,0 -93.406016,45.575057,0 -93.406444,45.574738,0 -93.406861,45.574474,0 -93.407232,45.574123,0 -93.407506,45.573748,0 -93.407629,45.573470,0 -93.407694,45.573143,0 -93.407726,45.572793,0 -93.407746,45.572475,0 -93.407711,45.572269,0 -93.407551,45.572126,0 -93.407313,45.572016,0 -93.406836,45.571890,0 -93.406485,45.571828,0 -93.406105,45.571742,0 -93.405560,45.571577,0 -93.405186,45.571387,0 -93.404958,45.571221,0 -93.404912,45.571078,0 -93.405113,45.570728,0 -93.405608,45.570328,0 -93.406194,45.569977,0 -93.406950,45.569640,0 -93.407305,45.569368,0 -93.407552,45.569073,0 -93.407629,45.568747,0 -93.407706,45.568437,0 -93.407874,45.568277,0 -93.408337,45.568053,0 -93.408879,45.567868,0 -93.409490,45.567826,0 -93.410010,45.567808,0 -93.410452,45.567862,0 -93.411097,45.567892,0 -93.411358,45.567947,0 -93.411665,45.568144,0 -93.412149,45.568484,0 -93.412547,45.568729,0 -93.412684,45.568936,0 -93.412686,45.569206,0 -93.412597,45.569405,0 -93.412079,45.569836,0 -93.411911,45.570083,0 -93.411585,45.570387,0 -93.411424,45.570761,0 -93.411348,45.571214,0 -93.411408,45.571643,0 -93.411501,45.571977,0 -93.411436,45.572470,0 -93.411343,45.572852,0 -93.410862,45.573649,0 -93.410762,45.573935,0 -93.410789,45.574524,0 -93.410866,45.574937,0 -93.411075,45.575731,0 -93.411100,45.576065,0 -93.411000,45.576304,0 -93.410764,45.576511,0 -93.410006,45.576641,0 -93.409497,45.576675,0 -93.408965,45.576669,0 -93.408670,45.576598,0 -93.408172,45.576600,0 -93.407370,45.576873,0</coordinates></LineString>
      <name>10 ft</name>
    </Placemark>
  <Placemark>
      <styleUrl>#contourStyle</styleUrl>
      <LineString><coordinates>-93.409973,45.575115,0 -93.409444,45.575626,0 -93.409163,45.575841,0 -93.408430,45.576202,0 -93.407606,45.576523,0 -93.406685,45.576756,0 -93.406006,45.576815,0 -93.404613,45.576827,0 -93.403526,45.576720,0 -93.403106,45.576658,0 -93.402206,45.576589,0 -93.401605,45.576480,0 -93.401208,45.576347,0 -93.400833,45.576101,0 -93.400638,45.575800,0 -93.400488,45.575395,0 -93.400371,45.574847,0 -93.400232,45.574466,0 -93.400008,45.573974,0 -93.399780,45.573720,0 -93.399416,45.573443,0 -93.399120,45.573301,0 -93.398802,45.573167,0 -93.398621,45.573104,0 -93.398586,45.573048,0 -93.398643,45.573016,0 -93.399005,45.573071,0 -93.399346,45.573229,0 -93.399904,45.573632,0 -93.400258,45.574116,0 -93.400604,45.574933,0 -93.400733,45.575577,0 -93.400893,45.575871,0 -93.401167,45.576100,0 -93.401632,45.576305,0 -93.402822,45.576476,0 -93.403513,45.576521,0 -93.404045,45.576551,0 -93.404622,45.576493,0 -93.405125,45.576412,0 -93.405780,45.576140,0 -93.406073,45.575900,0 -93.406388,45.575652,0 -93.406680,45.575365,0 -93.407096,45.574942,0 -93.407320,45.574624,0 -93.407544,45.574305,0 -93.407751,45.573946,0 -93.407861,45.573461,0 -93.407926,45.573031,0 -93.407968,45.572594,0 -93.407897,45.572157,0 -93.407979,45.571751,0 -93.408416,45.571193,0 -93.409079,45.570578,0 -93.409202,45.570347,0 -93.409189,45.570077,0 -93.409147,45.569775,0 -93.409076,45.569362,0 -93.409027,45.568853,0 -93.409160,45.568463,0 -93.409566,45.568271,0 -93.409895,45.568262,0 -93.410439,45.568371,0 -93.411006,45.568592,0 -93.411563,45.568876,0 -93.411847,45.569082,0 -93.411939,45.569240,0 -93.411941,45.569447,0 -93.411808,45.569821,0 -93.411562,45.570228,0 -93.411360,45.570586,0 -93.411171,45.571056,0 -93.411128,45.571295,0 -93.411189,45.571938,0 -93.411153,45.572384,0 -93.410785,45.573132,0 -93.410641,45.573554,0 -93.410498,45.574223,0 -93.410247,45.574724,0 -93.409973,45.575115,0</coordinates></LineString>
      <name>20 ft</name>
    </Placemark>
  <Placemark>
      <styleUrl>#contourStyle</styleUrl>
      <LineString><coordinates>-93.410354,45.573857,0 -93.409940,45.574495,0 -93.409580,45.574878,0 -93.409063,45.575293,0 -93.408511,45.575661,0 -93.408104,45.575789,0 -93.407855,45.575798,0 -93.407583,45.575704,0 -93.407457,45.575490,0 -93.407467,45.575307,0 -93.407601,45.575060,0 -93.408072,45.574478,0 -93.408363,45.574055,0 -93.408360,45.573674,0 -93.408186,45.573014,0 -93.408022,45.572307,0 -93.407998,45.572045,0 -93.408138,45.571822,0 -93.408734,45.571327,0 -93.409285,45.570904,0 -93.409543,45.570529,0 -93.409665,45.570211,0 -93.409685,45.569837,0 -93.409926,45.569462,0 -93.410241,45.569175,0 -93.410467,45.569095,0 -93.410988,45.569133,0 -93.411192,45.569195,0 -93.411397,45.569354,0 -93.411421,45.569592,0 -93.411321,45.569903,0 -93.410986,45.570468,0 -93.410708,45.571121,0 -93.410597,45.571408,0 -93.410555,45.571941,0 -93.410475,45.572609,0 -93.410435,45.573340,0 -93.410426,45.573642,0 -93.410354,45.573857,0</coordinates></LineString>
      <name>30 ft</name>
    </Placemark>
  <Placemark>
      <styleUrl>#contourStyle</styleUrl>
      <LineString><coordinates>-93.409614,45.574011,0 -93.409468,45.574250,0 -93.409288,45.574346,0 -93.409113,45.574371,0 -93.408919,45.574268,0 -93.408792,45.573863,0 -93.408765,45.573291,0 -93.408784,45.572774,0 -93.409017,45.572145,0 -93.409167,45.571779,0 -93.409482,45.571491,0 -93.409818,45.570957,0 -93.409940,45.570639,0 -93.410051,45.570368,0 -93.410298,45.570033,0 -93.410483,45.569762,0 -93.410640,45.569587,0 -93.410911,45.569562,0 -93.411048,45.569665,0 -93.411027,45.569840,0 -93.410659,45.570581,0 -93.410077,45.571553,0 -93.409842,45.571999,0 -93.409805,45.572277,0 -93.409675,45.573136,0 -93.409614,45.574011,0</coordinates></LineString>
      <name>40 ft</name>
    </Placemark>
  
  </Folder>



  <Folder>
    <Style id="Trailer Launch">
      <IconStyle>
        <Icon>
          <href>http://maps.dnr.state.mn.us/compass/graphics/kml_icons/water_access_trailer.png</href>
          <scale>0.78125</scale>
        </Icon>
      </IconStyle>
    </Style>
    <Style id="Carry-In">
      <IconStyle>
        <Icon>
          <href>http://maps.dnr.state.mn.us/compass/graphics/kml_icons/water_access_carry-in.png</href>
          <scale>0.78125</scale>
        </Icon>
      </IconStyle>
    </Style>
    <name>Water Access Sites</name>
    <description>Water Access Sites in Minnesota. Supplied by the Minnesota DNR, Division of Parks &amp; Trails</description>
    <Placemark>
      <styleUrl>#Trailer Launch</styleUrl>    
      <Point>
        <coordinates>-93.404236,45.574800</coordinates>
      </Point>
      <name>Spectacle Lake Public Water Access Site</name>
      <description>
        <![CDATA[
	  <a href="https://www.dnr.state.mn.us/water_access/site.html?id=WAS00276">more detail</a>
        ]]>
      </description>
    </Placemark>
    
  </Folder>



</Folder>
</kml>
