{"type":"FeatureCollection","features":[{"type":"Feature","geometry":{"type":"Polygon","coordinates":[[[-93.903896,45.307408],[-93.903384,45.307301],[-93.903022,45.307304],[-93.902791,45.307371],[-93.902478,45.307537],[-93.902385,45.307568],[-93.902294,45.307598],[-93.902093,45.307815],[-93.90204,45.307979],[-93.901758,45.308355],[-93.901659,45.30852],[-93.901586,45.308605],[-93.901559,45.308684],[-93.901495,45.30875],[-93.901365,45.308751],[-93.901253,45.3087],[-93.901149,45.30855],[-93.900998,45.3084],[-93.900782,45.308278],[-93.900436,45.308097],[-93.900109,45.307942],[-93.89995,45.307878],[-93.899792,45.30786],[-93.899635,45.3079],[-93.899404,45.307974],[-93.8992,45.307976],[-93.898847,45.307959],[-93.89865,45.307875],[-93.898471,45.307693],[-93.898387,45.307635],[-93.898375,45.307504],[-93.898428,45.307281],[-93.898619,45.30709],[-93.898886,45.306937],[-93.899064,45.306749],[-93.899082,45.30673],[-93.899268,45.306586],[-93.899571,45.306367],[-93.899735,45.306174],[-93.899773,45.305938],[-93.899756,45.305752],[-93.899619,45.305458],[-93.899438,45.305018],[-93.899082,45.304505],[-93.898665,45.304096],[-93.898065,45.303701],[-93.897475,45.303398],[-93.897269,45.303262],[-93.89722,45.303073],[-93.897224,45.303006],[-93.897242,45.302706],[-93.897375,45.302325],[-93.897519,45.302075],[-93.897535,45.301865],[-93.897725,45.301575],[-93.897821,45.301457],[-93.897907,45.301351],[-93.898153,45.301087],[-93.898254,45.300995],[-93.8983,45.300965],[-93.89841,45.300895],[-93.898603,45.300743],[-93.898618,45.300712],[-93.898666,45.300618],[-93.898914,45.300446],[-93.899125,45.30034],[-93.899459,45.300257],[-93.899643,45.300211],[-93.899985,45.300136],[-93.900505,45.300152],[-93.900729,45.300196],[-93.900838,45.300219],[-93.900939,45.30024],[-93.901148,45.300284],[-93.901834,45.300259],[-93.902453,45.30011],[-93.902817,45.299857],[-93.903013,45.299719],[-93.903582,45.299276],[-93.903807,45.299065],[-93.904112,45.298781],[-93.904368,45.298523],[-93.904598,45.298417],[-93.904832,45.298299],[-93.904929,45.29825],[-93.905225,45.298143],[-93.905247,45.298141],[-93.905762,45.29808],[-93.906095,45.298045],[-93.906634,45.298073],[-93.906827,45.298052],[-93.907079,45.298024],[-93.907375,45.298008],[-93.907548,45.297949],[-93.907828,45.297854],[-93.908002,45.297815],[-93.908188,45.297772],[-93.908717,45.297781],[-93.909053,45.297864],[-93.909436,45.298005],[-93.910145,45.298268],[-93.910679,45.298571],[-93.911157,45.298875],[-93.911441,45.299201],[-93.911499,45.299397],[-93.911521,45.299573],[-93.911424,45.299901],[-93.911291,45.300263],[-93.911003,45.300868],[-93.910778,45.301262],[-93.910773,45.301564],[-93.910611,45.301879],[-93.910228,45.302282],[-93.909981,45.3025],[-93.909755,45.302895],[-93.909499,45.303133],[-93.90938,45.303265],[-93.909382,45.303382],[-93.909422,45.303513],[-93.909489,45.303689],[-93.909528,45.303774],[-93.909456,45.303899],[-93.909451,45.304194],[-93.909445,45.304423],[-93.909264,45.304713],[-93.909073,45.304924],[-93.90887,45.305017],[-93.908593,45.305085],[-93.908307,45.305218],[-93.908151,45.305298],[-93.908144,45.305436],[-93.908293,45.305474],[-93.908405,45.305519],[-93.908545,45.305583],[-93.908776,45.30549],[-93.909109,45.305454],[-93.909258,45.305486],[-93.909334,45.305564],[-93.909401,45.305687],[-93.90942,45.30572],[-93.909422,45.305838],[-93.909367,45.30593],[-93.909415,45.306009],[-93.909499,45.306047],[-93.909426,45.306113],[-93.909316,45.306186],[-93.90928,45.306258],[-93.909272,45.306311],[-93.909263,45.30637],[-93.909199,45.306449],[-93.909108,45.306515],[-93.909068,45.306516],[-93.909024,45.306516],[-93.908977,45.30647],[-93.908902,45.306425],[-93.908772,45.306407],[-93.908643,45.306473],[-93.908513,45.306474],[-93.908355,45.306443],[-93.908253,45.30647],[-93.908163,45.306647],[-93.908193,45.306752],[-93.908101,45.306838],[-93.908032,45.307153],[-93.908055,45.307414],[-93.908104,45.30761],[-93.908172,45.307787],[-93.908228,45.307832],[-93.90822,45.307891],[-93.908351,45.307929],[-93.908324,45.308028],[-93.908353,45.308067],[-93.908308,45.308166],[-93.908348,45.308342],[-93.908303,45.308441],[-93.907964,45.308699],[-93.907652,45.308957],[-93.907607,45.309055],[-93.907627,45.309121],[-93.907368,45.309175],[-93.906832,45.30935],[-93.906678,45.30939],[-93.906259,45.309498],[-93.906113,45.309604],[-93.905965,45.309638],[-93.905788,45.30964],[-93.905693,45.309516],[-93.9056,45.30935],[-93.90555,45.309262],[-93.905483,45.309105],[-93.905376,45.308818],[-93.905328,45.3087],[-93.905262,45.308622],[-93.905103,45.308551],[-93.905025,45.308329],[-93.904948,45.30822],[-93.904911,45.308166],[-93.904712,45.307906],[-93.904468,45.307751],[-93.904196,45.307543],[-93.903896,45.307408]]]},"properties":{}}]}