{"type":"FeatureCollection","features":[{"type":"Feature","geometry":{"type":"Polygon","coordinates":[[[-93.688549,45.431095],[-93.688489,45.430932],[-93.688489,45.43091],[-93.688489,45.430891],[-93.688479,45.43085],[-93.688418,45.430824],[-93.688372,45.430803],[-93.6884,45.430735],[-93.688402,45.430734],[-93.688487,45.430721],[-93.688514,45.430612],[-93.688607,45.430525],[-93.688664,45.430473],[-93.688869,45.430282],[-93.688906,45.430282],[-93.688965,45.430282],[-93.689014,45.430288],[-93.689125,45.430343],[-93.68915,45.430356],[-93.689159,45.430321],[-93.689126,45.430285],[-93.689012,45.430159],[-93.688759,45.430031],[-93.688487,45.429951],[-93.687335,45.429958],[-93.686861,45.42992],[-93.685883,45.429966],[-93.685448,45.429962],[-93.684867,45.429931],[-93.683946,45.429828],[-93.683365,45.429784],[-93.683132,45.429744],[-93.682578,45.42955],[-93.682226,45.429252],[-93.682019,45.428919],[-93.681876,45.428348],[-93.681899,45.42785],[-93.681912,45.427813],[-93.682021,45.427488],[-93.682191,45.427133],[-93.682325,45.427043],[-93.682361,45.426839],[-93.682564,45.426547],[-93.682628,45.426455],[-93.682943,45.42612],[-93.683123,45.425974],[-93.683163,45.425941],[-93.683587,45.425727],[-93.684049,45.42544],[-93.68424,45.425321],[-93.684797,45.424929],[-93.685229,45.424634],[-93.685575,45.424444],[-93.685719,45.424365],[-93.686383,45.424095],[-93.686787,45.423932],[-93.687048,45.423826],[-93.687298,45.423715],[-93.687278,45.423627],[-93.68728,45.423576],[-93.687286,45.42347],[-93.68739,45.423265],[-93.687827,45.422642],[-93.687913,45.422525],[-93.688104,45.422368],[-93.68819,45.42221],[-93.688197,45.422013],[-93.688078,45.421761],[-93.687981,45.421734],[-93.687999,45.421666],[-93.688182,45.421597],[-93.688266,45.421582],[-93.688298,45.421576],[-93.688472,45.421575],[-93.688427,45.421594],[-93.688193,45.421692],[-93.688251,45.421706],[-93.688425,45.421677],[-93.688792,45.421641],[-93.688956,45.421545],[-93.68906,45.42138],[-93.689117,45.421298],[-93.689126,45.421182],[-93.689037,45.421026],[-93.6889,45.420932],[-93.688696,45.420851],[-93.688212,45.420854],[-93.688105,45.420807],[-93.688094,45.420718],[-93.688122,45.420643],[-93.688383,45.420594],[-93.688411,45.420553],[-93.688274,45.420422],[-93.688255,45.420404],[-93.68807,45.420316],[-93.687924,45.420283],[-93.687577,45.420394],[-93.687325,45.420375],[-93.687288,45.420365],[-93.687223,45.420348],[-93.686976,45.420282],[-93.686917,45.420201],[-93.686935,45.420142],[-93.686945,45.420112],[-93.687098,45.419995],[-93.687242,45.419858],[-93.687279,45.419776],[-93.687249,45.419667],[-93.687062,45.41943],[-93.686984,45.419362],[-93.686869,45.419333],[-93.686722,45.419295],[-93.686711,45.41928],[-93.686604,45.419132],[-93.686534,45.418963],[-93.686543,45.418867],[-93.686724,45.418655],[-93.68681,45.418559],[-93.686847,45.418449],[-93.686814,45.418116],[-93.686745,45.418021],[-93.686532,45.417974],[-93.686473,45.417934],[-93.686491,45.417804],[-93.686549,45.417777],[-93.686646,45.417776],[-93.686762,45.417809],[-93.686967,45.417972],[-93.687054,45.417971],[-93.687315,45.417888],[-93.687338,45.417891],[-93.687421,45.417901],[-93.68748,45.417921],[-93.687499,45.417968],[-93.687326,45.418045],[-93.687231,45.418134],[-93.687222,45.418263],[-93.687272,45.418399],[-93.687321,45.418426],[-93.687457,45.418446],[-93.687555,45.418547],[-93.687556,45.41867],[-93.687395,45.418944],[-93.687243,45.419163],[-93.687254,45.419285],[-93.68728,45.419338],[-93.687314,45.419408],[-93.687418,45.419514],[-93.68748,45.419577],[-93.687689,45.419806],[-93.687716,45.419835],[-93.687892,45.420038],[-93.688019,45.420126],[-93.688194,45.420159],[-93.68833,45.420206],[-93.688583,45.420347],[-93.68869,45.420353],[-93.688853,45.42023],[-93.689151,45.420119],[-93.689306,45.420077],[-93.689635,45.420068],[-93.689844,45.420007],[-93.689847,45.420006],[-93.690089,45.419971],[-93.690146,45.419963],[-93.690293,45.419891],[-93.690329,45.419873],[-93.690533,45.41964],[-93.690587,45.419579],[-93.690672,45.419428],[-93.690671,45.419312],[-93.69069,45.419144],[-93.690706,45.419006],[-93.690779,45.418644],[-93.690912,45.418493],[-93.691201,45.418376],[-93.691337,45.418375],[-93.691593,45.418463],[-93.691706,45.418502],[-93.692046,45.418595],[-93.692326,45.418587],[-93.693098,45.418378],[-93.693377,45.418212],[-93.693809,45.417998],[-93.693964,45.417963],[-93.694109,45.417969],[-93.694206,45.417955],[-93.694397,45.417777],[-93.694567,45.417401],[-93.694639,45.417019],[-93.694705,45.416875],[-93.69484,45.416793],[-93.695043,45.416757],[-93.695236,45.41679],[-93.695547,45.416836],[-93.695837,45.416814],[-93.696048,45.416704],[-93.696134,45.416628],[-93.696037,45.416567],[-93.696017,45.416493],[-93.696025,45.416404],[-93.696112,45.416362],[-93.696344,45.416327],[-93.696595,45.416305],[-93.697194,45.416233],[-93.697561,45.416149],[-93.697792,45.416107],[-93.698346,45.416247],[-93.698763,45.416326],[-93.698908,45.416325],[-93.699121,45.416324],[-93.699256,45.416323],[-93.699431,45.416397],[-93.699442,45.416506],[-93.699357,45.416622],[-93.699165,45.41676],[-93.699109,45.416964],[-93.699121,45.417141],[-93.699185,45.417605],[-93.699333,45.417835],[-93.699491,45.418121],[-93.699493,45.418243],[-93.699426,45.418291],[-93.699184,45.418341],[-93.698856,45.418411],[-93.698664,45.418473],[-93.698538,45.418481],[-93.698005,45.41845],[-93.69757,45.418473],[-93.697309,45.418509],[-93.697184,45.418571],[-93.69704,45.418674],[-93.696944,45.418729],[-93.696703,45.418799],[-93.696095,45.418932],[-93.69598,45.418987],[-93.695865,45.419097],[-93.695866,45.419226],[-93.695818,45.419268],[-93.695585,45.419201],[-93.695323,45.4191],[-93.694984,45.419061],[-93.694809,45.419056],[-93.694568,45.419105],[-93.69423,45.419175],[-93.693728,45.419267],[-93.693468,45.419357],[-93.693219,45.419556],[-93.692968,45.41966],[-93.692699,45.419798],[-93.692545,45.419894],[-93.692547,45.420017],[-93.692579,45.420275],[-93.692561,45.420364],[-93.692505,45.420521],[-93.6924,45.420685],[-93.69219,45.420878],[-93.692076,45.421083],[-93.691972,45.421274],[-93.691839,45.421459],[-93.691763,45.421562],[-93.691747,45.421834],[-93.691536,45.422026],[-93.690979,45.422364],[-93.690777,45.422501],[-93.690711,45.422618],[-93.690723,45.422849],[-93.690792,45.422951],[-93.690999,45.423188],[-93.691146,45.423344],[-93.691167,45.423474],[-93.690992,45.423475],[-93.690808,45.423442],[-93.690518,45.423468],[-93.690489,45.423471],[-93.690502,45.423498],[-93.690519,45.423532],[-93.690587,45.423566],[-93.690945,45.423584],[-93.691159,45.423637],[-93.69153,45.423901],[-93.691638,45.424009],[-93.691736,45.424158],[-93.691739,45.424383],[-93.691634,45.424493],[-93.691558,45.424596],[-93.69157,45.424786],[-93.69166,45.425024],[-93.691867,45.425364],[-93.691927,45.425534],[-93.692067,45.425853],[-93.692225,45.426146],[-93.692444,45.426628],[-93.692545,45.426948],[-93.692547,45.427173],[-93.692549,45.427309],[-93.692445,45.4275],[-93.692342,45.427808],[-93.692239,45.428054],[-93.692193,45.428279],[-93.692101,45.428661],[-93.692092,45.428743],[-93.691949,45.428901],[-93.691702,45.429297],[-93.691496,45.42981],[-93.691325,45.430077],[-93.690993,45.430631],[-93.690802,45.430877],[-93.690793,45.430973],[-93.690736,45.431048],[-93.690611,45.431055],[-93.689954,45.431155],[-93.689499,45.431151],[-93.689334,45.431118],[-93.688869,45.431093],[-93.688866,45.431097],[-93.688831,45.431148],[-93.688822,45.431203],[-93.688928,45.431216],[-93.689085,45.431245],[-93.689171,45.431262],[-93.68922,45.431289],[-93.68923,45.431343],[-93.689163,45.431425],[-93.689165,45.431569],[-93.688788,45.431639],[-93.688614,45.431606],[-93.688594,45.431545],[-93.68861,45.431327],[-93.688549,45.431095]]]},"properties":{}}]}