{"type":"FeatureCollection","features":[{"type":"Feature","geometry":{"type":"Polygon","coordinates":[[[-93.514469,45.488091],[-93.514278,45.487633],[-93.5142,45.48726],[-93.514187,45.486762],[-93.514343,45.486559],[-93.514517,45.486276],[-93.514562,45.486021],[-93.514644,45.485863],[-93.514893,45.48562],[-93.514995,45.485586],[-93.515452,45.48563],[-93.515702,45.485544],[-93.51597,45.485313],[-93.516256,45.485024],[-93.516542,45.484695],[-93.516718,45.484577],[-93.516904,45.484595],[-93.5171,45.48464],[-93.517258,45.48464],[-93.517416,45.484554],[-93.517685,45.484487],[-93.518039,45.484433],[-93.518634,45.484411],[-93.518876,45.48439],[-93.519212,45.484428],[-93.519551,45.484538],[-93.519707,45.484589],[-93.520126,45.484607],[-93.520368,45.484625],[-93.520385,45.484622],[-93.520665,45.484572],[-93.520982,45.48459],[-93.5213,45.484693],[-93.521618,45.484882],[-93.522094,45.48505],[-93.522495,45.485107],[-93.522776,45.485263],[-93.522907,45.485354],[-93.522935,45.485373],[-93.523188,45.485529],[-93.523414,45.485745],[-93.523509,45.485973],[-93.523539,45.486235],[-93.523533,45.486602],[-93.523499,45.486884],[-93.523346,45.48726],[-93.523326,45.48731],[-93.52315,45.487442],[-93.523075,45.487463],[-93.523029,45.487475],[-93.522968,45.487533],[-93.522863,45.487633],[-93.522381,45.487852],[-93.521889,45.488018],[-93.521369,45.488144],[-93.520363,45.488156],[-93.520233,45.48815],[-93.520018,45.488079],[-93.51917,45.488056],[-93.518229,45.487982],[-93.517764,45.487951],[-93.517457,45.487985],[-93.517253,45.488091],[-93.517246,45.488092],[-93.51715,45.488098],[-93.517077,45.488184],[-93.517124,45.488275],[-93.517246,45.488327],[-93.517358,45.488411],[-93.517405,45.488457],[-93.51741,45.48849],[-93.517415,45.488529],[-93.517313,45.488615],[-93.517025,45.488701],[-93.51657,45.488782],[-93.516235,45.488842],[-93.51604,45.488843],[-93.515517,45.488741],[-93.514929,45.488527],[-93.514648,45.488358],[-93.514469,45.488091]]]},"properties":{}}]}