{"type":"FeatureCollection","features":[{"type":"Feature","geometry":{"type":"Polygon","coordinates":[[[-93.616596,45.496865],[-93.616557,45.496754],[-93.616464,45.496709],[-93.616481,45.49661],[-93.616564,45.496557],[-93.616714,45.496596],[-93.616862,45.496612],[-93.616882,45.496615],[-93.616901,45.496604],[-93.616974,45.496562],[-93.617019,45.496424],[-93.616916,45.496333],[-93.616896,45.496222],[-93.616931,45.496038],[-93.616985,45.495815],[-93.616955,45.495691],[-93.616898,45.495527],[-93.616916,45.495475],[-93.61698,45.495409],[-93.617007,45.495317],[-93.616986,45.495088],[-93.616994,45.494996],[-93.617198,45.49493],[-93.617374,45.494844],[-93.617587,45.494666],[-93.617715,45.494468],[-93.617694,45.49422],[-93.617533,45.493978],[-93.617362,45.493691],[-93.617154,45.493424],[-93.617051,45.493378],[-93.616761,45.493275],[-93.616621,45.493171],[-93.616572,45.493021],[-93.616533,45.492811],[-93.616427,45.492517],[-93.616396,45.49221],[-93.616459,45.492013],[-93.616472,45.491815],[-93.616483,45.491646],[-93.616757,45.491153],[-93.616977,45.490818],[-93.617124,45.490653],[-93.617267,45.490528],[-93.61741,45.490403],[-93.617659,45.490212],[-93.618037,45.489902],[-93.618126,45.489857],[-93.618454,45.48969],[-93.618631,45.489683],[-93.618911,45.489733],[-93.619255,45.489653],[-93.619729,45.489605],[-93.620064,45.48955],[-93.620295,45.489464],[-93.620363,45.489478],[-93.620538,45.489515],[-93.620797,45.489396],[-93.621013,45.489315],[-93.621243,45.48923],[-93.621688,45.489057],[-93.622077,45.488899],[-93.622114,45.488884],[-93.622193,45.488777],[-93.622288,45.488648],[-93.622294,45.488274],[-93.622167,45.487738],[-93.621853,45.487163],[-93.621718,45.486712],[-93.621751,45.486345],[-93.621923,45.485912],[-93.622371,45.485143],[-93.622425,45.485038],[-93.622471,45.484913],[-93.622551,45.484612],[-93.622567,45.484402],[-93.622584,45.484186],[-93.622646,45.483884],[-93.622709,45.483707],[-93.622875,45.483562],[-93.62306,45.483443],[-93.623263,45.48335],[-93.62344,45.483296],[-93.623458,45.48329],[-93.623653,45.483035],[-93.623679,45.483001],[-93.623741,45.482798],[-93.623907,45.48262],[-93.62411,45.482449],[-93.624165,45.482337],[-93.624089,45.482259],[-93.623931,45.482253],[-93.623736,45.482287],[-93.623578,45.482288],[-93.623474,45.482216],[-93.623501,45.482131],[-93.623594,45.482104],[-93.62365,45.482117],[-93.623744,45.482149],[-93.624004,45.482135],[-93.624172,45.482127],[-93.624275,45.482173],[-93.624386,45.482185],[-93.624505,45.481955],[-93.624606,45.481869],[-93.624652,45.481804],[-93.62452,45.481588],[-93.624491,45.481503],[-93.624592,45.481444],[-93.624846,45.481626],[-93.624958,45.481638],[-93.625144,45.481611],[-93.625328,45.481492],[-93.625587,45.481321],[-93.626337,45.480933],[-93.626356,45.480923],[-93.626503,45.480847],[-93.626994,45.480592],[-93.627669,45.480143],[-93.628167,45.479728],[-93.628841,45.479253],[-93.629406,45.478942],[-93.629757,45.478671],[-93.630459,45.478209],[-93.630802,45.478063],[-93.631247,45.477884],[-93.631437,45.477855],[-93.631693,45.477816],[-93.63214,45.477826],[-93.632261,45.477845],[-93.632403,45.477782],[-93.632408,45.477779],[-93.632409,45.477779],[-93.632474,45.477713],[-93.63265,45.47766],[-93.632752,45.477649],[-93.632901,45.477632],[-93.633487,45.477566],[-93.633812,45.477529],[-93.634324,45.477565],[-93.635166,45.477862],[-93.635831,45.478245],[-93.63633,45.478707],[-93.636416,45.478903],[-93.636427,45.479073],[-93.636531,45.479197],[-93.636532,45.479308],[-93.63647,45.479597],[-93.636419,45.480043],[-93.636386,45.480423],[-93.636123,45.481059],[-93.636034,45.481407],[-93.635898,45.481715],[-93.635706,45.482051],[-93.635655,45.482496],[-93.635712,45.483367],[-93.635706,45.48354],[-93.635705,45.483577],[-93.635729,45.484048],[-93.635753,45.484143],[-93.635797,45.484316],[-93.635751,45.484402],[-93.635631,45.484487],[-93.635418,45.484561],[-93.634796,45.484747],[-93.634434,45.48488],[-93.634277,45.484934],[-93.634035,45.484968],[-93.633746,45.48495],[-93.633746,45.48495],[-93.633638,45.484918],[-93.633503,45.484879],[-93.63347,45.484873],[-93.633401,45.48486],[-93.633253,45.484959],[-93.633104,45.484921],[-93.632982,45.484895],[-93.632917,45.484863],[-93.632953,45.484771],[-93.633147,45.484678],[-93.633435,45.484565],[-93.633573,45.484473],[-93.633535,45.484342],[-93.633356,45.484218],[-93.633226,45.484186],[-93.633068,45.484246],[-93.633013,45.484351],[-93.633005,45.484423],[-93.632931,45.484443],[-93.632573,45.484432],[-93.632567,45.484432],[-93.632426,45.484309],[-93.632368,45.484132],[-93.632237,45.484041],[-93.631798,45.483939],[-93.631687,45.483939],[-93.631547,45.48394],[-93.63149,45.483816],[-93.631415,45.483777],[-93.631108,45.483785],[-93.63095,45.483865],[-93.630909,45.483926],[-93.630813,45.484069],[-93.630835,45.484204],[-93.630843,45.484252],[-93.630761,45.484396],[-93.630679,45.484567],[-93.630531,45.484666],[-93.630277,45.484926],[-93.630273,45.48493],[-93.63021,45.485107],[-93.630284,45.485286],[-93.630373,45.485499],[-93.630687,45.486165],[-93.630737,45.486414],[-93.630739,45.486656],[-93.630694,45.486755],[-93.630683,45.486769],[-93.630593,45.48688],[-93.630528,45.487102],[-93.630503,45.487188],[-93.630421,45.487359],[-93.630293,45.487543],[-93.62997,45.487761],[-93.629265,45.488046],[-93.628633,45.488181],[-93.628076,45.488321],[-93.627595,45.48854],[-93.627335,45.48864],[-93.627237,45.488712],[-93.627086,45.488824],[-93.627125,45.488975],[-93.627605,45.489522],[-93.627848,45.489662],[-93.628001,45.48975],[-93.628055,45.489782],[-93.62839,45.48978],[-93.628626,45.489743],[-93.628995,45.489685],[-93.629191,45.489698],[-93.629265,45.489703],[-93.629509,45.489872],[-93.629686,45.490036],[-93.629848,45.490184],[-93.629861,45.490214],[-93.629934,45.49038],[-93.630122,45.490615],[-93.630123,45.490707],[-93.630096,45.490773],[-93.630209,45.490837],[-93.63044,45.490784],[-93.630441,45.490784],[-93.630443,45.490785],[-93.630488,45.490805],[-93.6306,45.490855],[-93.63061,45.490877],[-93.630696,45.491071],[-93.630671,45.491378],[-93.630533,45.49153],[-93.630369,45.491615],[-93.630366,45.491616],[-93.630153,45.49165],[-93.630122,45.491643],[-93.630041,45.491624],[-93.629984,45.491572],[-93.629844,45.49156],[-93.629668,45.49162],[-93.629555,45.491721],[-93.629345,45.49191],[-93.629318,45.491938],[-93.629134,45.492127],[-93.629033,45.492278],[-93.628944,45.492665],[-93.628902,45.492773],[-93.628835,45.492947],[-93.628551,45.493283],[-93.62855,45.493285],[-93.62853,45.493347],[-93.628497,45.493453],[-93.628408,45.493517],[-93.628386,45.493533],[-93.627925,45.494013],[-93.627584,45.494271],[-93.627148,45.494489],[-93.626898,45.494615],[-93.626779,45.494727],[-93.626798,45.494832],[-93.626911,45.49487],[-93.626994,45.494944],[-93.627014,45.494961],[-93.627043,45.495059],[-93.62698,45.49525],[-93.626927,45.495538],[-93.626874,45.495761],[-93.626793,45.496037],[-93.626695,45.496005],[-93.626672,45.495998],[-93.626437,45.495803],[-93.626319,45.495705],[-93.626117,45.495536],[-93.626045,45.495466],[-93.625901,45.495328],[-93.625843,45.495177],[-93.625832,45.494988],[-93.625775,45.494896],[-93.625732,45.494896],[-93.625502,45.494894],[-93.625396,45.494893],[-93.625309,45.494892],[-93.624703,45.494843],[-93.623418,45.494804],[-93.622951,45.494751],[-93.62294,45.49475],[-93.622697,45.494722],[-93.622318,45.494679],[-93.621972,45.494629],[-93.621431,45.494527],[-93.621283,45.494534],[-93.620854,45.494556],[-93.620585,45.494617],[-93.620427,45.49469],[-93.620253,45.494716],[-93.620158,45.49473],[-93.619775,45.494654],[-93.619402,45.494597],[-93.619141,45.494605],[-93.618919,45.494685],[-93.618715,45.494764],[-93.618437,45.494962],[-93.618402,45.49512],[-93.618181,45.495363],[-93.618026,45.495639],[-93.617962,45.495757],[-93.617927,45.495934],[-93.617769,45.49602],[-93.617696,45.496126],[-93.617716,45.49623],[-93.617707,45.496342],[-93.617643,45.496394],[-93.61745,45.496605],[-93.617293,45.496743],[-93.617154,45.496797],[-93.617033,45.496804],[-93.616921,45.496798],[-93.616828,45.496851],[-93.616773,45.496923],[-93.616699,45.496937],[-93.616681,45.496924],[-93.616596,45.496865]]]},"properties":{}}]}