{"type":"FeatureCollection","features":[{"type":"Feature","geometry":{"type":"Polygon","coordinates":[[[-93.578676,45.46468],[-93.578238,45.46467],[-93.577178,45.46474],[-93.576657,45.464763],[-93.576313,45.464745],[-93.575538,45.464559],[-93.575043,45.464391],[-93.574407,45.464034],[-93.574209,45.463819],[-93.573963,45.463421],[-93.573446,45.462919],[-93.573014,45.462502],[-93.572873,45.462417],[-93.572649,45.462379],[-93.572408,45.462407],[-93.571832,45.462527],[-93.571441,45.46251],[-93.570657,45.462311],[-93.569658,45.462027],[-93.568706,45.461751],[-93.568379,45.461647],[-93.567989,45.461721],[-93.567637,45.461808],[-93.567329,45.461816],[-93.567012,45.461759],[-93.566741,45.461636],[-93.566451,45.461434],[-93.566187,45.461147],[-93.566101,45.460925],[-93.56609,45.460735],[-93.566234,45.460198],[-93.56633,45.459621],[-93.566408,45.459018],[-93.566385,45.458566],[-93.566446,45.45812],[-93.566571,45.457635],[-93.566814,45.456822],[-93.567131,45.455949],[-93.56745,45.45524],[-93.567676,45.454565],[-93.568022,45.453882],[-93.568537,45.453277],[-93.569099,45.452717],[-93.569421,45.452362],[-93.569661,45.452151],[-93.569818,45.452052],[-93.570245,45.451873],[-93.570718,45.451727],[-93.571182,45.451626],[-93.571433,45.451592],[-93.571573,45.451598],[-93.571675,45.451617],[-93.571723,45.451754],[-93.57191,45.451878],[-93.572079,45.452001],[-93.572462,45.452098],[-93.572807,45.452181],[-93.572984,45.452272],[-93.57299,45.452284],[-93.57301,45.452286],[-93.573179,45.452323],[-93.573261,45.452366],[-93.573363,45.452413],[-93.573431,45.452451],[-93.573445,45.452489],[-93.573445,45.452551],[-93.573398,45.452584],[-93.573277,45.452594],[-93.573135,45.452595],[-93.572938,45.452601],[-93.572756,45.452602],[-93.572627,45.452602],[-93.572583,45.452603],[-93.572572,45.452608],[-93.572546,45.452603],[-93.572499,45.452613],[-93.572431,45.452594],[-93.572335,45.452542],[-93.572267,45.452509],[-93.572199,45.452457],[-93.572124,45.452414],[-93.572009,45.452358],[-93.57192,45.452296],[-93.571825,45.452216],[-93.571743,45.452159],[-93.571661,45.452083],[-93.571565,45.452022],[-93.571484,45.451965],[-93.571402,45.451942],[-93.571375,45.45197],[-93.571491,45.452022],[-93.57158,45.452098],[-93.571702,45.452169],[-93.571811,45.452249],[-93.571934,45.452325],[-93.572043,45.45241],[-93.572152,45.452486],[-93.572282,45.452561],[-93.572383,45.452608],[-93.572465,45.452656],[-93.57254,45.452722],[-93.572586,45.452753],[-93.572599,45.452778],[-93.57272,45.452837],[-93.573403,45.453174],[-93.573562,45.453271],[-93.573826,45.453597],[-93.574219,45.453811],[-93.574649,45.453979],[-93.575331,45.454258],[-93.575573,45.454283],[-93.575984,45.454412],[-93.576077,45.454437],[-93.576095,45.454391],[-93.576068,45.454323],[-93.575895,45.453882],[-93.575543,45.453117],[-93.575313,45.452483],[-93.575233,45.451927],[-93.575098,45.451521],[-93.575091,45.451495],[-93.575093,45.451475],[-93.575091,45.451356],[-93.575117,45.451213],[-93.57519,45.451037],[-93.575256,45.450874],[-93.575315,45.450755],[-93.575341,45.450612],[-93.57534,45.450522],[-93.575346,45.450479],[-93.575357,45.450459],[-93.575456,45.450072],[-93.575554,45.44962],[-93.57556,45.449286],[-93.575549,45.449077],[-93.575568,45.449015],[-93.57558,45.448872],[-93.575586,45.448786],[-93.575579,45.448706],[-93.575517,45.448625],[-93.575428,45.448554],[-93.575389,45.44853],[-93.575177,45.448305],[-93.575128,45.44803],[-93.575142,45.447578],[-93.575085,45.447448],[-93.574935,45.447344],[-93.57474,45.447241],[-93.574701,45.44722],[-93.574645,45.44723],[-93.574432,45.447268],[-93.573966,45.44725],[-93.573761,45.447192],[-93.573546,45.447049],[-93.573291,45.446743],[-93.573176,45.446363],[-93.573094,45.445887],[-93.57312,45.445846],[-93.573187,45.445783],[-93.573234,45.445736],[-93.573336,45.445711],[-93.57341,45.445682],[-93.573411,45.445682],[-93.573412,45.445682],[-93.57343,45.445663],[-93.573497,45.445644],[-93.573501,45.445643],[-93.573646,45.445614],[-93.573747,45.445571],[-93.573868,45.445528],[-93.573923,45.445512],[-93.573932,45.445505],[-93.573985,45.445462],[-93.574198,45.44535],[-93.574682,45.445301],[-93.5751,45.445293],[-93.575909,45.445236],[-93.576309,45.445247],[-93.576392,45.445281],[-93.576692,45.445403],[-93.576894,45.445554],[-93.577386,45.445923],[-93.577836,45.446229],[-93.578005,45.446372],[-93.57836,45.446548],[-93.57837,45.446553],[-93.578539,45.446723],[-93.578688,45.446895],[-93.578793,45.447016],[-93.578916,45.447179],[-93.579096,45.447512],[-93.579174,45.447853],[-93.579175,45.447977],[-93.579189,45.447994],[-93.579178,45.448011],[-93.579179,45.448059],[-93.57922,45.448111],[-93.579302,45.448153],[-93.57939,45.448186],[-93.579465,45.44821],[-93.579524,45.448218],[-93.579896,45.44838],[-93.580167,45.448509],[-93.580412,45.448842],[-93.580526,45.449018],[-93.580694,45.449102],[-93.580844,45.449233],[-93.580919,45.449239],[-93.580926,45.449168],[-93.580927,45.44916],[-93.580882,45.449122],[-93.580881,45.449112],[-93.580888,45.449069],[-93.580887,45.448998],[-93.580914,45.448945],[-93.580947,45.448912],[-93.580948,45.448908],[-93.580971,45.448905],[-93.581072,45.448753],[-93.581033,45.448583],[-93.581097,45.448498],[-93.581236,45.448451],[-93.581357,45.448398],[-93.581496,45.448345],[-93.581626,45.448351],[-93.581739,45.448508],[-93.58188,45.448605],[-93.582011,45.448742],[-93.582048,45.448742],[-93.582062,45.448758],[-93.58213,45.448777],[-93.582204,45.448772],[-93.582237,45.44871],[-93.582291,45.448629],[-93.582317,45.448576],[-93.582357,45.448514],[-93.582404,45.448471],[-93.582458,45.448433],[-93.582519,45.448408],[-93.582606,45.448389],[-93.582625,45.448384],[-93.582678,45.448392],[-93.582809,45.448515],[-93.582886,45.448724],[-93.582886,45.448736],[-93.582915,45.448764],[-93.582957,45.448897],[-93.582938,45.449025],[-93.582912,45.449111],[-93.582811,45.449212],[-93.582738,45.449327],[-93.582658,45.449437],[-93.582624,45.449489],[-93.58253,45.449523],[-93.582429,45.449547],[-93.582416,45.449551],[-93.58239,45.449572],[-93.582382,45.449571],[-93.582341,45.449595],[-93.582335,45.449624],[-93.58241,45.449662],[-93.582485,45.449704],[-93.58262,45.449727],[-93.582729,45.449746],[-93.582782,45.44976],[-93.582935,45.449831],[-93.583234,45.450019],[-93.58345,45.450162],[-93.583731,45.450397],[-93.583929,45.450586],[-93.583966,45.450662],[-93.584033,45.450801],[-93.584083,45.451142],[-93.584144,45.451633],[-93.584214,45.451741],[-93.5844,45.452031],[-93.584494,45.452207],[-93.584629,45.452652],[-93.584634,45.452738],[-93.584663,45.453228],[-93.584592,45.453575],[-93.584521,45.453779],[-93.584484,45.453884],[-93.58444,45.45391],[-93.584299,45.453996],[-93.584291,45.454166],[-93.584374,45.454577],[-93.584389,45.454651],[-93.584566,45.455501],[-93.584572,45.455686],[-93.584579,45.455868],[-93.584602,45.456293],[-93.58459,45.456305],[-93.584597,45.456371],[-93.584591,45.456448],[-93.584606,45.456562],[-93.584607,45.456667],[-93.584621,45.456705],[-93.58462,45.456709],[-93.584625,45.456719],[-93.584627,45.456948],[-93.584514,45.45733],[-93.58451,45.457342],[-93.584337,45.457683],[-93.584098,45.457979],[-93.583849,45.45819],[-93.583692,45.458322],[-93.583638,45.458466],[-93.583759,45.458505],[-93.583842,45.458614],[-93.583853,45.458629],[-93.583968,45.458929],[-93.583907,45.45927],[-93.583715,45.459677],[-93.583338,45.460072],[-93.583275,45.460302],[-93.583212,45.460531],[-93.583073,45.461449],[-93.583047,45.461691],[-93.583024,45.461962],[-93.583014,45.462071],[-93.582961,45.462294],[-93.582885,45.462547],[-93.582878,45.462569],[-93.582853,45.462655],[-93.582809,45.462911],[-93.582737,45.463022],[-93.582534,45.463338],[-93.58248,45.463528],[-93.58248,45.463533],[-93.582491,45.463692],[-93.582388,45.463771],[-93.582386,45.463775],[-93.582306,45.463866],[-93.582192,45.463971],[-93.582118,45.464105],[-93.581998,45.464249],[-93.581945,45.464358],[-93.581899,45.464492],[-93.581887,45.464597],[-93.581888,45.464697],[-93.581881,45.464754],[-93.581828,45.464816],[-93.581646,45.464898],[-93.581511,45.464961],[-93.58135,45.465038],[-93.581167,45.465058],[-93.581018,45.465054],[-93.580984,45.465039],[-93.580652,45.464998],[-93.580084,45.464975],[-93.579488,45.464925],[-93.579124,45.464829],[-93.578676,45.46468]]]},"properties":{}}]}