{"type":"FeatureCollection","features":[{"type":"Feature","geometry":{"type":"Polygon","coordinates":[[[-93.402351,45.578134],[-93.40235,45.57813],[-93.402309,45.578131],[-93.402098,45.578073],[-93.402044,45.578057],[-93.401907,45.578018],[-93.401787,45.577992],[-93.401742,45.577982],[-93.40169,45.577961],[-93.401619,45.577933],[-93.401489,45.577868],[-93.4014,45.577837],[-93.401371,45.577837],[-93.40136,45.57783],[-93.40122,45.577817],[-93.401089,45.577828],[-93.401029,45.577906],[-93.401027,45.577912],[-93.401006,45.577959],[-93.40096,45.577975],[-93.400813,45.577978],[-93.400724,45.577979],[-93.400572,45.577979],[-93.400414,45.577948],[-93.400218,45.577909],[-93.400064,45.577871],[-93.399868,45.577796],[-93.399807,45.577746],[-93.39944,45.577593],[-93.399154,45.57747],[-93.398868,45.577328],[-93.398681,45.577161],[-93.398025,45.576645],[-93.397834,45.576464],[-93.397739,45.576124],[-93.397605,45.575645],[-93.397539,45.575271],[-93.39748,45.574933],[-93.397468,45.574511],[-93.397342,45.574418],[-93.397335,45.574418],[-93.397134,45.574408],[-93.396527,45.574364],[-93.396135,45.574391],[-93.395966,45.574392],[-93.39559,45.574261],[-93.395406,45.574075],[-93.395281,45.573942],[-93.395201,45.573768],[-93.395179,45.573702],[-93.39512,45.573519],[-93.395097,45.57344],[-93.395137,45.57334],[-93.395187,45.573275],[-93.395268,45.573247],[-93.395359,45.57325],[-93.395467,45.573267],[-93.395475,45.573271],[-93.395526,45.573268],[-93.395721,45.573184],[-93.395902,45.57301],[-93.395919,45.572972],[-93.396079,45.572815],[-93.396339,45.572487],[-93.396647,45.5723],[-93.396662,45.572281],[-93.397551,45.571627],[-93.398133,45.571371],[-93.398803,45.571236],[-93.39929,45.571214],[-93.399369,45.57121],[-93.399886,45.571341],[-93.400558,45.571616],[-93.400787,45.571708],[-93.401006,45.571796],[-93.401727,45.571829],[-93.402519,45.571971],[-93.402967,45.572187],[-93.403096,45.572291],[-93.403382,45.572523],[-93.403486,45.572764],[-93.403489,45.572802],[-93.403491,45.572804],[-93.4035,45.572873],[-93.403514,45.573016],[-93.40352,45.573099],[-93.40352,45.5731],[-93.403522,45.573101],[-93.403504,45.573212],[-93.403459,45.573382],[-93.403421,45.573441],[-93.40342,45.573443],[-93.403415,45.573458],[-93.403406,45.57349],[-93.403413,45.573526],[-93.403398,45.573606],[-93.403389,45.573656],[-93.403401,45.573754],[-93.403411,45.573838],[-93.403416,45.573923],[-93.40338,45.574077],[-93.403369,45.574123],[-93.40337,45.574129],[-93.40336,45.574163],[-93.40336,45.574165],[-93.403341,45.574215],[-93.403333,45.574251],[-93.403312,45.574281],[-93.403288,45.574304],[-93.403266,45.57432],[-93.40325,45.574325],[-93.403231,45.574352],[-93.403234,45.57439],[-93.403242,45.574438],[-93.403245,45.574465],[-93.403246,45.574503],[-93.403232,45.574524],[-93.4032,45.574541],[-93.403194,45.574542],[-93.403175,45.574564],[-93.403133,45.574634],[-93.403093,45.57468],[-93.40306,45.574717],[-93.402987,45.574829],[-93.402976,45.574861],[-93.40297,45.574881],[-93.403,45.574892],[-93.403075,45.574884],[-93.403235,45.574832],[-93.40333,45.574796],[-93.403458,45.574767],[-93.403549,45.574732],[-93.403698,45.57472],[-93.403869,45.574733],[-93.404045,45.57471],[-93.404099,45.574692],[-93.404216,45.574654],[-93.404541,45.574561],[-93.40486,45.57448],[-93.405004,45.574457],[-93.405146,45.574435],[-93.405773,45.574168],[-93.406503,45.573814],[-93.406685,45.573741],[-93.406716,45.573728],[-93.406798,45.573696],[-93.406817,45.573698],[-93.40685,45.573722],[-93.406889,45.573749],[-93.406941,45.573806],[-93.407035,45.573799],[-93.40706,45.573792],[-93.407074,45.573767],[-93.407114,45.573727],[-93.407159,45.573637],[-93.407181,45.573582],[-93.407211,45.573506],[-93.407213,45.573502],[-93.407248,45.573444],[-93.407244,45.573399],[-93.407232,45.573381],[-93.407217,45.573359],[-93.4072,45.573322],[-93.407173,45.573264],[-93.40716,45.573253],[-93.40711,45.573212],[-93.407026,45.573131],[-93.406997,45.573098],[-93.406975,45.573035],[-93.406965,45.573019],[-93.40691,45.572933],[-93.406798,45.572825],[-93.406733,45.572759],[-93.406715,45.572746],[-93.406713,45.572743],[-93.40664,45.572667],[-93.406544,45.572586],[-93.406487,45.572533],[-93.40641,45.572462],[-93.406372,45.57244],[-93.406341,45.572408],[-93.406157,45.57228],[-93.405361,45.571961],[-93.405065,45.571841],[-93.404708,45.571692],[-93.404442,45.571571],[-93.404228,45.571415],[-93.404024,45.57133],[-93.403871,45.571259],[-93.403727,45.571159],[-93.40371,45.571134],[-93.403696,45.571125],[-93.4036,45.571024],[-93.403513,45.570933],[-93.403439,45.570794],[-93.403416,45.570697],[-93.403394,45.570623],[-93.403394,45.570575],[-93.403394,45.570575],[-93.403411,45.570537],[-93.403423,45.570398],[-93.403427,45.57036],[-93.403485,45.570146],[-93.403671,45.569759],[-93.404081,45.56942],[-93.404176,45.569386],[-93.404595,45.569237],[-93.405658,45.568932],[-93.406874,45.568457],[-93.407735,45.568019],[-93.408021,45.567874],[-93.408058,45.567861],[-93.408844,45.567605],[-93.409685,45.567554],[-93.410803,45.567695],[-93.411698,45.567945],[-93.412822,45.568418],[-93.41294,45.568461],[-93.41306,45.568529],[-93.413178,45.568614],[-93.413268,45.568713],[-93.413334,45.568814],[-93.413394,45.568927],[-93.413413,45.568964],[-93.413452,45.569048],[-93.413451,45.569059],[-93.413443,45.569204],[-93.413442,45.569219],[-93.41344,45.569225],[-93.413424,45.569267],[-93.413392,45.569375],[-93.413217,45.569597],[-93.413077,45.569703],[-93.41306,45.569753],[-93.412968,45.569838],[-93.412852,45.569966],[-93.412667,45.570108],[-93.412607,45.570187],[-93.412472,45.570305],[-93.412263,45.570443],[-93.412104,45.570596],[-93.412086,45.570708],[-93.412088,45.570915],[-93.412109,45.571129],[-93.412152,45.571346],[-93.412429,45.571919],[-93.412466,45.571996],[-93.412486,45.572322],[-93.412402,45.572648],[-93.412363,45.57275],[-93.412354,45.572774],[-93.412301,45.572914],[-93.412145,45.573158],[-93.412064,45.573259],[-93.412038,45.573291],[-93.411993,45.573345],[-93.411908,45.573422],[-93.411874,45.573475],[-93.411848,45.573575],[-93.411793,45.57368],[-93.411728,45.573779],[-93.411688,45.573854],[-93.411678,45.57389],[-93.411665,45.573981],[-93.411676,45.574025],[-93.411707,45.574082],[-93.411718,45.574108],[-93.41172,45.574114],[-93.411721,45.574139],[-93.411716,45.574148],[-93.411713,45.574196],[-93.411709,45.574221],[-93.411702,45.574257],[-93.411689,45.574314],[-93.411693,45.574394],[-93.411699,45.574469],[-93.411713,45.574526],[-93.411721,45.574583],[-93.411733,45.574741],[-93.411733,45.574791],[-93.411731,45.574792],[-93.411745,45.57489],[-93.411782,45.575145],[-93.411785,45.575161],[-93.411788,45.575168],[-93.411796,45.575238],[-93.411824,45.575312],[-93.411838,45.575358],[-93.411849,45.5754],[-93.411868,45.57544],[-93.411869,45.575472],[-93.411866,45.575518],[-93.411852,45.575559],[-93.411837,45.57566],[-93.411824,45.575867],[-93.411826,45.576053],[-93.411795,45.576596],[-93.411786,45.576689],[-93.411764,45.576911],[-93.411754,45.576929],[-93.411725,45.576982],[-93.411657,45.577052],[-93.411539,45.577185],[-93.41133,45.57733],[-93.411107,45.577458],[-93.410893,45.577547],[-93.410698,45.577623],[-93.41054,45.577686],[-93.410377,45.577736],[-93.410168,45.577799],[-93.410102,45.577808],[-93.410098,45.57781],[-93.409906,45.577849],[-93.409865,45.577852],[-93.409604,45.577896],[-93.409292,45.577972],[-93.408915,45.578042],[-93.408613,45.578102],[-93.408263,45.578156],[-93.408167,45.578171],[-93.408058,45.578193],[-93.407872,45.578239],[-93.407851,45.57824],[-93.407834,45.578243],[-93.407806,45.578247],[-93.407701,45.578266],[-93.40766,45.578273],[-93.407494,45.578288],[-93.407383,45.578303],[-93.40729,45.578317],[-93.407173,45.578324],[-93.40717,45.578322],[-93.407097,45.578328],[-93.407019,45.578334],[-93.406862,45.578346],[-93.406833,45.57835],[-93.406827,45.578352],[-93.40655,45.578364],[-93.406549,45.578368],[-93.406353,45.578376],[-93.406092,45.57838],[-93.405938,45.57838],[-93.40578,45.578378],[-93.405658,45.578375],[-93.40557,45.578367],[-93.40554,45.578365],[-93.40543,45.578356],[-93.405266,45.578347],[-93.405108,45.578308],[-93.404962,45.578257],[-93.404818,45.57823],[-93.404715,45.578221],[-93.404598,45.578179],[-93.404421,45.578117],[-93.404196,45.578033],[-93.403977,45.577965],[-93.403766,45.57788],[-93.403584,45.577816],[-93.403401,45.577731],[-93.403224,45.57767],[-93.403222,45.577669],[-93.403198,45.577654],[-93.403132,45.577633],[-93.403029,45.577569],[-93.402925,45.577531],[-93.402861,45.577509],[-93.402805,45.577482],[-93.402684,45.57745],[-93.40246,45.577401],[-93.402216,45.577403],[-93.401982,45.577424],[-93.401826,45.577408],[-93.401688,45.577413],[-93.40139,45.577516],[-93.401288,45.577617],[-93.401275,45.577663],[-93.401273,45.577672],[-93.40127,45.57768],[-93.401322,45.577729],[-93.401462,45.577745],[-93.401579,45.577767],[-93.401697,45.577781],[-93.40177,45.577811],[-93.401982,45.577897],[-93.402159,45.577964],[-93.402459,45.578038],[-93.402732,45.578074],[-93.403014,45.578104],[-93.403035,45.57811],[-93.403148,45.578112],[-93.403447,45.578166],[-93.403643,45.578244],[-93.403718,45.578326],[-93.403723,45.578388],[-93.403754,45.578405],[-93.403789,45.578424],[-93.403761,45.57848],[-93.403668,45.578483],[-93.403491,45.578451],[-93.403397,45.578425],[-93.403294,45.578311],[-93.403214,45.578288],[-93.403,45.578273],[-93.402831,45.578218],[-93.402635,45.578196],[-93.402351,45.578134]]]},"properties":{}}]}