{"type":"FeatureCollection","features":[{"type":"Feature","geometry":{"type":"Polygon","coordinates":[[[-93.437601,45.582789],[-93.437368,45.582789],[-93.436732,45.582779],[-93.43618,45.582692],[-93.435814,45.582557],[-93.435576,45.582438],[-93.435286,45.582267],[-93.435274,45.582259],[-93.435107,45.582148],[-93.43492,45.582024],[-93.434648,45.581954],[-93.434392,45.581788],[-93.434213,45.581658],[-93.434197,45.581639],[-93.434042,45.581456],[-93.433896,45.581296],[-93.43388,45.581278],[-93.433649,45.581106],[-93.433564,45.581077],[-93.433564,45.581017],[-93.433563,45.580922],[-93.433511,45.580797],[-93.433451,45.58066],[-93.43334,45.580524],[-93.433289,45.580476],[-93.433287,45.580286],[-93.433295,45.580161],[-93.433304,45.580146],[-93.433345,45.580083],[-93.433412,45.580006],[-93.433395,45.579952],[-93.433284,45.579845],[-93.433258,45.579768],[-93.433383,45.579565],[-93.433408,45.579416],[-93.433338,45.57919],[-93.433313,45.579149],[-93.433201,45.57897],[-93.433173,45.578703],[-93.433137,45.578459],[-93.433144,45.578214],[-93.433107,45.577869],[-93.43313,45.57747],[-93.433122,45.577373],[-93.433111,45.57722],[-93.433057,45.577096],[-93.432973,45.576899],[-93.432869,45.576691],[-93.432759,45.576686],[-93.432488,45.576723],[-93.432378,45.576705],[-93.432082,45.576802],[-93.431861,45.576737],[-93.431411,45.576619],[-93.431164,45.576543],[-93.431028,45.576496],[-93.430901,45.57649],[-93.430706,45.576509],[-93.43041,45.576546],[-93.43024,45.576558],[-93.430079,45.576529],[-93.429765,45.576536],[-93.42952,45.576561],[-93.429274,45.576562],[-93.42901,45.576498],[-93.428705,45.576427],[-93.428433,45.576327],[-93.428042,45.576198],[-93.42766,45.576116],[-93.427558,45.576098],[-93.427498,45.576057],[-93.42743,45.576027],[-93.427349,45.575989],[-93.427328,45.57598],[-93.42727,45.575944],[-93.427158,45.575873],[-93.427094,45.575816],[-93.427038,45.575767],[-93.426919,45.575708],[-93.426749,45.575655],[-93.426426,45.575549],[-93.426154,45.575478],[-93.42589,45.575342],[-93.425516,45.575207],[-93.425167,45.575041],[-93.425014,45.574893],[-93.424817,45.574715],[-93.424697,45.574507],[-93.424619,45.574269],[-93.424593,45.574174],[-93.424541,45.574079],[-93.424532,45.574014],[-93.424473,45.573972],[-93.424379,45.573943],[-93.424345,45.573919],[-93.424319,45.573824],[-93.424215,45.573479],[-93.424161,45.573062],[-93.424148,45.572515],[-93.424205,45.572139],[-93.424245,45.571883],[-93.424311,45.571597],[-93.424392,45.571156],[-93.424491,45.570811],[-93.424591,45.57056],[-93.424691,45.570298],[-93.424824,45.56994],[-93.425008,45.569606],[-93.425163,45.569348],[-93.425184,45.569314],[-93.425284,45.569123],[-93.425452,45.568944],[-93.425527,45.568705],[-93.425618,45.568484],[-93.42562,45.568478],[-93.425684,45.568276],[-93.42579,45.568104],[-93.425919,45.567894],[-93.426045,45.567721],[-93.426128,45.567524],[-93.426179,45.567468],[-93.426296,45.567339],[-93.426448,45.567249],[-93.426592,45.567213],[-93.426656,45.567191],[-93.426829,45.567134],[-93.426862,45.567099],[-93.426929,45.566985],[-93.427039,45.566907],[-93.427072,45.566824],[-93.427046,45.56677],[-93.427028,45.566663],[-93.427062,45.566592],[-93.427066,45.566582],[-93.427087,45.566532],[-93.427139,45.566503],[-93.427205,45.566466],[-93.427306,45.566424],[-93.427408,45.566453],[-93.42746,45.56649],[-93.427528,45.566536],[-93.427621,45.566572],[-93.4279,45.566493],[-93.428078,45.566427],[-93.42823,45.566361],[-93.428348,45.566289],[-93.42866,45.566044],[-93.428913,45.565852],[-93.429174,45.565679],[-93.42974,45.565403],[-93.429957,45.565278],[-93.429959,45.565277],[-93.430061,45.565259],[-93.430099,45.565263],[-93.430315,45.565288],[-93.430603,45.565215],[-93.430852,45.565194],[-93.431043,45.565178],[-93.431331,45.565111],[-93.431627,45.565038],[-93.431925,45.565032],[-93.432246,45.565024],[-93.432779,45.564933],[-93.433321,45.564901],[-93.43366,45.56487],[-93.433781,45.56484],[-93.433855,45.564822],[-93.433982,45.564815],[-93.434109,45.564809],[-93.434296,45.564826],[-93.434431,45.564778],[-93.434592,45.564795],[-93.434694,45.564812],[-93.434812,45.564735],[-93.435007,45.564734],[-93.435125,45.564668],[-93.435134,45.564666],[-93.43543,45.564601],[-93.435887,45.564564],[-93.436505,45.564472],[-93.436869,45.564453],[-93.437117,45.564498],[-93.437158,45.564505],[-93.43723,45.564481],[-93.437336,45.564445],[-93.437878,45.564431],[-93.43848,45.564482],[-93.438812,45.564582],[-93.439363,45.564664],[-93.439796,45.564733],[-93.43989,45.564805],[-93.439925,45.564929],[-93.440016,45.56497],[-93.440018,45.564971],[-93.440019,45.564971],[-93.44012,45.564958],[-93.440221,45.564922],[-93.440331,45.564922],[-93.440705,45.565022],[-93.440931,45.565152],[-93.441003,45.565193],[-93.441129,45.565244],[-93.441309,45.565317],[-93.441471,45.565453],[-93.4416,45.565649],[-93.441694,45.565756],[-93.441763,45.565934],[-93.441825,45.566232],[-93.441844,45.566452],[-93.441972,45.566642],[-93.442136,45.566838],[-93.442255,45.56698],[-93.442399,45.567131],[-93.442595,45.567296],[-93.442681,45.567445],[-93.442903,45.567635],[-93.443039,45.567706],[-93.443095,45.567715],[-93.443183,45.567729],[-93.443302,45.567752],[-93.443472,45.567817],[-93.443558,45.567942],[-93.44366,45.567989],[-93.443898,45.568065],[-93.444195,45.568148],[-93.444392,45.568175],[-93.444441,45.568182],[-93.444696,45.568217],[-93.444968,45.568288],[-93.445578,45.568297],[-93.446062,45.568367],[-93.446478,45.568413],[-93.446529,45.56841],[-93.446757,45.5684],[-93.446969,45.56844],[-93.447399,45.568514],[-93.447886,45.568598],[-93.448727,45.568803],[-93.449067,45.56895],[-93.449433,45.569092],[-93.449688,45.569204],[-93.449807,45.569243],[-93.450096,45.569339],[-93.450385,45.569409],[-93.450537,45.569409],[-93.450808,45.569384],[-93.450809,45.569384],[-93.450902,45.569425],[-93.450982,45.569425],[-93.450995,45.569425],[-93.451063,45.569395],[-93.451164,45.569381],[-93.451198,45.569376],[-93.451266,45.5694],[-93.451326,45.569465],[-93.451354,45.569497],[-93.451395,45.569542],[-93.451424,45.569547],[-93.451547,45.569566],[-93.451666,45.569589],[-93.452194,45.569825],[-93.452364,45.569961],[-93.452466,45.570003],[-93.45273,45.570091],[-93.452892,45.570168],[-93.45309,45.570329],[-93.453139,45.570369],[-93.453463,45.570546],[-93.453803,45.570759],[-93.454096,45.570882],[-93.454169,45.570913],[-93.454569,45.57106],[-93.454808,45.571255],[-93.455004,45.571409],[-93.455337,45.571748],[-93.455551,45.571991],[-93.455705,45.572204],[-93.455962,45.572513],[-93.456161,45.572953],[-93.456282,45.57331],[-93.456378,45.573666],[-93.456492,45.57413],[-93.456529,45.574476],[-93.456473,45.574893],[-93.456366,45.575203],[-93.456191,45.575656],[-93.455864,45.576139],[-93.455698,45.576479],[-93.455304,45.577023],[-93.454775,45.577733],[-93.454472,45.577997],[-93.454084,45.578254],[-93.453595,45.578566],[-93.453122,45.578859],[-93.452818,45.57898],[-93.452285,45.57913],[-93.452176,45.579214],[-93.4521,45.579286],[-93.451719,45.579401],[-93.451508,45.579473],[-93.451322,45.579509],[-93.451161,45.579558],[-93.450865,45.57969],[-93.450662,45.579697],[-93.450484,45.579733],[-93.450146,45.5798],[-93.449807,45.579896],[-93.449308,45.580006],[-93.448766,45.580127],[-93.448123,45.580248],[-93.447742,45.580297],[-93.447183,45.580377],[-93.446895,45.580384],[-93.446683,45.580421],[-93.446387,45.580499],[-93.44593,45.580644],[-93.44549,45.580771],[-93.44494,45.580898],[-93.444492,45.581013],[-93.444068,45.581104],[-93.44373,45.581212],[-93.443527,45.581302],[-93.443409,45.581338],[-93.443113,45.581399],[-93.442969,45.581459],[-93.44285,45.581478],[-93.442706,45.581496],[-93.442703,45.581498],[-93.442656,45.58152],[-93.442605,45.581544],[-93.442503,45.581532],[-93.442418,45.581533],[-93.442326,45.581605],[-93.442265,45.581669],[-93.442132,45.581808],[-93.44193,45.581922],[-93.441676,45.582012],[-93.441338,45.582138],[-93.440957,45.582247],[-93.440619,45.582326],[-93.440458,45.582344],[-93.440323,45.58241],[-93.439815,45.582501],[-93.439467,45.582556],[-93.439213,45.582581],[-93.439027,45.582677],[-93.438867,45.582743],[-93.438672,45.582762],[-93.438491,45.582767],[-93.438231,45.582775],[-93.437748,45.582789],[-93.437601,45.582789]]]},"properties":{}}]}